PK;NOMBRE;PDF;CONTENT-URL;NOMBRE-VIA;CLASE-VIAL;TIPO-NUM;NUM;PLANTA;PUERTA;ESCALERAS;ORIENTACION;LOCALIDAD;PROVINCIA;CODIGO-POSTAL;COD-BARRIO;BARRIO;COD-DISTRITO;DISTRITO;COORDENADA-X;COORDENADA-Y;LATITUD;LONGITUD;TELEFONO;FAX;EMAIL;TIPO;
302283;"Almacenes Rodríguez";"https://patrimonioypaisaje.madrid.es/FrameWork/generacionPDFMonumenta/302283.pdf?idEdificio=0b08f7d9560a4510f7d9560a45102e085a0aRCRD&tipoMon=E";"https://patrimonioypaisaje.madrid.es/sites/v/index.jsp?vgnextchannel=83bc3cb702aa4510VgnVCM1000008a4a900aRCRD&vgnextoid=0b08f7d9560a4510f7d9560a45102e085a0aRCRD";"CABALLERO DE GRACIA";"Calle";"V";"3";"";"";"";"";"MADRID";"MADRID";"28013";"";"SOL";"";"CENTRO";"440537";"4474579";"40.419716000547446";"-3.700924275126349";"";"";"";""; 
11072416;"Antigua Fábrica Martini &amp; Rossi";"https://patrimonioypaisaje.madrid.es/FrameWork/generacionPDFMonumenta/11072416.pdf?idEdificio=aae94d07192ae610VgnVCM1000001d4a900aRCRD&tipoMon=E";"https://patrimonioypaisaje.madrid.es/sites/v/index.jsp?vgnextchannel=83bc3cb702aa4510VgnVCM1000008a4a900aRCRD&vgnextoid=aae94d07192ae610VgnVCM1000001d4a900aRCRD";"ARAGON";"AVENIDA";"V";"328";"";"";"";"";"MADRID";"MADRID";"28022";"";"REJAS";"";"SAN BLAS-CANILLEJAS";"450421";"4477812";"40.449487715157105";"-3.5846718811400415";"";"";"";""; 
303994;"Ateneo de Madrid";"https://patrimonioypaisaje.madrid.es/FrameWork/generacionPDFMonumenta/303994.pdf?idEdificio=4218f7d9560a4510f7d9560a45102e085a0aRCRD&tipoMon=E";"https://patrimonioypaisaje.madrid.es/sites/v/index.jsp?vgnextchannel=83bc3cb702aa4510VgnVCM1000008a4a900aRCRD&vgnextoid=4218f7d9560a4510f7d9560a45102e085a0aRCRD";"PRADO";"Calle";"V";"21";"";"";"";"";"MADRID";"MADRID";"28014";"";"CORTES";"";"CENTRO";"440750";"4474098";"40.41539811494639";"-3.698368894119228";"";"";"";""; 
302440;"Banco Bilbao Vizcaya Argentaria";"https://patrimonioypaisaje.madrid.es/FrameWork/generacionPDFMonumenta/302440.pdf?idEdificio=2e08f7d9560a4510f7d9560a45102e085a0aRCRD&tipoMon=E";"https://patrimonioypaisaje.madrid.es/sites/v/index.jsp?vgnextchannel=83bc3cb702aa4510VgnVCM1000008a4a900aRCRD&vgnextoid=2e08f7d9560a4510f7d9560a45102e085a0aRCRD";"ALCALÁ";"Calle";"V";"16";"";"";"";"";"MADRID";"MADRID";"28014";"";"CORTES";"";"CENTRO";"440759";"4474522";"40.417345829900306";"-3.69956773930541";"";"";"";""; 
325808;"Banco de España";"https://patrimonioypaisaje.madrid.es/FrameWork/generacionPDFMonumenta/325808.pdf?idEdificio=2228f7d9560a4510f7d9560a45102e085a0aRCRD&tipoMon=E";"https://patrimonioypaisaje.madrid.es/sites/v/index.jsp?vgnextchannel=83bc3cb702aa4510VgnVCM1000008a4a900aRCRD&vgnextoid=2228f7d9560a4510f7d9560a45102e085a0aRCRD";"ALCALÁ";"Calle";"V";"48";"";"";"";"";"MADRID";"MADRID";"28014";"";"CORTES";"";"CENTRO";"441032";"4474393";"40.418075647306665";"-3.6950725920539";"";"";"";""; 
302279;"Banco Matritense";"https://patrimonioypaisaje.madrid.es/FrameWork/generacionPDFMonumenta/302279.pdf?idEdificio=8a08f7d9560a4510f7d9560a45102e085a0aRCRD&tipoMon=E";"https://patrimonioypaisaje.madrid.es/sites/v/index.jsp?vgnextchannel=83bc3cb702aa4510VgnVCM1000008a4a900aRCRD&vgnextoid=8a08f7d9560a4510f7d9560a45102e085a0aRCRD";"GRAN VIA";"Calle";"V";"22";"";"";"";"";"MADRID";"MADRID";"28004";"";"JUSTICIA";"";"CENTRO";"440596";"4474627";"40.42015262123508";"-3.7002333412022166";"";"";"";""; 
307083;"Basílica Pontificia de San Miguel";"https://patrimonioypaisaje.madrid.es/FrameWork/generacionPDFMonumenta/307083.pdf?idEdificio=e518f7d9560a4510f7d9560a45102e085a0aRCRD&tipoMon=E";"https://patrimonioypaisaje.madrid.es/sites/v/index.jsp?vgnextchannel=83bc3cb702aa4510VgnVCM1000008a4a900aRCRD&vgnextoid=e518f7d9560a4510f7d9560a45102e085a0aRCRD";"SAN JUSTO";"CALLE";"V";"4";"";"";"";"";"MADRID";"MADRID";"28005";"";"PALACIO";"";"CENTRO";"439790";"4473973";"40.41420531493721";"-3.7096614825254437";"";"";"";""; 
11071963;"Biblioteca Central de la UNED Madrid";"https://patrimonioypaisaje.madrid.es/FrameWork/generacionPDFMonumenta/11071963.pdf?idEdificio=131c28649e1ae610VgnVCM2000001f4a900aRCRD&tipoMon=E";"https://patrimonioypaisaje.madrid.es/sites/v/index.jsp?vgnextchannel=83bc3cb702aa4510VgnVCM1000008a4a900aRCRD&vgnextoid=131c28649e1ae610VgnVCM2000001f4a900aRCRD";"SENDA DEL REY";"CALLE";"V";"8";"";"";"";"";"MADRID";"MADRID";"28008";"";"CASA DE CAMPO";"";"MONCLOA-ARAVACA";"437917";"4476038";"40.43267260040589";"-3.731936574991669";"";"";"";""; 
11073375;"Biblioteca Pública Usera José Hierro";"https://patrimonioypaisaje.madrid.es/FrameWork/generacionPDFMonumenta/11073375.pdf?idEdificio=e7daf2ef5c6ae610VgnVCM2000001f4a900aRCRD&tipoMon=E";"https://patrimonioypaisaje.madrid.es/sites/v/index.jsp?vgnextchannel=83bc3cb702aa4510VgnVCM1000008a4a900aRCRD&vgnextoid=e7daf2ef5c6ae610VgnVCM2000001f4a900aRCRD";"RAFAELA YBARRA";"AVENIDA";"V";"43";"";"";"";"";"MADRID";"MADRID";"28026";"";"PRADOLONGO";"";"USERA";"439681";"4470386";"40.38188230129181";"-3.7106157111470615";"";"";"";""; 
317685;"Bolsa de Madrid";"https://patrimonioypaisaje.madrid.es/FrameWork/generacionPDFMonumenta/317685.pdf?idEdificio=8d18f7d9560a4510f7d9560a45102e085a0aRCRD&tipoMon=E";"https://patrimonioypaisaje.madrid.es/sites/v/index.jsp?vgnextchannel=83bc3cb702aa4510VgnVCM1000008a4a900aRCRD&vgnextoid=8d18f7d9560a4510f7d9560a45102e085a0aRCRD";"LEALTAD";"PLAZA";"V";"1";"";"";"";"";"MADRID";"MADRID";"28014";"";"LOS JERONIMOS";"";"RETIRO";"441277";"4474257";"40.416869058196646";"-3.6921641190883117";"";"";"";""; 
380003;"CaixaForum";"https://patrimonioypaisaje.madrid.es/FrameWork/generacionPDFMonumenta/380003.pdf?idEdificio=c428f7d9560a4510f7d9560a45102e085a0aRCRD&tipoMon=E";"https://patrimonioypaisaje.madrid.es/sites/v/index.jsp?vgnextchannel=83bc3cb702aa4510VgnVCM1000008a4a900aRCRD&vgnextoid=c428f7d9560a4510f7d9560a45102e085a0aRCRD";"PRADO";"PASEO";"V";"36";"";"";"";"";"MADRID";"MADRID";"28014";"";"CORTES";"";"CENTRO";"441170";"4473606";"40.41100296472787";"-3.6933720637143432";"";"";"";""; 
303549;"Capilla de San Isidro en la Iglesia de San Andrés";"https://patrimonioypaisaje.madrid.es/FrameWork/generacionPDFMonumenta/303549.pdf?idEdificio=00083d43db3a45103d43db3a45102e085a0aRCRD&tipoMon=E";"https://patrimonioypaisaje.madrid.es/sites/v/index.jsp?vgnextchannel=83bc3cb702aa4510VgnVCM1000008a4a900aRCRD&vgnextoid=00083d43db3a45103d43db3a45102e085a0aRCRD";"SAN ANDRES";"PLAZA";"V";"1";"";"";"";"";"MADRID";"MADRID";"28005";"";"PALACIO";"";"CENTRO";"439691";"4473738";"40.41208167798535";"-3.710809418427343";"";"";"";""; 
316140;"Casa Árabe (antiguas Escuelas Aguirre)";"https://patrimonioypaisaje.madrid.es/FrameWork/generacionPDFMonumenta/316140.pdf?idEdificio=ac18f7d9560a4510f7d9560a45102e085a0aRCRD&tipoMon=E";"https://patrimonioypaisaje.madrid.es/sites/v/index.jsp?vgnextchannel=83bc3cb702aa4510VgnVCM1000008a4a900aRCRD&vgnextoid=ac18f7d9560a4510f7d9560a45102e085a0aRCRD";"ALCALA";"CALLE";"V";"62";"";"";"";"";"MADRID";"MADRID";"28009";"";"RECOLETOS";"";"SALAMANCA";"442134";"4474793";"40.42175951375861";"-3.6821165450977644";"";"";"";""; 
302902;"Casa de la Villa";"https://patrimonioypaisaje.madrid.es/FrameWork/generacionPDFMonumenta/302902.pdf?idEdificio=4f08f7d9560a4510f7d9560a45102e085a0aRCRD&tipoMon=E";"https://patrimonioypaisaje.madrid.es/sites/v/index.jsp?vgnextchannel=83bc3cb702aa4510VgnVCM1000008a4a900aRCRD&vgnextoid=4f08f7d9560a4510f7d9560a45102e085a0aRCRD";"VILLA";"PLAZA";"V";"5";"";"";"";"";"MADRID";"MADRID";"28005";"1";"PALACIO";"1";"CENTRO";"439711";"4474084";"40.41519930383812";"-3.7106114421853977";"";"";"";""; 
307084;"Casa de las Alhajas. Antigua Caja de Ahorros";"https://patrimonioypaisaje.madrid.es/FrameWork/generacionPDFMonumenta/307084.pdf?idEdificio=0618f7d9560a4510f7d9560a45102e085a0aRCRD&tipoMon=E";"https://patrimonioypaisaje.madrid.es/sites/v/index.jsp?vgnextchannel=83bc3cb702aa4510VgnVCM1000008a4a900aRCRD&vgnextoid=0618f7d9560a4510f7d9560a45102e085a0aRCRD";"SAN MARTIN";"PLAZA";"V";"1";"";"";"";"";"MADRID";"MADRID";"28013";"6";"SOL";"1";"CENTRO";"440023";"4474410";"40.418158551935534";"-3.7069590771872307";"";"";"";""; 
309418;"Casa de las Flores";"https://patrimonioypaisaje.madrid.es/FrameWork/generacionPDFMonumenta/309418.pdf?idEdificio=e818f7d9560a4510f7d9560a45102e085a0aRCRD&tipoMon=E";"https://patrimonioypaisaje.madrid.es/sites/v/index.jsp?vgnextchannel=83bc3cb702aa4510VgnVCM1000008a4a900aRCRD&vgnextoid=e818f7d9560a4510f7d9560a45102e085a0aRCRD";"RODRIGUEZ SAN PEDRO";"CALLE";"V";"72";"";"";"";"";"MADRID";"MADRID";"28015";"";"GAZTAMBIDE";"";"CHAMBERI";"439221";"4475953";"40.43200253545766";"-3.7165599011833264";"";"";"";""; 
302349;"Casa del cura de la iglesia de San José";"https://patrimonioypaisaje.madrid.es/FrameWork/generacionPDFMonumenta/302349.pdf?idEdificio=8c08f7d9560a4510f7d9560a45102e085a0aRCRD&tipoMon=E";"https://patrimonioypaisaje.madrid.es/sites/v/index.jsp?vgnextchannel=83bc3cb702aa4510VgnVCM1000008a4a900aRCRD&vgnextoid=8c08f7d9560a4510f7d9560a45102e085a0aRCRD";"ALCALÁ";"Calle";"V";"";"";"";"";"";"MADRID";"MADRID";"28014";"";"JUSTICIA";"";"CENTRO";"440879";"4474517";"40.41918184340614";"-3.696887446468761";"";"";"";""; 
11015835;"Casa Sindical (actual sede del Ministerio de Sanidad, Servicios Sociales e Igualdad)";"https://patrimonioypaisaje.madrid.es/FrameWork/generacionPDFMonumenta/11015835.pdf?idEdificio=9b48062df152d610VgnVCM1000001d4a900aRCRD&tipoMon=E";"https://patrimonioypaisaje.madrid.es/sites/v/index.jsp?vgnextchannel=83bc3cb702aa4510VgnVCM1000008a4a900aRCRD&vgnextoid=9b48062df152d610VgnVCM1000001d4a900aRCRD";"PRADO";"PASEO";"V";"18";"";"";"";"";"MADRID";"MADRID";"28014";"";"CORTES";"";"CENTRO";"441116";"4473910";"40.41373002816207";"-3.6940288616186012";"";"";"";""; 
302404;"Casino de Madrid";"https://patrimonioypaisaje.madrid.es/FrameWork/generacionPDFMonumenta/302404.pdf?idEdificio=6d08f7d9560a4510f7d9560a45102e085a0aRCRD&tipoMon=E";"https://patrimonioypaisaje.madrid.es/sites/v/index.jsp?vgnextchannel=83bc3cb702aa4510VgnVCM1000008a4a900aRCRD&vgnextoid=6d08f7d9560a4510f7d9560a45102e085a0aRCRD";"ALCALA";"CALLE";"V";"15";"";"";"";"";"MADRID";"MADRID";"28014";"";"SOL";"";"CENTRO";"440589";"4474363";"40.41777541448619";"-3.7002800119895505";"";"";"";""; 
11067311;"Casita Del Príncipe (El Pardo)";"https://patrimonioypaisaje.madrid.es/FrameWork/generacionPDFMonumenta/11067311.pdf?idEdificio=8ccfa8071288e610VgnVCM2000001f4a900aRCRD&tipoMon=E";"https://patrimonioypaisaje.madrid.es/sites/v/index.jsp?vgnextchannel=83bc3cb702aa4510VgnVCM1000008a4a900aRCRD&vgnextoid=8ccfa8071288e610VgnVCM2000001f4a900aRCRD";"ADELINA PATTI";"CALLE";"V";"1";"";"";"";"";"MADRID";"MADRID";"28048";"";"EL PARDO";"";"FUENCARRAL-EL PARDO";"433983";"4486178";"40.52371356289907";"-3.7793722663684637";"";"";"";""; 
11072237;"Cementerio de la Almudena";"https://patrimonioypaisaje.madrid.es/FrameWork/generacionPDFMonumenta/11072237.pdf?idEdificio=b1300183252ae610VgnVCM2000001f4a900aRCRD&tipoMon=E";"https://patrimonioypaisaje.madrid.es/sites/v/index.jsp?vgnextchannel=83bc3cb702aa4510VgnVCM1000008a4a900aRCRD&vgnextoid=b1300183252ae610VgnVCM2000001f4a900aRCRD";"DAROCA";"AVENIDA";"V";"94";"";"";"";"";"MADRID";"MADRID";"28017";"";"VENTAS";"";"CIUDAD LINEAL";"445188";"4475310";"40.42662313663575";"-3.6461555750010706";"";"";"";""; 
11075282;"Central Eléctrica del Pacífico, talleres y oficinas del Metro";"https://patrimonioypaisaje.madrid.es/FrameWork/generacionPDFMonumenta/11075282.pdf?idEdificio=b32ecef22dcae610VgnVCM2000001f4a900aRCRD&tipoMon=E";"https://patrimonioypaisaje.madrid.es/sites/v/index.jsp?vgnextchannel=83bc3cb702aa4510VgnVCM1000008a4a900aRCRD&vgnextoid=b32ecef22dcae610VgnVCM2000001f4a900aRCRD";"VALDERRIBAS";"CALLE";"V";"49";"";"";"";"";"MADRID";"MADRID";"28007";"";"PACIFICO";"";"RETIRO";"442768";"4472817";"40.40400482713434";"-3.6744688233892404";"";"";"";""; 
11075326;"Centro Cultural Daoíz y Velarde";"https://patrimonioypaisaje.madrid.es/FrameWork/generacionPDFMonumenta/11075326.pdf?idEdificio=b4c3cef22dcae610VgnVCM2000001f4a900aRCRD&tipoMon=E";"https://patrimonioypaisaje.madrid.es/sites/v/index.jsp?vgnextchannel=83bc3cb702aa4510VgnVCM1000008a4a900aRCRD&vgnextoid=b4c3cef22dcae610VgnVCM2000001f4a900aRCRD";"DAOIZ Y VELARDE";"PLAZA";"V";"4";"";"";"";"";"MADRID";"MADRID";"28007";"";"PACIFICO";"";"RETIRO";"442535";"4472575";"40.40180567689773";"-3.6771876805396864";"";"";"";""; 
305459;"Centro Cultural La Corrala (sede del Museo de Artes y Tradiciones Populares)";"https://patrimonioypaisaje.madrid.es/FrameWork/generacionPDFMonumenta/305459.pdf?idEdificio=0418f7d9560a4510f7d9560a45102e085a0aRCRD&tipoMon=E";"https://patrimonioypaisaje.madrid.es/sites/v/index.jsp?vgnextchannel=83bc3cb702aa4510VgnVCM1000008a4a900aRCRD&vgnextoid=0418f7d9560a4510f7d9560a45102e085a0aRCRD";"CARLOS ARNICHES";"CALLE";"V";"3";"";"";"";"";"MADRID";"MADRID";"28005";"";"EMBAJADORES";"";"CENTRO";"439899";"4473375";"40.408827275648434";"-3.7083241323093614";"";"";"";""; 
302286;"Centro del Ejército y la Armada (Casino Militar)";"https://patrimonioypaisaje.madrid.es/FrameWork/generacionPDFMonumenta/302286.pdf?idEdificio=4b08f7d9560a4510f7d9560a45102e085a0aRCRD&tipoMon=E";"https://patrimonioypaisaje.madrid.es/sites/v/index.jsp?vgnextchannel=83bc3cb702aa4510VgnVCM1000008a4a900aRCRD&vgnextoid=4b08f7d9560a4510f7d9560a45102e085a0aRCRD";"CABALLERO DE GRACIA";"Calle";"V";"9";"";"";"";"";"MADRID";"MADRID";"28013";"";"SOL";"";"CENTRO";"440620";"4474558";"40.419523741055684";"-3.699943922067412";"";"";"";""; 
302169;"Cine Avenida";"https://patrimonioypaisaje.madrid.es/FrameWork/generacionPDFMonumenta/302169.pdf?idEdificio=00083a2ae80a45103a2ae80a45102e085a0aRCRD&tipoMon=E";"https://patrimonioypaisaje.madrid.es/sites/v/index.jsp?vgnextchannel=83bc3cb702aa4510VgnVCM1000008a4a900aRCRD&vgnextoid=00083a2ae80a45103a2ae80a45102e085a0aRCRD";"ABADA";"Calle";"V";"11";"";"";"";"";"MADRID";"MADRID";"";"6";"SOL";"1";"CENTRO";"440185";"4474605";"40.419924992685935";"-3.7050756479788833";"";"";"";""; 
302112;"Cine Callao";"https://patrimonioypaisaje.madrid.es/FrameWork/generacionPDFMonumenta/302112.pdf?idEdificio=e608f7d9560a4510f7d9560a45102e085a0aRCRD&tipoMon=E";"https://patrimonioypaisaje.madrid.es/sites/v/index.jsp?vgnextchannel=83bc3cb702aa4510VgnVCM1000008a4a900aRCRD&vgnextoid=e608f7d9560a4510f7d9560a45102e085a0aRCRD";"CALLAO";"Plaza";"V";"2";"";"";"";"";"MADRID";"MADRID";"28013";"";"SOL";"";"CENTRO";"440084";"4474612";"40.419980785676174";"-3.706266769929261";"";"";"";""; 
302063;"Cine Gran Vía y Hotel Vincci";"https://patrimonioypaisaje.madrid.es/FrameWork/generacionPDFMonumenta/302063.pdf?idEdificio=0508f7d9560a4510f7d9560a45102e085a0aRCRD&tipoMon=E";"https://patrimonioypaisaje.madrid.es/sites/v/index.jsp?vgnextchannel=83bc3cb702aa4510VgnVCM1000008a4a900aRCRD&vgnextoid=0508f7d9560a4510f7d9560a45102e085a0aRCRD";"GARCIA MOLINAS";"Calle";"V";"";"";"";"";"";"MADRID";"MADRID";"";"";"UNIVERSIDAD";"";"CENTRO";"439877";"4474900";"40.42256029007748";"-3.7087338575144777";"";"";"";""; 
307308;"Círculo de Bellas Artes";"https://patrimonioypaisaje.madrid.es/FrameWork/generacionPDFMonumenta/307308.pdf?idEdificio=a718f7d9560a4510f7d9560a45102e085a0aRCRD&tipoMon=E";"https://patrimonioypaisaje.madrid.es/sites/v/index.jsp?vgnextchannel=83bc3cb702aa4510VgnVCM1000008a4a900aRCRD&vgnextoid=a718f7d9560a4510f7d9560a45102e085a0aRCRD";"ALCALÁ";"Calle";"V";"42";"";"";"";"";"MADRID";"MADRID";"28014";"";"CORTES";"";"CENTRO";"440910";"4474405";"40.41817509525873";"-3.69651165491942";"";"";"";""; 
307324;"Círculo de la Unión Mercantil e Industrial";"https://patrimonioypaisaje.madrid.es/FrameWork/generacionPDFMonumenta/307324.pdf?idEdificio=8818f7d9560a4510f7d9560a45102e085a0aRCRD&tipoMon=E";"https://patrimonioypaisaje.madrid.es/sites/v/index.jsp?vgnextchannel=83bc3cb702aa4510VgnVCM1000008a4a900aRCRD&vgnextoid=8818f7d9560a4510f7d9560a45102e085a0aRCRD";"GRAN VIA";"Calle";"V";"24";"";"";"";"";"MADRID";"MADRID";"28004";"";"JUSTICIA";"";"CENTRO";"440550";"4474640";"40.42026644620261";"-3.700776749697362";"";"";"";""; 
11072157;"Ciudad Universitaria de Madrid";"https://patrimonioypaisaje.madrid.es/FrameWork/generacionPDFMonumenta/11072157.pdf?idEdificio=185b0183252ae610VgnVCM2000001f4a900aRCRD&tipoMon=E";"https://patrimonioypaisaje.madrid.es/sites/v/index.jsp?vgnextchannel=83bc3cb702aa4510VgnVCM1000008a4a900aRCRD&vgnextoid=185b0183252ae610VgnVCM2000001f4a900aRCRD";"UNIVERSITARIA";"CIUDAD";"T";"";"";"";"";"";"MADRID";"MADRID";"";"";"";"";"DISTRITO";"438492";"4478864";"40.458171418103674";"-3.7254416045474374";"";"";"";""; 
325526;"Colegio de Nuestra Señora de Loreto. Madres Ursulinas";"https://patrimonioypaisaje.madrid.es/FrameWork/generacionPDFMonumenta/325526.pdf?idEdificio=2128f7d9560a4510f7d9560a45102e085a0aRCRD&tipoMon=E";"https://patrimonioypaisaje.madrid.es/sites/v/index.jsp?vgnextchannel=83bc3cb702aa4510VgnVCM1000008a4a900aRCRD&vgnextoid=2128f7d9560a4510f7d9560a45102e085a0aRCRD";"PRINCIPE DE VERGARA";"CALLE";"V";"42";"";"";"";"";"MADRID";"MADRID";"28001";"";"GOYA";"";"SALAMANCA";"442343";"4475495";"40.42809511698824";"-3.679715364244469";"";"";"";""; 
11071873;"Colegio Mayor Casa do Brasil";"https://patrimonioypaisaje.madrid.es/FrameWork/generacionPDFMonumenta/11071873.pdf?idEdificio=a1371521c50ae610VgnVCM2000001f4a900aRCRD&tipoMon=E";"https://patrimonioypaisaje.madrid.es/sites/v/index.jsp?vgnextchannel=83bc3cb702aa4510VgnVCM1000008a4a900aRCRD&vgnextoid=a1371521c50ae610VgnVCM2000001f4a900aRCRD";"ARCO DE LA VICTORIA";"AVENIDA";"V";"3";"";"";"";"";"MADRID";"MADRID";"28040";"";"CIUDAD UNIVERSITARIA";"";"MONCLOA-ARAVACA";"438486";"4476684";"40.43853583084271";"-3.7252915757655174";"";"";"";""; 
313893;"Colegio Nuestra Señora del Pilar";"https://patrimonioypaisaje.madrid.es/FrameWork/generacionPDFMonumenta/313893.pdf?idEdificio=cb18f7d9560a4510f7d9560a45102e085a0aRCRD&tipoMon=E";"https://patrimonioypaisaje.madrid.es/sites/v/index.jsp?vgnextchannel=83bc3cb702aa4510VgnVCM1000008a4a900aRCRD&vgnextoid=cb18f7d9560a4510f7d9560a45102e085a0aRCRD";"CASTELLO";"CALLE";"V";"56";"";"";"";"";"MADRID";"MADRID";"28001";"";"RECOLETOS";"";"SALAMANCA";"442221";"4475517";"40.42828467450708";"-3.6811529345648615";"";"";"";""; 
11071277;"Colegio Oficial de Arquitectos de Madrid";"https://patrimonioypaisaje.madrid.es/FrameWork/generacionPDFMonumenta/11071277.pdf?idEdificio=f3d5a9662229e610VgnVCM1000001d4a900aRCRD&tipoMon=E";"https://patrimonioypaisaje.madrid.es/sites/v/index.jsp?vgnextchannel=83bc3cb702aa4510VgnVCM1000008a4a900aRCRD&vgnextoid=f3d5a9662229e610VgnVCM1000001d4a900aRCRD";"HORTALEZA";"CALLE";"V";"63";"";"";"";"";"MADRID";"MADRID";"28004";"";"JUSTICIA";"";"CENTRO";"440747";"4475062";"40.42408121377881";"-3.6984906424295754";"";"";"";""; 
11075132;"Complejo El Águila";"https://patrimonioypaisaje.madrid.es/FrameWork/generacionPDFMonumenta/11075132.pdf?idEdificio=800b53f66bcae610VgnVCM1000001d4a900aRCRD&tipoMon=E";"https://patrimonioypaisaje.madrid.es/sites/v/index.jsp?vgnextchannel=83bc3cb702aa4510VgnVCM1000008a4a900aRCRD&vgnextoid=800b53f66bcae610VgnVCM1000001d4a900aRCRD";"RAMIREZ DE PRADO";"CALLE";"V";"3";"";"";"";"";"MADRID";"MADRID";"28045";"";"DELICIAS";"";"ARGANZUELA";"441443";"4472373";"40.399909791771385";"-3.690036015115312";"";"";"";""; 
304017;"Congreso de los Diputados";"https://patrimonioypaisaje.madrid.es/FrameWork/generacionPDFMonumenta/304017.pdf?idEdificio=6218f7d9560a4510f7d9560a45102e085a0aRCRD&tipoMon=E";"https://patrimonioypaisaje.madrid.es/sites/v/index.jsp?vgnextchannel=83bc3cb702aa4510VgnVCM1000008a4a900aRCRD&vgnextoid=6218f7d9560a4510f7d9560a45102e085a0aRCRD";"CORTES";"Plaza";"V";"1";"";"";"";"";"MADRID";"MADRID";"28014";"";"CORTES";"";"CENTRO";"440903";"4474210";"40.41641794374934";"-3.6965760428685828";"";"";"";""; 
300323;"Convento de las Comendadoras y parroquia de Santiago el Mayor";"https://patrimonioypaisaje.madrid.es/FrameWork/generacionPDFMonumenta/300323.pdf?idEdificio=2108f7d9560a4510f7d9560a45102e085a0aRCRD&tipoMon=E";"https://patrimonioypaisaje.madrid.es/sites/v/index.jsp?vgnextchannel=83bc3cb702aa4510VgnVCM1000008a4a900aRCRD&vgnextoid=2108f7d9560a4510f7d9560a45102e085a0aRCRD";"COMENDADORAS";"PLAZA";"V";"10";"";"";"";"";"MADRID";"MADRID";"28015";"";"UNIVERSIDAD";"";"CENTRO";"439863";"4475437";"40.42740150087395";"-3.708938288104488";"";"";"";""; 
325348;"Cuartel del Conde Duque";"https://patrimonioypaisaje.madrid.es/FrameWork/generacionPDFMonumenta/325348.pdf?idEdificio=6028f7d9560a4510f7d9560a45102e085a0aRCRD&tipoMon=E";"https://patrimonioypaisaje.madrid.es/sites/v/index.jsp?vgnextchannel=83bc3cb702aa4510VgnVCM1000008a4a900aRCRD&vgnextoid=6028f7d9560a4510f7d9560a45102e085a0aRCRD";"CONDE DUQUE";"Calle";"V";"9";"";"";"";"";"MADRID";"MADRID";"28015";"";"UNIVERSIDAD";"";"CENTRO";"439684";"4475451";"40.427509974454416";"-3.711061057617866";"";"";"";""; 
11053543;"Edificio Bankinter";"https://patrimonioypaisaje.madrid.es/FrameWork/generacionPDFMonumenta/11053543.pdf?idEdificio=b8df078f64c1e610VgnVCM1000001d4a900aRCRD&tipoMon=E";"https://patrimonioypaisaje.madrid.es/sites/v/index.jsp?vgnextchannel=83bc3cb702aa4510VgnVCM1000008a4a900aRCRD&vgnextoid=b8df078f64c1e610VgnVCM1000001d4a900aRCRD";"CASTELLANA";"PASEO";"V";"29";"";"";"";"";"MADRID";"MADRID";"28046";"";"ALMAGRO";"";"CHAMBERI";"441515";"4475792";"40.43071965314907";"-3.68950836611669";"";"";"";""; 
11055806;"Edificio Bankunión (Parlamento Europeo y Embajada de Irlanda)";"https://patrimonioypaisaje.madrid.es/FrameWork/generacionPDFMonumenta/11055806.pdf?idEdificio=e686dfa16a63e610VgnVCM1000001d4a900aRCRD&tipoMon=E";"https://patrimonioypaisaje.madrid.es/sites/v/index.jsp?vgnextchannel=83bc3cb702aa4510VgnVCM1000008a4a900aRCRD&vgnextoid=e686dfa16a63e610VgnVCM1000001d4a900aRCRD";"CASTELLANA";"PASEO";"V";"46";"";"";"";"";"MADRID";"MADRID";"28046";"";"CASTELLANA";"";"SALAMANCA";"441656";"4476178";"40.43420552208373";"-3.6878737998050686";"";"";"";""; 
302096;"Edificio Carrión (Capitol)";"https://patrimonioypaisaje.madrid.es/FrameWork/generacionPDFMonumenta/302096.pdf?idEdificio=c608f7d9560a4510f7d9560a45102e085a0aRCRD&tipoMon=E";"https://patrimonioypaisaje.madrid.es/sites/v/index.jsp?vgnextchannel=83bc3cb702aa4510VgnVCM1000008a4a900aRCRD&vgnextoid=c608f7d9560a4510f7d9560a45102e085a0aRCRD";"GRAN VIA";"Calle";"V";"41";"";"";"";"";"MADRID";"MADRID";"28013";"";"PALACIO";"";"CENTRO";"440042";"4474657";"40.42038314116203";"-3.706766056524687";"";"";"";""; 
302051;"Edificio Coliseum (Teatro Coliseum)";"https://patrimonioypaisaje.madrid.es/FrameWork/generacionPDFMonumenta/302051.pdf?idEdificio=a308f7d9560a4510f7d9560a45102e085a0aRCRD&tipoMon=E";"https://patrimonioypaisaje.madrid.es/sites/v/index.jsp?vgnextchannel=83bc3cb702aa4510VgnVCM1000008a4a900aRCRD&vgnextoid=a308f7d9560a4510f7d9560a45102e085a0aRCRD";"GRAN VIA";"CALLE";"V";"78";"";"";"";"";"MADRID";"MADRID";"28013";"";"UNIVERSIDAD";"";"CENTRO";"439747";"4474976";"40.4232376492877";"-3.7102689441860126";"";"";"";""; 
11016735;"Edificio de 20 viviendas en calle Cervantes";"https://patrimonioypaisaje.madrid.es/FrameWork/generacionPDFMonumenta/11016735.pdf?idEdificio=3d4473b43552d610VgnVCM1000001d4a900aRCRD&tipoMon=E";"https://patrimonioypaisaje.madrid.es/sites/v/index.jsp?vgnextchannel=83bc3cb702aa4510VgnVCM1000008a4a900aRCRD&vgnextoid=3d4473b43552d610VgnVCM1000001d4a900aRCRD";"CERVANTES";"CALLE";"V";"36";"";"";"";"";"MADRID";"MADRID";"28014";"";"CORTES";"";"CENTRO";"440943";"4473971";"40.41426942327938";"-3.696078069568077";"";"";"";""; 
302062;"Edificio de La Unión y el Fénix";"https://patrimonioypaisaje.madrid.es/FrameWork/generacionPDFMonumenta/302062.pdf?idEdificio=e408f7d9560a4510f7d9560a45102e085a0aRCRD&tipoMon=E";"https://patrimonioypaisaje.madrid.es/sites/v/index.jsp?vgnextchannel=83bc3cb702aa4510VgnVCM1000008a4a900aRCRD&vgnextoid=e408f7d9560a4510f7d9560a45102e085a0aRCRD";"GARCIA MOLINAS";"Calle";"V";"";"";"";"";"";"MADRID";"MADRID";"";"";"UNIVERSIDAD";"";"CENTRO";"439843";"4474910";"40.422647917090806";"-3.709135568642842";"";"";"";""; 
302356;"Edificio de Los Previsores del Porvenir";"https://patrimonioypaisaje.madrid.es/FrameWork/generacionPDFMonumenta/302356.pdf?idEdificio=2d08f7d9560a4510f7d9560a45102e085a0aRCRD&tipoMon=E";"https://patrimonioypaisaje.madrid.es/sites/v/index.jsp?vgnextchannel=83bc3cb702aa4510VgnVCM1000008a4a900aRCRD&vgnextoid=2d08f7d9560a4510f7d9560a45102e085a0aRCRD";"CABALLERO DE GRACIA";"Calle";"V";"19";"";"";"";"";"MADRID";"MADRID";"28013";"";"CORTES";"";"CENTRO";"440743";"4474516";"40.41916316149634";"-3.698490337359729";"";"";"";""; 
302095;"Edificio de Oficinas y Apartamentos";"https://patrimonioypaisaje.madrid.es/FrameWork/generacionPDFMonumenta/302095.pdf?idEdificio=a608f7d9560a4510f7d9560a45102e085a0aRCRD&tipoMon=E";"https://patrimonioypaisaje.madrid.es/sites/v/index.jsp?vgnextchannel=83bc3cb702aa4510VgnVCM1000008a4a900aRCRD&vgnextoid=a608f7d9560a4510f7d9560a45102e085a0aRCRD";"GRAN VIA";"Calle";"V";"43";"";"";"";"";"MADRID";"MADRID";"";"";"PALACIO";"";"CENTRO";"440018";"4474674";"40.42053455529419";"-3.7070505439234185";"";"";"";""; 
11017140;"Edificio de Viviendas en la calle Hilarión Eslava";"https://patrimonioypaisaje.madrid.es/FrameWork/generacionPDFMonumenta/11017140.pdf?idEdificio=50e3ce908a92d610VgnVCM1000001d4a900aRCRD&tipoMon=E";"https://patrimonioypaisaje.madrid.es/sites/v/index.jsp?vgnextchannel=83bc3cb702aa4510VgnVCM1000008a4a900aRCRD&vgnextoid=50e3ce908a92d610VgnVCM1000001d4a900aRCRD";"HILARION ESLAVA";"CALLE";"V";"10";"";"";"";"";"MADRID";"MADRID";"28015";"";"GAZTAMBIDE";"";"CHAMBERI";"439227";"4476095";"40.433285976618926";"-3.7164990134208717";"";"";"";""; 
11050212;"Edificio Girasol";"https://patrimonioypaisaje.madrid.es/FrameWork/generacionPDFMonumenta/11050212.pdf?idEdificio=b7b887c41420e610VgnVCM2000001f4a900aRCRD&tipoMon=E";"https://patrimonioypaisaje.madrid.es/sites/v/index.jsp?vgnextchannel=83bc3cb702aa4510VgnVCM1000008a4a900aRCRD&vgnextoid=b7b887c41420e610VgnVCM2000001f4a900aRCRD";"LAGASCA";"CALLE";"V";"90";"";"";"";"";"MADRID";"MADRID";"28006";"";"CASTELLANA";"";"SALAMANCA";"441927";"4475812";"40.43092747841812";"-3.6846446338833183";"";"";"";""; 
302343;"Edificio Gran Peña";"https://patrimonioypaisaje.madrid.es/FrameWork/generacionPDFMonumenta/302343.pdf?idEdificio=4c08f7d9560a4510f7d9560a45102e085a0aRCRD&tipoMon=E";"https://patrimonioypaisaje.madrid.es/sites/v/index.jsp?vgnextchannel=83bc3cb702aa4510VgnVCM1000008a4a900aRCRD&vgnextoid=4c08f7d9560a4510f7d9560a45102e085a0aRCRD";"GRAN VIA";"Calle";"V";"2";"";"";"";"";"MADRID";"MADRID";"28004";"";"JUSTICIA";"";"CENTRO";"440844";"4474536";"40.41935051716017";"-3.697301746425403";"";"";"";""; 
302145;"Edificio Hostal Lauria";"https://patrimonioypaisaje.madrid.es/FrameWork/generacionPDFMonumenta/302145.pdf?idEdificio=c708f7d9560a4510f7d9560a45102e085a0aRCRD&tipoMon=E";"https://patrimonioypaisaje.madrid.es/sites/v/index.jsp?vgnextchannel=83bc3cb702aa4510VgnVCM1000008a4a900aRCRD&vgnextoid=c708f7d9560a4510f7d9560a45102e085a0aRCRD";"GRAN VIA";"Calle";"V";"50";"";"";"";"";"MADRID";"MADRID";"";"";"UNIVERSIDAD";"";"CENTRO";"440065";"4474722";"40.420970348006776";"-3.706501085101446";"";"";"";""; 
302168;"Edificio La Adriática";"https://patrimonioypaisaje.madrid.es/FrameWork/generacionPDFMonumenta/302168.pdf?idEdificio=a808f7d9560a4510f7d9560a45102e085a0aRCRD&tipoMon=E";"https://patrimonioypaisaje.madrid.es/sites/v/index.jsp?vgnextchannel=83bc3cb702aa4510VgnVCM1000008a4a900aRCRD&vgnextoid=a808f7d9560a4510f7d9560a45102e085a0aRCRD";"CALLAO";"Plaza";"V";"";"";"";"";"";"MADRID";"MADRID";"";"";"SOL";"";"CENTRO";"440161";"4474613";"40.41999533487041";"-3.7053592829015223";"";"";"";""; 
302072;"Edificio Los Sótanos";"https://patrimonioypaisaje.madrid.es/FrameWork/generacionPDFMonumenta/302072.pdf?idEdificio=8508f7d9560a4510f7d9560a45102e085a0aRCRD&tipoMon=E";"https://patrimonioypaisaje.madrid.es/sites/v/index.jsp?vgnextchannel=83bc3cb702aa4510VgnVCM1000008a4a900aRCRD&vgnextoid=8508f7d9560a4510f7d9560a45102e085a0aRCRD";"GRAN VIA";"Calle";"V";"59";"";"";"";"";"MADRID";"MADRID";"";"";"PALACIO";"";"CENTRO";"439841";"4474835";"40.421972138578035";"-3.7091520478715996";"";"";"";""; 
302073;"Edificio Los Sótanos";"https://patrimonioypaisaje.madrid.es/FrameWork/generacionPDFMonumenta/302073.pdf?idEdificio=a508f7d9560a4510f7d9560a45102e085a0aRCRD&tipoMon=E";"https://patrimonioypaisaje.madrid.es/sites/v/index.jsp?vgnextchannel=83bc3cb702aa4510VgnVCM1000008a4a900aRCRD&vgnextoid=a508f7d9560a4510f7d9560a45102e085a0aRCRD";"GRAN VIA";"Calle";"V";"57";"";"";"";"";"MADRID";"MADRID";"";"";"PALACIO";"";"CENTRO";"439853";"4474810";"40.421747794773914";"-3.709008238044509";"";"";"";""; 
302074;"Edificio Los Sótanos y Teatro Lope de Vega";"https://patrimonioypaisaje.madrid.es/FrameWork/generacionPDFMonumenta/302074.pdf?idEdificio=c508f7d9560a4510f7d9560a45102e085a0aRCRD&tipoMon=E";"https://patrimonioypaisaje.madrid.es/sites/v/index.jsp?vgnextchannel=83bc3cb702aa4510VgnVCM1000008a4a900aRCRD&vgnextoid=c508f7d9560a4510f7d9560a45102e085a0aRCRD";"GRAN VIA";"Calle";"V";"55";"";"";"";"";"MADRID";"MADRID";"";"";"PALACIO";"";"CENTRO";"439874";"4474786";"40.421533109617585";"-3.7087584404681806";"";"";"";""; 
302223;"Edificio Matesanz";"https://patrimonioypaisaje.madrid.es/FrameWork/generacionPDFMonumenta/302223.pdf?idEdificio=e908f7d9560a4510f7d9560a45102e085a0aRCRD&tipoMon=E";"https://patrimonioypaisaje.madrid.es/sites/v/index.jsp?vgnextchannel=83bc3cb702aa4510VgnVCM1000008a4a900aRCRD&vgnextoid=e908f7d9560a4510f7d9560a45102e085a0aRCRD";"GRAN VIA";"Calle";"V";"27";"";"";"";"";"MADRID";"MADRID";"28013";"6";"SOL";"1";"CENTRO";"440377";"4474593";"40.41983067032157";"-3.7028114644082746";"";"";"";""; 
302425;"Edificio Metrópolis";"https://patrimonioypaisaje.madrid.es/FrameWork/generacionPDFMonumenta/302425.pdf?idEdificio=ed08f7d9560a4510f7d9560a45102e085a0aRCRD&tipoMon=E";"https://patrimonioypaisaje.madrid.es/sites/v/index.jsp?vgnextchannel=83bc3cb702aa4510VgnVCM1000008a4a900aRCRD&vgnextoid=ed08f7d9560a4510f7d9560a45102e085a0aRCRD";"ALCALA";"CALLE";"V";"39";"";"";"";"";"MADRID";"MADRID";"28014";"";"CORTES";"";"CENTRO";"440830";"4474465";"40.41871024079712";"-3.6974552127875446";"";"";"";""; 
302342;"Edificio para el Banco Urquijo";"https://patrimonioypaisaje.madrid.es/FrameWork/generacionPDFMonumenta/302342.pdf?idEdificio=2c08f7d9560a4510f7d9560a45102e085a0aRCRD&tipoMon=E";"https://patrimonioypaisaje.madrid.es/sites/v/index.jsp?vgnextchannel=83bc3cb702aa4510VgnVCM1000008a4a900aRCRD&vgnextoid=2c08f7d9560a4510f7d9560a45102e085a0aRCRD";"GRAN VIA";"Calle";"V";"4";"";"";"";"";"MADRID";"MADRID";"28004";"";"JUSTICIA";"";"CENTRO";"440822";"4474545";"40.41943002922452";"-3.6975618907685255";"";"";"";""; 
302125;"Edificio Rialto";"https://patrimonioypaisaje.madrid.es/FrameWork/generacionPDFMonumenta/302125.pdf?idEdificio=4708f7d9560a4510f7d9560a45102e085a0aRCRD&tipoMon=E";"https://patrimonioypaisaje.madrid.es/sites/v/index.jsp?vgnextchannel=83bc3cb702aa4510VgnVCM1000008a4a900aRCRD&vgnextoid=4708f7d9560a4510f7d9560a45102e085a0aRCRD";"GRAN VIA";"Calle";"V";"54";"";"";"";"";"MADRID";"MADRID";"28004";"";"UNIVERSIDAD";"";"CENTRO";"440014";"4474772";"40.42141709585185";"-3.7071069351758537";"";"";"";""; 
302198;"Edificio Telefónica";"https://patrimonioypaisaje.madrid.es/FrameWork/generacionPDFMonumenta/302198.pdf?idEdificio=8908f7d9560a4510f7d9560a45102e085a0aRCRD&tipoMon=E";"https://patrimonioypaisaje.madrid.es/sites/v/index.jsp?vgnextchannel=83bc3cb702aa4510VgnVCM1000008a4a900aRCRD&vgnextoid=8908f7d9560a4510f7d9560a45102e085a0aRCRD";"GRAN VIA";"CALLE";"V";"28";"";"";"";"";"MADRID";"MADRID";"28013";"";"UNIVERSIDAD";"";"CENTRO";"440442";"4474635";"40.42021381353114";"-3.702045729504309";"";"";"";""; 
302070;"Edificio Vita";"https://patrimonioypaisaje.madrid.es/FrameWork/generacionPDFMonumenta/302070.pdf?idEdificio=4508f7d9560a4510f7d9560a45102e085a0aRCRD&tipoMon=E";"https://patrimonioypaisaje.madrid.es/sites/v/index.jsp?vgnextchannel=83bc3cb702aa4510VgnVCM1000008a4a900aRCRD&vgnextoid=4508f7d9560a4510f7d9560a45102e085a0aRCRD";"GRAN VIA";"Calle";"V";"62";"";"";"";"";"MADRID";"MADRID";"";"";"UNIVERSIDAD";"";"CENTRO";"440015";"4475070";"40.42222006385312";"-3.7083884373634293";"";"";"";""; 
302052;"Edificio Vitalicio";"https://patrimonioypaisaje.madrid.es/FrameWork/generacionPDFMonumenta/302052.pdf?idEdificio=c308f7d9560a4510f7d9560a45102e085a0aRCRD&tipoMon=E";"https://patrimonioypaisaje.madrid.es/sites/v/index.jsp?vgnextchannel=83bc3cb702aa4510VgnVCM1000008a4a900aRCRD&vgnextoid=c308f7d9560a4510f7d9560a45102e085a0aRCRD";"ESPAÑA";"Plaza";"V";"";"";"";"";"";"MADRID";"MADRID";"28013";"";"PALACIO";"";"CENTRO";"439698";"4474956";"40.42305180954051";"-3.71084907791347";"";"";"";""; 
302061;"Edificio y Cine Pompeya";"https://patrimonioypaisaje.madrid.es/FrameWork/generacionPDFMonumenta/302061.pdf?idEdificio=c408f7d9560a4510f7d9560a45102e085a0aRCRD&tipoMon=E";"https://patrimonioypaisaje.madrid.es/sites/v/index.jsp?vgnextchannel=83bc3cb702aa4510VgnVCM1000008a4a900aRCRD&vgnextoid=c408f7d9560a4510f7d9560a45102e085a0aRCRD";"GRAN VIA";"Calle";"V";"70";"";"";"";"";"MADRID";"MADRID";"";"";"UNIVERSIDAD";"";"CENTRO";"439822";"4474928";"40.42280855064068";"-3.7093848037700505";"";"";"";""; 
302075;"Edificios Los Sótanos. Hotel Emperador";"https://patrimonioypaisaje.madrid.es/FrameWork/generacionPDFMonumenta/302075.pdf?idEdificio=e508f7d9560a4510f7d9560a45102e085a0aRCRD&tipoMon=E";"https://patrimonioypaisaje.madrid.es/sites/v/index.jsp?vgnextchannel=83bc3cb702aa4510VgnVCM1000008a4a900aRCRD&vgnextoid=e508f7d9560a4510f7d9560a45102e085a0aRCRD";"GRAN VIA";"Calle";"V";"53";"";"";"";"";"MADRID";"MADRID";"28013";"";"PALACIO";"";"CENTRO";"439907";"4474767";"40.42136433290127";"-3.7083676730256907";"";"";"";""; 
300108;"Ermita de la Virgen del Puerto";"https://patrimonioypaisaje.madrid.es/FrameWork/generacionPDFMonumenta/300108.pdf?idEdificio=8008f7d9560a4510f7d9560a45102e085a0aRCRD&tipoMon=E";"https://patrimonioypaisaje.madrid.es/sites/v/index.jsp?vgnextchannel=83bc3cb702aa4510VgnVCM1000008a4a900aRCRD&vgnextoid=8008f7d9560a4510f7d9560a45102e085a0aRCRD";"VIRGEN DEL PUERTO";"PASEO";"V";"4";"";"";"";"";"MADRID";"MADRID";"28005";"";"PALACIO";"";"CENTRO";"438818";"4474132";"40.41556783900282";"-3.721135107165399";"";"";"";""; 
11070491;"Ermita de San Antonio de la Florida";"https://patrimonioypaisaje.madrid.es/FrameWork/generacionPDFMonumenta/11070491.pdf?idEdificio=26233c5e74a8e610VgnVCM1000001d4a900aRCRD&tipoMon=E";"https://patrimonioypaisaje.madrid.es/sites/v/index.jsp?vgnextchannel=83bc3cb702aa4510VgnVCM1000008a4a900aRCRD&vgnextoid=26233c5e74a8e610VgnVCM1000001d4a900aRCRD";"SAN ANTONIO DE LA FLORIDA";"GLORIETA";"V";"4";"";"";"";"";"MADRID";"MADRID";"28008";"";"CASA DE CAMPO";"";"MONCLOA-ARAVACA";"438408";"4475251";"40.425614559049066";"-3.7260819285571833";"";"";"";""; 
10999706;"Ermita de Santa Maria la Antigua";"https://patrimonioypaisaje.madrid.es/FrameWork/generacionPDFMonumenta/10999706.pdf?idEdificio=8662b8a28658c610VgnVCM2000001f4a900aRCRD&tipoMon=E";"https://patrimonioypaisaje.madrid.es/sites/v/index.jsp?vgnextchannel=83bc3cb702aa4510VgnVCM1000008a4a900aRCRD&vgnextoid=8662b8a28658c610VgnVCM2000001f4a900aRCRD";"MONSE&amp;Ntilde;OR OSCAR ROMERO";"CALLE";"V";"92";"";"";"";"";"MADRID";"MADRID";"28047";"";"VISTA ALEGRE";"";"CARABANCHEL";"436125";"4470483";"40.38249753936885";"-3.752510480692841";"";"";"";""; 
307259;"Escuelas Pías de San Fernando (Biblioteca  y centro de la UNED)";"https://patrimonioypaisaje.madrid.es/FrameWork/generacionPDFMonumenta/307259.pdf?idEdificio=e618f7d9560a4510f7d9560a45102e085a0aRCRD&tipoMon=E";"https://patrimonioypaisaje.madrid.es/sites/v/index.jsp?vgnextchannel=83bc3cb702aa4510VgnVCM1000008a4a900aRCRD&vgnextoid=e618f7d9560a4510f7d9560a45102e085a0aRCRD";"SOMBRERETE";"CALLE";"V";"15";"";"";"";"";"MADRID";"MADRID";"28012";"";"EMBAJADORES";"";"CENTRO";"440310";"4473284";"40.40803440320469";"-3.703466938452617";"";"";"";""; 
318308;"Estación de Atocha";"https://patrimonioypaisaje.madrid.es/FrameWork/generacionPDFMonumenta/318308.pdf?idEdificio=2f18f7d9560a4510f7d9560a45102e085a0aRCRD&tipoMon=E";"https://patrimonioypaisaje.madrid.es/sites/v/index.jsp?vgnextchannel=83bc3cb702aa4510VgnVCM1000008a4a900aRCRD&vgnextoid=2f18f7d9560a4510f7d9560a45102e085a0aRCRD";"EMPERADOR CARLOS V";"PLAZA";"V";"3";"";"";"";"";"MADRID";"MADRID";"28045";"7";"ATOCHA";"2";"ARGANZUELA";"441257";"4473264";"40.40792245547035";"-3.6923116993889704";"";"";"";""; 
11071839;"Fundación Francisco Giner de los Ríos";"https://patrimonioypaisaje.madrid.es/FrameWork/generacionPDFMonumenta/11071839.pdf?idEdificio=bbc11521c50ae610VgnVCM2000001f4a900aRCRD&tipoMon=E";"https://patrimonioypaisaje.madrid.es/sites/v/index.jsp?vgnextchannel=83bc3cb702aa4510VgnVCM1000008a4a900aRCRD&vgnextoid=bbc11521c50ae610VgnVCM2000001f4a900aRCRD";"GENERAL MARTINEZ CAMPOS";"PASEO";"V";"14";"";"";"";"";"MADRID";"MADRID";"28010";"";"ALMAGRO";"";"CHAMBERI";"440899";"4476259";"40.434877495729964";"-3.696810843113834";"";"";"";""; 
11050023;"Fundación Juan March";"https://patrimonioypaisaje.madrid.es/FrameWork/generacionPDFMonumenta/11050023.pdf?idEdificio=8245072df910e610VgnVCM2000001f4a900aRCRD&tipoMon=E";"https://patrimonioypaisaje.madrid.es/sites/v/index.jsp?vgnextchannel=83bc3cb702aa4510VgnVCM1000008a4a900aRCRD&vgnextoid=8245072df910e610VgnVCM2000001f4a900aRCRD";"CASTELLO";"CALLE";"V";"77";"";"";"";"";"MADRID";"MADRID";"28006";"";"CASTELLANA";"";"SALAMANCA";"442226";"4475843";"40.43122422239439";"-3.681123764267725";"";"";"";""; 
11071302;"Gimnasio del Colegio Maravillas";"https://patrimonioypaisaje.madrid.es/FrameWork/generacionPDFMonumenta/11071302.pdf?idEdificio=f217a9662229e610VgnVCM1000001d4a900aRCRD&tipoMon=E";"https://patrimonioypaisaje.madrid.es/sites/v/index.jsp?vgnextchannel=83bc3cb702aa4510VgnVCM1000008a4a900aRCRD&vgnextoid=f217a9662229e610VgnVCM1000001d4a900aRCRD";"JOAQUIN COSTA";"CALLE";"V";"21";"";"";"";"";"MADRID";"MADRID";"28002";"";"EL VISO";"";"CHAMARTIN";"441702";"4477512";"40.44622182664542";"-3.6874505523727996";"";"";"";""; 
302175;"Grandes Almacenes Madrid-París";"https://patrimonioypaisaje.madrid.es/FrameWork/generacionPDFMonumenta/302175.pdf?idEdificio=0908f7d9560a4510f7d9560a45102e085a0aRCRD&tipoMon=E";"https://patrimonioypaisaje.madrid.es/sites/v/index.jsp?vgnextchannel=83bc3cb702aa4510VgnVCM1000008a4a900aRCRD&vgnextoid=0908f7d9560a4510f7d9560a45102e085a0aRCRD";"DESENGAÑO";"Calle";"V";"7";"";"";"";"";"MADRID";"MADRID";"28004";"";"UNIVERSIDAD";"";"CENTRO";"440326";"4474674";"40.420556700334984";"-3.7034201887922915";"";"";"";""; 
11067396;"Hipódromo de la Zarzuela";"https://patrimonioypaisaje.madrid.es/FrameWork/generacionPDFMonumenta/11067396.pdf?idEdificio=71e5a8071288e610VgnVCM2000001f4a900aRCRD&tipoMon=E";"https://patrimonioypaisaje.madrid.es/sites/v/index.jsp?vgnextchannel=83bc3cb702aa4510VgnVCM1000008a4a900aRCRD&vgnextoid=71e5a8071288e610VgnVCM2000001f4a900aRCRD";"ZARZUELA";"HIPODROMO";"T";"";"";"";"";"";"MADRID";"MADRID";"";"";"";"";"DISTRITO";"435796";"4481154";"40.478600170152276";"-3.7574669011672372";"";"";"";""; 
310322;"Hospital de Jornaleros San Francisco de Paula";"https://patrimonioypaisaje.madrid.es/FrameWork/generacionPDFMonumenta/310322.pdf?idEdificio=0918f7d9560a4510f7d9560a45102e085a0aRCRD&tipoMon=E";"https://patrimonioypaisaje.madrid.es/sites/v/index.jsp?vgnextchannel=83bc3cb702aa4510VgnVCM1000008a4a900aRCRD&vgnextoid=0918f7d9560a4510f7d9560a45102e085a0aRCRD";"MAUDES";"CALLE";"V";"17";"";"";"";"";"MADRID";"MADRID";"28003";"";"RIOS ROSAS";"";"CHAMBERI";"440536";"4477429";"40.44539205139684";"-3.7011974227253477";"";"";"";""; 
307316;"Hotel Alfonso XIII";"https://patrimonioypaisaje.madrid.es/FrameWork/generacionPDFMonumenta/307316.pdf?idEdificio=e718f7d9560a4510f7d9560a45102e085a0aRCRD&tipoMon=E";"https://patrimonioypaisaje.madrid.es/sites/v/index.jsp?vgnextchannel=83bc3cb702aa4510VgnVCM1000008a4a900aRCRD&vgnextoid=e718f7d9560a4510f7d9560a45102e085a0aRCRD";"GRAN VIA";"Calle";"V";"34";"";"";"";"";"MADRID";"MADRID";"";"";"UNIVERSIDAD";"";"CENTRO";"440267";"4474669";"40.42050742476766";"-3.704115144651839";"";"";"";""; 
302055;"Hotel Apartamentos Espahotel";"https://patrimonioypaisaje.madrid.es/FrameWork/generacionPDFMonumenta/302055.pdf?idEdificio=2408f7d9560a4510f7d9560a45102e085a0aRCRD&tipoMon=E";"https://patrimonioypaisaje.madrid.es/sites/v/index.jsp?vgnextchannel=83bc3cb702aa4510VgnVCM1000008a4a900aRCRD&vgnextoid=2408f7d9560a4510f7d9560a45102e085a0aRCRD";"FLOR BAJA";"Calle";"V";"6";"";"";"";"";"MADRID";"MADRID";"";"";"PALACIO";"";"CENTRO";"439764";"4474895";"40.42250707487777";"-3.710065338350866";"";"";"";""; 
302227;"Hotel Gran Vía";"https://patrimonioypaisaje.madrid.es/FrameWork/generacionPDFMonumenta/302227.pdf?idEdificio=0a08f7d9560a4510f7d9560a45102e085a0aRCRD&tipoMon=E";"https://patrimonioypaisaje.madrid.es/sites/v/index.jsp?vgnextchannel=83bc3cb702aa4510VgnVCM1000008a4a900aRCRD&vgnextoid=0a08f7d9560a4510f7d9560a45102e085a0aRCRD";"GRAN VIA";"Calle";"V";"25";"";"";"";"";"MADRID";"MADRID";"";"";"SOL";"";"CENTRO";"440426";"4474585";"40.419762112038654";"-3.702233164302461";"";"";"";""; 
302059;"Hotel Menfis";"https://patrimonioypaisaje.madrid.es/FrameWork/generacionPDFMonumenta/302059.pdf?idEdificio=8408f7d9560a4510f7d9560a45102e085a0aRCRD&tipoMon=E";"https://patrimonioypaisaje.madrid.es/sites/v/index.jsp?vgnextchannel=83bc3cb702aa4510VgnVCM1000008a4a900aRCRD&vgnextoid=8408f7d9560a4510f7d9560a45102e085a0aRCRD";"GENERAL MITRE";"Calle";"V";"";"";"";"";"";"MADRID";"MADRID";"";"";"UNIVERSIDAD";"";"CENTRO";"439788";"4474956";"40.42305832746606";"-3.7097882216017055";"";"";"";""; 
302228;"Hotel Metropolitano";"https://patrimonioypaisaje.madrid.es/FrameWork/generacionPDFMonumenta/302228.pdf?idEdificio=2a08f7d9560a4510f7d9560a45102e085a0aRCRD&tipoMon=E";"https://patrimonioypaisaje.madrid.es/sites/v/index.jsp?vgnextchannel=83bc3cb702aa4510VgnVCM1000008a4a900aRCRD&vgnextoid=2a08f7d9560a4510f7d9560a45102e085a0aRCRD";"GRAN VIA";"Calle";"V";"23";"";"";"";"";"MADRID";"MADRID";"";"";"SOL";"";"CENTRO";"440449";"4474580";"40.419718715992786";"-3.7019616011392307";"";"";"";""; 
302144;"Hotel Nueva York y cine Actualidades";"https://patrimonioypaisaje.madrid.es/FrameWork/generacionPDFMonumenta/302144.pdf?idEdificio=a708f7d9560a4510f7d9560a45102e085a0aRCRD&tipoMon=E";"https://patrimonioypaisaje.madrid.es/sites/v/index.jsp?vgnextchannel=83bc3cb702aa4510VgnVCM1000008a4a900aRCRD&vgnextoid=a708f7d9560a4510f7d9560a45102e085a0aRCRD";"GRAN VIA";"Calle";"V";"48";"";"";"";"";"MADRID";"MADRID";"";"";"UNIVERSIDAD";"";"CENTRO";"440089";"4474714";"40.420900008680086";"-3.706217444920123";"";"";"";""; 
304046;"Hotel Palace";"https://patrimonioypaisaje.madrid.es/FrameWork/generacionPDFMonumenta/304046.pdf?idEdificio=a218f7d9560a4510f7d9560a45102e085a0aRCRD&tipoMon=E";"https://patrimonioypaisaje.madrid.es/sites/v/index.jsp?vgnextchannel=83bc3cb702aa4510VgnVCM1000008a4a900aRCRD&vgnextoid=a218f7d9560a4510f7d9560a45102e085a0aRCRD";"CORTES";"PLAZA";"V";"7";"";"";"";"";"MADRID";"MADRID";"28014";"";"CORTES";"";"CENTRO";"440970";"4474105";"40.41548099224374";"-3.6957733739936085";"";"";"";""; 
302281;"Hotel Roma";"https://patrimonioypaisaje.madrid.es/FrameWork/generacionPDFMonumenta/302281.pdf?idEdificio=ca08f7d9560a4510f7d9560a45102e085a0aRCRD&tipoMon=E";"https://patrimonioypaisaje.madrid.es/sites/v/index.jsp?vgnextchannel=83bc3cb702aa4510VgnVCM1000008a4a900aRCRD&vgnextoid=ca08f7d9560a4510f7d9560a45102e085a0aRCRD";"CLAVEL";"CALLE";"V";"3";"";"";"";"";"MADRID";"MADRID";"28004";"";"JUSTICIA";"";"CENTRO";"440644";"4474608";"40.419992067464854";"-3.6996585726219156";"";"";"";""; 
302060;"Hotel Washington";"https://patrimonioypaisaje.madrid.es/FrameWork/generacionPDFMonumenta/302060.pdf?idEdificio=a408f7d9560a4510f7d9560a45102e085a0aRCRD&tipoMon=E";"https://patrimonioypaisaje.madrid.es/sites/v/index.jsp?vgnextchannel=83bc3cb702aa4510VgnVCM1000008a4a900aRCRD&vgnextoid=a408f7d9560a4510f7d9560a45102e085a0aRCRD";"GRAN VIA";"Calle";"V";"72";"";"";"";"";"MADRID";"MADRID";"";"";"UNIVERSIDAD";"";"CENTRO";"439913";"4475151";"40.42294237533695";"-3.7095983942507478";"";"";"";""; 
302094;"Hotel y cine Rex";"https://patrimonioypaisaje.madrid.es/FrameWork/generacionPDFMonumenta/302094.pdf?idEdificio=8608f7d9560a4510f7d9560a45102e085a0aRCRD&tipoMon=E";"https://patrimonioypaisaje.madrid.es/sites/v/index.jsp?vgnextchannel=83bc3cb702aa4510VgnVCM1000008a4a900aRCRD&vgnextoid=8608f7d9560a4510f7d9560a45102e085a0aRCRD";"GRAN VIA";"Calle";"V";"43B";"";"";"";"";"MADRID";"MADRID";"28013";"";"PALACIO";"";"CENTRO";"440009";"4474688";"40.4206600249067";"-3.707157946297817";"";"";"";""; 
302428;"Iglesia de la Concepción Real de Calatrava";"https://patrimonioypaisaje.madrid.es/FrameWork/generacionPDFMonumenta/302428.pdf?idEdificio=0e08f7d9560a4510f7d9560a45102e085a0aRCRD&tipoMon=E";"https://patrimonioypaisaje.madrid.es/sites/v/index.jsp?vgnextchannel=83bc3cb702aa4510VgnVCM1000008a4a900aRCRD&vgnextoid=0e08f7d9560a4510f7d9560a45102e085a0aRCRD";"ALCALÁ";"Calle";"V";"25";"";"";"";"";"MADRID";"MADRID";"28014";"";"CORTES";"";"CENTRO";"440698";"4474422";"40.41831315896514";"-3.699011971823613";"";"";"";""; 
301090;"Iglesia de San Antonio de los Alemanes";"https://patrimonioypaisaje.madrid.es/FrameWork/generacionPDFMonumenta/301090.pdf?idEdificio=c108f7d9560a4510f7d9560a45102e085a0aRCRD&tipoMon=E";"https://patrimonioypaisaje.madrid.es/sites/v/index.jsp?vgnextchannel=83bc3cb702aa4510VgnVCM1000008a4a900aRCRD&vgnextoid=c108f7d9560a4510f7d9560a45102e085a0aRCRD";"PUEBLA";"Calle";"V";"22";"";"";"";"";"MADRID";"MADRID";"28004";"5";"UNIVERSIDAD";"1";"CENTRO";"440429";"4475096";"40.42248408139826";"-3.703510993080645";"";"";"";""; 
317886;"Iglesia de San Jerónimo el Real";"https://patrimonioypaisaje.madrid.es/FrameWork/generacionPDFMonumenta/317886.pdf?idEdificio=6e18f7d9560a4510f7d9560a45102e085a0aRCRD&tipoMon=E";"https://patrimonioypaisaje.madrid.es/sites/v/index.jsp?vgnextchannel=83bc3cb702aa4510VgnVCM1000008a4a900aRCRD&vgnextoid=6e18f7d9560a4510f7d9560a45102e085a0aRCRD";"MORETO";"CALLE";"V";"4";"";"";"";"";"MADRID";"MADRID";"28014";"";"LOS JERONIMOS";"";"RETIRO";"441414";"4473977";"40.414356517969345";"-3.690523026519969";"";"";"";""; 
302348;"Iglesia de San José";"https://patrimonioypaisaje.madrid.es/FrameWork/generacionPDFMonumenta/302348.pdf?idEdificio=6c08f7d9560a4510f7d9560a45102e085a0aRCRD&tipoMon=E";"https://patrimonioypaisaje.madrid.es/sites/v/index.jsp?vgnextchannel=83bc3cb702aa4510VgnVCM1000008a4a900aRCRD&vgnextoid=6c08f7d9560a4510f7d9560a45102e085a0aRCRD";"ALCALÁ";"Calle";"V";"43";"";"";"";"";"MADRID";"MADRID";"28014";"";"JUSTICIA";"";"CENTRO";"440893";"4474535";"40.41934499059586";"-3.696724106180927";"";"";"";""; 
316121;"Iglesia de San Manuel y San Benito";"https://patrimonioypaisaje.madrid.es/FrameWork/generacionPDFMonumenta/316121.pdf?idEdificio=8c18f7d9560a4510f7d9560a45102e085a0aRCRD&tipoMon=E";"https://patrimonioypaisaje.madrid.es/sites/v/index.jsp?vgnextchannel=83bc3cb702aa4510VgnVCM1000008a4a900aRCRD&vgnextoid=8c18f7d9560a4510f7d9560a45102e085a0aRCRD";"ALCALÁ";"Calle";"V";"83";"";"";"";"";"MADRID";"MADRID";"28014";"";"RECOLETOS";"";"SALAMANCA";"441780";"4474685";"40.420758796546075";"-3.68628303682986";"";"";"";""; 
300184;"Iglesia de San Marcos";"https://patrimonioypaisaje.madrid.es/FrameWork/generacionPDFMonumenta/300184.pdf?idEdificio=a008f7d9560a4510f7d9560a45102e085a0aRCRD&tipoMon=E";"https://patrimonioypaisaje.madrid.es/sites/v/index.jsp?vgnextchannel=83bc3cb702aa4510VgnVCM1000008a4a900aRCRD&vgnextoid=a008f7d9560a4510f7d9560a45102e085a0aRCRD";"SAN LEONARDO";"CALLE";"V";"10";"";"";"";"";"MADRID";"MADRID";"28015";"";"UNIVERSIDAD";"";"CENTRO";"439674";"4475146";"40.424769387928684";"-3.7111444272242124";"";"";"";""; 
303603;"Iglesia de San Pedro el Viejo";"https://patrimonioypaisaje.madrid.es/FrameWork/generacionPDFMonumenta/303603.pdf?idEdificio=6118f7d9560a4510f7d9560a45102e085a0aRCRD&tipoMon=E";"https://patrimonioypaisaje.madrid.es/sites/v/index.jsp?vgnextchannel=83bc3cb702aa4510VgnVCM1000008a4a900aRCRD&vgnextoid=6118f7d9560a4510f7d9560a45102e085a0aRCRD";"NUNCIO";"Calle";"V";"14";"";"";"";"";"MADRID";"MADRID";"28005";"";"PALACIO";"";"CENTRO";"439740";"4473867";"40.41324464343417";"-3.710250837641945";"";"";"";""; 
11067036;"Iglesia Parroquial de Santa Ana y Nuestra Señora de la Esperanza";"https://patrimonioypaisaje.madrid.es/FrameWork/generacionPDFMonumenta/11067036.pdf?idEdificio=7c29e5274b78e610VgnVCM1000001d4a900aRCRD&tipoMon=E";"https://patrimonioypaisaje.madrid.es/sites/v/index.jsp?vgnextchannel=83bc3cb702aa4510VgnVCM1000008a4a900aRCRD&vgnextoid=7c29e5274b78e610VgnVCM1000001d4a900aRCRD";"CAÑADA";"CALLE";"V";"35";"";"";"";"";"MADRID";"MADRID";"28030";"";"VINATEROS";"";"MORATALAZ";"445269";"4472956";"40.405427281364965";"-3.6450041456114723";"";"";"";""; 
307123;"Ilustre Colegio Oficial de Médicos de Madrid";"https://patrimonioypaisaje.madrid.es/FrameWork/generacionPDFMonumenta/307123.pdf?idEdificio=4618f7d9560a4510f7d9560a45102e085a0aRCRD&tipoMon=E";"https://patrimonioypaisaje.madrid.es/sites/v/index.jsp?vgnextchannel=83bc3cb702aa4510VgnVCM1000008a4a900aRCRD&vgnextoid=4618f7d9560a4510f7d9560a45102e085a0aRCRD";"SANTA ISABEL";"CALLE";"V";"51";"";"";"";"";"MADRID";"MADRID";"28012";"";"EMBAJADORES";"";"CENTRO";"440998";"4473415";"40.40926280409965";"-3.6953774471568273";"";"";"";""; 
307357;"Instituto Cervantes (antiguo Banco Español del Río de la Plata)";"https://patrimonioypaisaje.madrid.es/FrameWork/generacionPDFMonumenta/307357.pdf?idEdificio=a818f7d9560a4510f7d9560a45102e085a0aRCRD&tipoMon=E";"https://patrimonioypaisaje.madrid.es/sites/v/index.jsp?vgnextchannel=83bc3cb702aa4510VgnVCM1000008a4a900aRCRD&vgnextoid=a818f7d9560a4510f7d9560a45102e085a0aRCRD";"ALCALÁ";"Calle";"V";"49";"";"";"";"";"MADRID";"MADRID";"28014";"";"JUSTICIA";"";"CENTRO";"441008";"4474558";"40.41956034622228";"-3.6953707711467745";"";"";"";""; 
11050966;"Instituto del Patrimonio Cultural de España";"https://patrimonioypaisaje.madrid.es/FrameWork/generacionPDFMonumenta/11050966.pdf?idEdificio=f51b0a11f811e610VgnVCM2000001f4a900aRCRD&tipoMon=E";"https://patrimonioypaisaje.madrid.es/sites/v/index.jsp?vgnextchannel=83bc3cb702aa4510VgnVCM1000008a4a900aRCRD&vgnextoid=f51b0a11f811e610VgnVCM2000001f4a900aRCRD";"PINTOR EL GRECO";"CALLE";"V";"4";"";"";"";"";"MADRID";"MADRID";"28040";"";"CIUDAD UNIVERSITARIA";"";"MONCLOA-ARAVACA";"437627";"4477039";"40.44166668674646";"-3.735464796879181";"";"";"";""; 
305578;"La Casa Encendida";"https://patrimonioypaisaje.madrid.es/FrameWork/generacionPDFMonumenta/305578.pdf?idEdificio=4418f7d9560a4510f7d9560a45102e085a0aRCRD&tipoMon=E";"https://patrimonioypaisaje.madrid.es/sites/v/index.jsp?vgnextchannel=83bc3cb702aa4510VgnVCM1000008a4a900aRCRD&vgnextoid=4418f7d9560a4510f7d9560a45102e085a0aRCRD";"VALENCIA";"RONDA";"V";"2";"";"";"";"";"MADRID";"MADRID";"28012";"";"EMBAJADORES";"";"CENTRO";"440622";"4473051";"40.40596221830597";"-3.6997720739017033";"";"";"";""; 
11067567;"Matadero y Mercado Municipal de Granados";"https://patrimonioypaisaje.madrid.es/FrameWork/generacionPDFMonumenta/11067567.pdf?idEdificio=55c478610b88e610VgnVCM2000001f4a900aRCRD&tipoMon=E";"https://patrimonioypaisaje.madrid.es/sites/v/index.jsp?vgnextchannel=83bc3cb702aa4510VgnVCM1000008a4a900aRCRD&vgnextoid=55c478610b88e610VgnVCM2000001f4a900aRCRD";"CHOPERA";"PASEO";"V";"14";"";"";"";"";"MADRID";"MADRID";"28045";"";"CHOPERA";"";"ARGANZUELA";"440828";"4471551";"40.39245798191536";"-3.6972067902718897";"";"";"";""; 
307124;"Medialab-Prado (antigua Serrería Belga)";"https://patrimonioypaisaje.madrid.es/FrameWork/generacionPDFMonumenta/307124.pdf?idEdificio=6618f7d9560a4510f7d9560a45102e085a0aRCRD&tipoMon=E";"https://patrimonioypaisaje.madrid.es/sites/v/index.jsp?vgnextchannel=83bc3cb702aa4510VgnVCM1000008a4a900aRCRD&vgnextoid=6618f7d9560a4510f7d9560a45102e085a0aRCRD";"ALAMEDA";"CALLE";"V";"15";"";"";"";"";"MADRID";"MADRID";"28014";"";"CORTES";"";"CENTRO";"441134";"4473558";"40.4105673503608";"-3.6937819843413373";"";"";"";""; 
307088;"Mercado de San Miguel";"https://patrimonioypaisaje.madrid.es/FrameWork/generacionPDFMonumenta/307088.pdf?idEdificio=2618f7d9560a4510f7d9560a45102e085a0aRCRD&tipoMon=E";"https://patrimonioypaisaje.madrid.es/sites/v/index.jsp?vgnextchannel=83bc3cb702aa4510VgnVCM1000008a4a900aRCRD&vgnextoid=2618f7d9560a4510f7d9560a45102e085a0aRCRD";"SAN MIGUEL";"Plaza";"V";"";"";"";"";"";"MADRID";"MADRID";"28005";"";"PALACIO";"";"CENTRO";"439846";"4474101";"40.4153602918824";"-3.709023692234164";"";"";"";""; 
317796;"Ministerio de Agricultura, Pesca y Alimentación";"https://patrimonioypaisaje.madrid.es/FrameWork/generacionPDFMonumenta/317796.pdf?idEdificio=ed18f7d9560a4510f7d9560a45102e085a0aRCRD&tipoMon=E";"https://patrimonioypaisaje.madrid.es/sites/v/index.jsp?vgnextchannel=83bc3cb702aa4510VgnVCM1000008a4a900aRCRD&vgnextoid=ed18f7d9560a4510f7d9560a45102e085a0aRCRD";"INFANTA ISABEL";"PASEO";"V";"1";"";"";"";"";"MADRID";"MADRID";"28014";"";"LOS JERONIMOS";"";"RETIRO";"441401";"4473342";"40.40863906624042";"-3.6906194489700237";"";"";"";""; 
303037;"Monasterio de las Descalzas Reales";"https://patrimonioypaisaje.madrid.es/FrameWork/generacionPDFMonumenta/303037.pdf?idEdificio=af08f7d9560a4510f7d9560a45102e085a0aRCRD&tipoMon=E";"https://patrimonioypaisaje.madrid.es/sites/v/index.jsp?vgnextchannel=83bc3cb702aa4510VgnVCM1000008a4a900aRCRD&vgnextoid=af08f7d9560a4510f7d9560a45102e085a0aRCRD";"DESCALZAS";"Plaza";"V";"";"";"";"";"";"MADRID";"MADRID";"28013";"";"SOL";"";"CENTRO";"440108";"4474462";"40.418631243969415";"-3.705969762193341";"";"";"";""; 
307231;"Monasterio de Montserrat";"https://patrimonioypaisaje.madrid.es/FrameWork/generacionPDFMonumenta/307231.pdf?idEdificio=c618f7d9560a4510f7d9560a45102e085a0aRCRD&tipoMon=E";"https://patrimonioypaisaje.madrid.es/sites/v/index.jsp?vgnextchannel=83bc3cb702aa4510VgnVCM1000008a4a900aRCRD&vgnextoid=c618f7d9560a4510f7d9560a45102e085a0aRCRD";"SAN BERNARDO";"CALLE";"V";"79";"";"";"";"";"MADRID";"MADRID";"28015";"";"UNIVERSIDAD";"";"CENTRO";"440073";"4475482";"40.42782496214609";"-3.706474495078322";"";"";"";""; 
11005963;"Museo Cerralbo";"https://patrimonioypaisaje.madrid.es/FrameWork/generacionPDFMonumenta/11005963.pdf?idEdificio=64458a205fccc610VgnVCM2000001f4a900aRCRD&tipoMon=E";"https://patrimonioypaisaje.madrid.es/sites/v/index.jsp?vgnextchannel=83bc3cb702aa4510VgnVCM1000008a4a900aRCRD&vgnextoid=64458a205fccc610VgnVCM2000001f4a900aRCRD";"VENTURA RODRIGUEZ";"CALLE";"V";"17";"";"";"";"";"MADRID";"MADRID";"28008";"";"ARGUELLES";"";"MONCLOA-ARAVACA";"439380";"4475039";"40.423779252051425";"-3.7145996063573756";"";"";"";""; 
11050879;"Museo de América";"https://patrimonioypaisaje.madrid.es/FrameWork/generacionPDFMonumenta/11050879.pdf?idEdificio=aefeb801a201e610VgnVCM2000001f4a900aRCRD&tipoMon=E";"https://patrimonioypaisaje.madrid.es/sites/v/index.jsp?vgnextchannel=83bc3cb702aa4510VgnVCM1000008a4a900aRCRD&vgnextoid=aefeb801a201e610VgnVCM2000001f4a900aRCRD";"REYES CATOLICOS";"AVENIDA";"V";"6";"";"";"";"";"MADRID";"MADRID";"28040";"";"CIUDAD UNIVERSITARIA";"";"MONCLOA-ARAVACA";"438777";"4476615";"40.43793725485899";"-3.7218544182655786";"";"";"";""; 
301272;"Museo de Historia de Madrid. Museo Municipal de Madrid";"https://patrimonioypaisaje.madrid.es/FrameWork/generacionPDFMonumenta/301272.pdf?idEdificio=4208f7d9560a4510f7d9560a45102e085a0aRCRD&tipoMon=E";"https://patrimonioypaisaje.madrid.es/sites/v/index.jsp?vgnextchannel=83bc3cb702aa4510VgnVCM1000008a4a900aRCRD&vgnextoid=4208f7d9560a4510f7d9560a45102e085a0aRCRD";"FUENCARRAL";"CALLE";"V";"78";"";"";"";"";"MADRID";"MADRID";"28004";"";"JUSTICIA";"";"CENTRO";"440542";"4475247";"40.4257331392528";"-3.700926972454831";"";"";"";""; 
321069;"Museo del Ferrocarril";"https://patrimonioypaisaje.madrid.es/FrameWork/generacionPDFMonumenta/321069.pdf?idEdificio=cf18f7d9560a4510f7d9560a45102e085a0aRCRD&tipoMon=E";"https://patrimonioypaisaje.madrid.es/sites/v/index.jsp?vgnextchannel=83bc3cb702aa4510VgnVCM1000008a4a900aRCRD&vgnextoid=cf18f7d9560a4510f7d9560a45102e085a0aRCRD";"DELICIAS";"PASEO";"V";"1";"";"";"";"";"MADRID";"MADRID";"28045";"";"PALOS DE MOGUER";"";"ARGANZUELA";"441194";"4473161";"40.406996505596624";"-3.6930483362488657";"";"";"";""; 
313939;"Museo Lázaro Galdiano";"https://patrimonioypaisaje.madrid.es/FrameWork/generacionPDFMonumenta/313939.pdf?idEdificio=eb18f7d9560a4510f7d9560a45102e085a0aRCRD&tipoMon=E";"https://patrimonioypaisaje.madrid.es/sites/v/index.jsp?vgnextchannel=83bc3cb702aa4510VgnVCM1000008a4a900aRCRD&vgnextoid=eb18f7d9560a4510f7d9560a45102e085a0aRCRD";"SERRANO";"CALLE";"V";"122";"";"";"";"";"MADRID";"MADRID";"28006";"";"CASTELLANA";"";"SALAMANCA";"441802";"4476460";"40.43675593917329";"-3.6861820403705816";"";"";"";""; 
305800;"Museo Nacional Centro de Arte Reina Sofía";"https://patrimonioypaisaje.madrid.es/FrameWork/generacionPDFMonumenta/305800.pdf?idEdificio=a418f7d9560a4510f7d9560a45102e085a0aRCRD&tipoMon=E";"https://patrimonioypaisaje.madrid.es/sites/v/index.jsp?vgnextchannel=83bc3cb702aa4510VgnVCM1000008a4a900aRCRD&vgnextoid=a418f7d9560a4510f7d9560a45102e085a0aRCRD";"SANTA ISABEL";"CALLE";"V";"52";"";"";"";"";"MADRID";"MADRID";"28012";"";"EMBAJADORES";"";"CENTRO";"441118";"4473345";"40.40864029339671";"-3.6939504103293244";"";"";"";""; 
11055833;"Museo Nacional de Ciencias Naturales y Escuela Técnica Superior de Ingenieros Industriales";"https://patrimonioypaisaje.madrid.es/FrameWork/generacionPDFMonumenta/11055833.pdf?idEdificio=db67dfa16a63e610VgnVCM1000001d4a900aRCRD&tipoMon=E";"https://patrimonioypaisaje.madrid.es/sites/v/index.jsp?vgnextchannel=83bc3cb702aa4510VgnVCM1000008a4a900aRCRD&vgnextoid=db67dfa16a63e610VgnVCM1000001d4a900aRCRD";"JOSE GUTIERREZ ABASCAL";"CALLE";"V";"2";"";"";"";"";"MADRID";"MADRID";"28006";"";"EL VISO";"";"CHAMARTIN";"441463";"4476870";"40.44042600324054";"-3.690212174964136";"";"";"";""; 
325790;"Museo Nacional del Prado";"https://patrimonioypaisaje.madrid.es/FrameWork/generacionPDFMonumenta/325790.pdf?idEdificio=a128f7d9560a4510f7d9560a45102e085a0aRCRD&tipoMon=E";"https://patrimonioypaisaje.madrid.es/sites/v/index.jsp?vgnextchannel=83bc3cb702aa4510VgnVCM1000008a4a900aRCRD&vgnextoid=a128f7d9560a4510f7d9560a45102e085a0aRCRD";"PRADO";"PASEO";"V";"1";"";"";"";"";"MADRID";"MADRID";"28014";"";"LOS JERONIMOS";"";"RETIRO";"441243";"4474443";"40.41854475379762";"-3.6925831204366806";"";"";"";""; 
313014;"Museo Sorolla";"https://patrimonioypaisaje.madrid.es/FrameWork/generacionPDFMonumenta/313014.pdf?idEdificio=aa18f7d9560a4510f7d9560a45102e085a0aRCRD&tipoMon=E";"https://patrimonioypaisaje.madrid.es/sites/v/index.jsp?vgnextchannel=83bc3cb702aa4510VgnVCM1000008a4a900aRCRD&vgnextoid=aa18f7d9560a4510f7d9560a45102e085a0aRCRD";"GENERAL MARTINEZ CAMPOS";"Paseo";"V";"37";"";"";"";"";"MADRID";"MADRID";"28010";"";"ALMAGRO";"";"CHAMBERI";"441271";"4476322";"40.43546990168913";"-3.692433817871342";"";"";"";""; 
325816;"Museo Thyssen-Bornemisza (Palacio de Vistahermosa)";"https://patrimonioypaisaje.madrid.es/FrameWork/generacionPDFMonumenta/325816.pdf?idEdificio=40083d43db3a45103d43db3a45102e085a0aRCRD&tipoMon=E";"https://patrimonioypaisaje.madrid.es/sites/v/index.jsp?vgnextchannel=83bc3cb702aa4510VgnVCM1000008a4a900aRCRD&vgnextoid=40083d43db3a45103d43db3a45102e085a0aRCRD";"PRADO";"PASEO";"V";"8";"";"";"";"";"MADRID";"MADRID";"28014";"";"CORTES";"";"CENTRO";"441058";"4474164";"40.41601631762229";"-3.694738346891257";"";"";"";""; 
11055925;"Nuevos Ministerios";"https://patrimonioypaisaje.madrid.es/FrameWork/generacionPDFMonumenta/11055925.pdf?idEdificio=845f5454dca3e610VgnVCM1000001d4a900aRCRD&tipoMon=E";"https://patrimonioypaisaje.madrid.es/sites/v/index.jsp?vgnextchannel=83bc3cb702aa4510VgnVCM1000008a4a900aRCRD&vgnextoid=845f5454dca3e610VgnVCM1000001d4a900aRCRD";"AGUSTIN DE BETANCOURT";"CALLE";"V";"4";"";"";"";"";"MADRID";"MADRID";"28003";"";"RIOS ROSAS";"";"CHAMBERI";"441091";"4477124";"40.44268919706804";"-3.694627300005272";"";"";"";""; 
325775;"Observatorio Astronómico";"https://patrimonioypaisaje.madrid.es/FrameWork/generacionPDFMonumenta/325775.pdf?idEdificio=6128f7d9560a4510f7d9560a45102e085a0aRCRD&tipoMon=E";"https://patrimonioypaisaje.madrid.es/sites/v/index.jsp?vgnextchannel=83bc3cb702aa4510VgnVCM1000008a4a900aRCRD&vgnextoid=6128f7d9560a4510f7d9560a45102e085a0aRCRD";"ALFONSO XII";"CALLE";"V";"3";"";"";"";"";"MADRID";"MADRID";"28014";"";"LOS JERONIMOS";"";"RETIRO";"441586";"4473438";"40.40951154860526";"-3.6884516670285747";"";"";"";""; 
302157;"Oficinas para Ramón López-Rumayor Lombera";"https://patrimonioypaisaje.madrid.es/FrameWork/generacionPDFMonumenta/302157.pdf?idEdificio=0808f7d9560a4510f7d9560a45102e085a0aRCRD&tipoMon=E";"https://patrimonioypaisaje.madrid.es/sites/v/index.jsp?vgnextchannel=83bc3cb702aa4510VgnVCM1000008a4a900aRCRD&vgnextoid=0808f7d9560a4510f7d9560a45102e085a0aRCRD";"CONCEPCION ARENAL";"Calle";"V";"1";"";"";"";"";"MADRID";"MADRID";"";"";"UNIVERSIDAD";"";"CENTRO";"440195";"4474671";"40.4205202700433";"-3.7049639867882593";"";"";"";""; 
302204;"Oficinas para Vicente Patuel";"https://patrimonioypaisaje.madrid.es/FrameWork/generacionPDFMonumenta/302204.pdf?idEdificio=a908f7d9560a4510f7d9560a45102e085a0aRCRD&tipoMon=E";"https://patrimonioypaisaje.madrid.es/sites/v/index.jsp?vgnextchannel=83bc3cb702aa4510VgnVCM1000008a4a900aRCRD&vgnextoid=a908f7d9560a4510f7d9560a45102e085a0aRCRD";"CHINCHILLA";"Calle";"V";"9";"";"";"";"";"MADRID";"MADRID";"";"";"SOL";"";"CENTRO";"440291";"4474598";"40.41986954619534";"-3.703825594056321";"";"";"";""; 
307312;"Oratorio del Caballero de Gracia";"https://patrimonioypaisaje.madrid.es/FrameWork/generacionPDFMonumenta/307312.pdf?idEdificio=20083d43db3a45103d43db3a45102e085a0aRCRD&tipoMon=E";"https://patrimonioypaisaje.madrid.es/sites/v/index.jsp?vgnextchannel=83bc3cb702aa4510VgnVCM1000008a4a900aRCRD&vgnextoid=20083d43db3a45103d43db3a45102e085a0aRCRD";"CABALLERO DE GRACIA";"Calle";"V";"5";"";"";"";"";"MADRID";"MADRID";"28013";"";"SOL";"";"CENTRO";"440666";"447478";"";"";"";"";"";""; 
302122;"Palacio de Altamira (Instituto Europeo del Diseño)";"https://patrimonioypaisaje.madrid.es/FrameWork/generacionPDFMonumenta/302122.pdf?idEdificio=0708f7d9560a4510f7d9560a45102e085a0aRCRD&tipoMon=E";"https://patrimonioypaisaje.madrid.es/sites/v/index.jsp?vgnextchannel=83bc3cb702aa4510VgnVCM1000008a4a900aRCRD&vgnextoid=0708f7d9560a4510f7d9560a45102e085a0aRCRD";"FLOR ALTA";"Calle";"V";"8";"";"";"";"";"MADRID";"MADRID";"28004";"";"UNIVERSIDAD";"";"CENTRO";"439999";"4474811";"40.421767344162355";"-3.707287420083181";"";"";"";""; 
11050053;"Palacio de Amboage (actual sede de la Embajada de Italia)";"https://patrimonioypaisaje.madrid.es/FrameWork/generacionPDFMonumenta/11050053.pdf?idEdificio=1d4ae77ccd10e610VgnVCM2000001f4a900aRCRD&tipoMon=E";"https://patrimonioypaisaje.madrid.es/sites/v/index.jsp?vgnextchannel=83bc3cb702aa4510VgnVCM1000008a4a900aRCRD&vgnextoid=1d4ae77ccd10e610VgnVCM2000001f4a900aRCRD";"LAGASCA";"CALLE";"V";"98";"";"";"";"";"MADRID";"MADRID";"28006";"";"CASTELLANA";"";"SALAMANCA";"441936";"4475944";"40.43211109393623";"-3.684551710224391";"";"";"";""; 
325821;"Palacio de Biblioteca y Museos Nacionales";"https://patrimonioypaisaje.madrid.es/FrameWork/generacionPDFMonumenta/325821.pdf?idEdificio=8228f7d9560a4510f7d9560a45102e085a0aRCRD&tipoMon=E";"https://patrimonioypaisaje.madrid.es/sites/v/index.jsp?vgnextchannel=83bc3cb702aa4510VgnVCM1000008a4a900aRCRD&vgnextoid=8228f7d9560a4510f7d9560a45102e085a0aRCRD";"SERRANO";"CALLE";"V";"13";"";"";"";"";"MADRID";"MADRID";"28001";"";"RECOLETOS";"";"SALAMANCA";"441601";"4474966";"40.4232789604228";"-3.6884121235090532";"";"";"";""; 
325941;"Palacio de Buena Vista (actual sede del Cuartel General del Ejército de Tierra)";"https://patrimonioypaisaje.madrid.es/FrameWork/generacionPDFMonumenta/325941.pdf?idEdificio=4328f7d9560a4510f7d9560a45102e085a0aRCRD&tipoMon=E";"https://patrimonioypaisaje.madrid.es/sites/v/index.jsp?vgnextchannel=83bc3cb702aa4510VgnVCM1000008a4a900aRCRD&vgnextoid=4328f7d9560a4510f7d9560a45102e085a0aRCRD";"ALCALÁ";"Calle";"V";"51";"";"";"";"";"MADRID";"MADRID";"28014";"";"JUSTICIA";"";"CENTRO";"441079";"4474671";"40.42058333522924";"-3.6945443828867504";"";"";"";""; 
325771;"Palacio de Comunicaciones (Palacio de Cibeles, Ayuntamiento de Madrid)";"https://patrimonioypaisaje.madrid.es/FrameWork/generacionPDFMonumenta/325771.pdf?idEdificio=4128f7d9560a4510f7d9560a45102e085a0aRCRD&tipoMon=E";"https://patrimonioypaisaje.madrid.es/sites/v/index.jsp?vgnextchannel=83bc3cb702aa4510VgnVCM1000008a4a900aRCRD&vgnextoid=4128f7d9560a4510f7d9560a45102e085a0aRCRD";"CIBELES";"PLAZA";"V";"1";"";"";"";"";"MADRID";"MADRID";"28014";"5";"LOS JERONIMOS";"3";"RETIRO";"441277";"4474496";"40.41902261618159";"-3.692188193693138";"";"";"";""; 
305737;"Palacio de Fernán Nuñez (Fundación de los Ferrocarriles Españoles)";"https://patrimonioypaisaje.madrid.es/FrameWork/generacionPDFMonumenta/305737.pdf?idEdificio=6418f7d9560a4510f7d9560a45102e085a0aRCRD&tipoMon=E";"https://patrimonioypaisaje.madrid.es/sites/v/index.jsp?vgnextchannel=83bc3cb702aa4510VgnVCM1000008a4a900aRCRD&vgnextoid=6418f7d9560a4510f7d9560a45102e085a0aRCRD";"SANTA ISABEL";"CALLE";"V";"44";"";"";"";"";"MADRID";"MADRID";"28012";"";"EMBAJADORES";"";"CENTRO";"440860";"4473481";"40.40985206511554";"-3.6970118323675845";"";"";"";""; 
302164;"Palacio de la Música";"https://patrimonioypaisaje.madrid.es/FrameWork/generacionPDFMonumenta/302164.pdf?idEdificio=6808f7d9560a4510f7d9560a45102e085a0aRCRD&tipoMon=E";"https://patrimonioypaisaje.madrid.es/sites/v/index.jsp?vgnextchannel=83bc3cb702aa4510VgnVCM1000008a4a900aRCRD&vgnextoid=6808f7d9560a4510f7d9560a45102e085a0aRCRD";"ABADA";"Calle";"V";"14";"";"";"";"";"MADRID";"MADRID";"";"";"SOL";"";"CENTRO";"440220";"4474600";"40.419882465507165";"-3.7046626413957284";"";"";"";""; 
302152;"Palacio de la Prensa";"https://patrimonioypaisaje.madrid.es/FrameWork/generacionPDFMonumenta/302152.pdf?idEdificio=e708f7d9560a4510f7d9560a45102e085a0aRCRD&tipoMon=E";"https://patrimonioypaisaje.madrid.es/sites/v/index.jsp?vgnextchannel=83bc3cb702aa4510VgnVCM1000008a4a900aRCRD&vgnextoid=e708f7d9560a4510f7d9560a45102e085a0aRCRD";"CALLAO";"PLAZA";"V";"4";"";"";"";"";"MADRID";"MADRID";"28013";"";"SOL";"";"CENTRO";"440148";"4474597";"40.41985083351601";"-3.7055098379576314";"";"";"";""; 
325803;"Palacio de Linares (actual Casa de América)";"https://patrimonioypaisaje.madrid.es/FrameWork/generacionPDFMonumenta/325803.pdf?idEdificio=e128f7d9560a4510f7d9560a45102e085a0aRCRD&tipoMon=E";"https://patrimonioypaisaje.madrid.es/sites/v/index.jsp?vgnextchannel=83bc3cb702aa4510VgnVCM1000008a4a900aRCRD&vgnextoid=e128f7d9560a4510f7d9560a45102e085a0aRCRD";"CIBELES";"PLAZA";"V";"1";"";"";"";"";"MADRID";"MADRID";"28014";"";"LOS JERONIMOS";"";"RETIRO";"441277";"4474496";"40.41902261618159";"-3.692188193693138";"";"";"";""; 
325350;"Palacio de Liria";"https://patrimonioypaisaje.madrid.es/FrameWork/generacionPDFMonumenta/325350.pdf?idEdificio=8028f7d9560a4510f7d9560a45102e085a0aRCRD&tipoMon=E";"https://patrimonioypaisaje.madrid.es/sites/v/index.jsp?vgnextchannel=83bc3cb702aa4510VgnVCM1000008a4a900aRCRD&vgnextoid=8028f7d9560a4510f7d9560a45102e085a0aRCRD";"PRINCESA";"CALLE";"V";"20";"";"";"";"";"MADRID";"MADRID";"28008";"";"UNIVERSIDAD";"";"CENTRO";"439549";"4475377";"40.426837593736934";"-3.7126361453494083";"";"";"";""; 
301402;"Palacio de Longoria (sede de la Sociedad General de Autores y Editores)";"https://patrimonioypaisaje.madrid.es/FrameWork/generacionPDFMonumenta/301402.pdf?idEdificio=c208f7d9560a4510f7d9560a45102e085a0aRCRD&tipoMon=E";"https://patrimonioypaisaje.madrid.es/sites/v/index.jsp?vgnextchannel=83bc3cb702aa4510VgnVCM1000008a4a900aRCRD&vgnextoid=c208f7d9560a4510f7d9560a45102e085a0aRCRD";"FERNANDO VI";"Calle";"V";"4";"";"";"";"";"MADRID";"MADRID";"28004";"4";"JUSTICIA";"1";"CENTRO";"440887";"4475195";"40.42529015852938";"-3.6968561786505174";"";"";"";""; 
304093;"Palacio de los Duques de Santoña (Cámara de Comercio)";"https://patrimonioypaisaje.madrid.es/FrameWork/generacionPDFMonumenta/304093.pdf?idEdificio=e218f7d9560a4510f7d9560a45102e085a0aRCRD&tipoMon=E";"https://patrimonioypaisaje.madrid.es/sites/v/index.jsp?vgnextchannel=83bc3cb702aa4510VgnVCM1000008a4a900aRCRD&vgnextoid=e218f7d9560a4510f7d9560a45102e085a0aRCRD";"HUERTAS";"Calle";"V";"13";"";"";"";"";"MADRID";"MADRID";"28012";"";"CORTES";"";"CENTRO";"440578";"4473954";"40.41408863088947";"-3.700382632319931";"";"";"";""; 
303226;"Palacio de Santa Cruz (sede actual del Ministerio de Asuntos Exteriores)";"https://patrimonioypaisaje.madrid.es/FrameWork/generacionPDFMonumenta/303226.pdf?idEdificio=6018f7d9560a4510f7d9560a45102e085a0aRCRD&tipoMon=E";"https://patrimonioypaisaje.madrid.es/sites/v/index.jsp?vgnextchannel=83bc3cb702aa4510VgnVCM1000008a4a900aRCRD&vgnextoid=6018f7d9560a4510f7d9560a45102e085a0aRCRD";"PROVINCIA";"PLAZA";"V";"1";"";"";"";"";"MADRID";"MADRID";"28012";"";"SOL";"";"CENTRO";"440112";"4474026";"40.41471076984459";"-3.705871508121933";"";"";"";""; 
302894;"Palacio del Duque de Uceda o Palacio de Consejos";"https://patrimonioypaisaje.madrid.es/FrameWork/generacionPDFMonumenta/302894.pdf?idEdificio=2f08f7d9560a4510f7d9560a45102e085a0aRCRD&tipoMon=E";"https://patrimonioypaisaje.madrid.es/sites/v/index.jsp?vgnextchannel=83bc3cb702aa4510VgnVCM1000008a4a900aRCRD&vgnextoid=2f08f7d9560a4510f7d9560a45102e085a0aRCRD";"MAYOR";"CALLE";"V";"79";"";"";"";"";"MADRID";"MADRID";"28013";"";"PALACIO";"";"CENTRO";"439514";"4474061";"40.414975858382746";"-3.712927052732882";"";"";"";""; 
317990;"Palacio del Marqués de Salamanca";"https://patrimonioypaisaje.madrid.es/FrameWork/generacionPDFMonumenta/317990.pdf?idEdificio=ce18f7d9560a4510f7d9560a45102e085a0aRCRD&tipoMon=E";"https://patrimonioypaisaje.madrid.es/sites/v/index.jsp?vgnextchannel=83bc3cb702aa4510VgnVCM1000008a4a900aRCRD&vgnextoid=ce18f7d9560a4510f7d9560a45102e085a0aRCRD";"RECOLETOS";"Paseo";"V";"10";"";"";"";"";"MADRID";"MADRID";"28001";"";"RECOLETOS";"";"SALAMANCA";"441489";"4474970";"40.42142429655837";"-3.691016699006383";"";"";"";""; 
304779;"Palacio del Marqués de Perales (Filmoteca Española)";"https://patrimonioypaisaje.madrid.es/FrameWork/generacionPDFMonumenta/304779.pdf?idEdificio=e318f7d9560a4510f7d9560a45102e085a0aRCRD&tipoMon=E";"https://patrimonioypaisaje.madrid.es/sites/v/index.jsp?vgnextchannel=83bc3cb702aa4510VgnVCM1000008a4a900aRCRD&vgnextoid=e318f7d9560a4510f7d9560a45102e085a0aRCRD";"MAGDALENA";"CALLE";"V";"10";"";"";"";"";"MADRID";"MADRID";"28012";"2";"EMBAJADORES";"1";"CENTRO";"440424";"4473759";"40.41232213776173";"-3.702168315990886";"";"";"";""; 
11067352;"Palacio Real de El Pardo";"https://patrimonioypaisaje.madrid.es/FrameWork/generacionPDFMonumenta/11067352.pdf?idEdificio=3de1a8071288e610VgnVCM2000001f4a900aRCRD&tipoMon=E";"https://patrimonioypaisaje.madrid.es/sites/v/index.jsp?vgnextchannel=83bc3cb702aa4510VgnVCM1000008a4a900aRCRD&vgnextoid=3de1a8071288e610VgnVCM2000001f4a900aRCRD";"MANUEL ALONSO";"CALLE";"V";"1";"";"";"";"";"MADRID";"MADRID";"28048";"";"EL PARDO";"";"FUENCARRAL-EL PARDO";"434214";"4485845";"40.520729051083116";"-3.776611188452123";"";"";"";""; 
300001;"Palacio Real de Madrid";"https://patrimonioypaisaje.madrid.es/FrameWork/generacionPDFMonumenta/300001.pdf?idEdificio=2008f7d9560a4510f7d9560a45102e085a0aRCRD&tipoMon=E";"https://patrimonioypaisaje.madrid.es/sites/v/index.jsp?vgnextchannel=83bc3cb702aa4510VgnVCM1000008a4a900aRCRD&vgnextoid=2008f7d9560a4510f7d9560a45102e085a0aRCRD";"BAILEN";"Calle";"V";"";"";"";"";"";"MADRID";"MADRID";"28071";"";"PALACIO";"";"CENTRO";"";"";"40.417955";"-3.714312";"";"";"";""; 
390002;"Parque de El Retiro";"https://patrimonioypaisaje.madrid.es/FrameWork/generacionPDFMonumenta/390002.pdf?idEdificio=0528f7d9560a4510f7d9560a45102e085a0aRCRD&tipoMon=E";"https://patrimonioypaisaje.madrid.es/sites/v/index.jsp?vgnextchannel=83bc3cb702aa4510VgnVCM1000008a4a900aRCRD&vgnextoid=0528f7d9560a4510f7d9560a45102e085a0aRCRD";"INDEPENDENCIA";"PLAZA";"V";"7";"";"";"";"";"MADRID";"MADRID";"28001";"";"LOS JERONIMOS";"";"RETIRO";"441642";"4474563";"40.41965292860097";"-3.6878947032733205";"";"";"";""; 
11067509;"Parroquia de Nuestra Señora del Tránsito";"https://patrimonioypaisaje.madrid.es/FrameWork/generacionPDFMonumenta/11067509.pdf?idEdificio=6c4e78610b88e610VgnVCM2000001f4a900aRCRD&tipoMon=E";"https://patrimonioypaisaje.madrid.es/sites/v/index.jsp?vgnextchannel=83bc3cb702aa4510VgnVCM1000008a4a900aRCRD&vgnextoid=6c4e78610b88e610VgnVCM2000001f4a900aRCRD";"CANILLAS";"CARRETERA";"V";"40";"";"";"";"";"MADRID";"MADRID";"28043";"";"CANILLAS";"";"HORTALEZA";"444828";"4479327";"40.46278617142339";"-3.6507587941024298";"";"";"";""; 
11067173;"Parroquia de San Pedro Advincula";"https://patrimonioypaisaje.madrid.es/FrameWork/generacionPDFMonumenta/11067173.pdf?idEdificio=c3a3a7055e78e610VgnVCM2000001f4a900aRCRD&tipoMon=E";"https://patrimonioypaisaje.madrid.es/sites/v/index.jsp?vgnextchannel=83bc3cb702aa4510VgnVCM1000008a4a900aRCRD&vgnextoid=c3a3a7055e78e610VgnVCM2000001f4a900aRCRD";"SIERRA GORDA";"CALLE";"V";"5";"";"";"";"";"MADRID";"MADRID";"28031";"";"CASCO H.VALLECAS";"";"VILLA DE VALLECAS";"447343";"4470147";"40.380255445301586";"-3.620330652764418";"";"";"";""; 
11067550;"Parroquia de San Pedro de los Dominicos";"https://patrimonioypaisaje.madrid.es/FrameWork/generacionPDFMonumenta/11067550.pdf?idEdificio=eb0478610b88e610VgnVCM2000001f4a900aRCRD&tipoMon=E";"https://patrimonioypaisaje.madrid.es/sites/v/index.jsp?vgnextchannel=83bc3cb702aa4510VgnVCM1000008a4a900aRCRD&vgnextoid=eb0478610b88e610VgnVCM2000001f4a900aRCRD";"BURGOS";"AVENIDA";"V";"204";"";"";"";"";"MADRID";"MADRID";"28050";"";"VALDEFUENTES";"";"HORTALEZA";"444147";"4483713";"40.5022552628529";"-3.659176242434582";"";"";"";""; 
325827;"Parroquia de Santa Bárbara";"https://patrimonioypaisaje.madrid.es/FrameWork/generacionPDFMonumenta/325827.pdf?idEdificio=a228f7d9560a4510f7d9560a45102e085a0aRCRD&tipoMon=E";"https://patrimonioypaisaje.madrid.es/sites/v/index.jsp?vgnextchannel=83bc3cb702aa4510VgnVCM1000008a4a900aRCRD&vgnextoid=a228f7d9560a4510f7d9560a45102e085a0aRCRD";"GENERAL CASTA&amp;Ntilde;OS";"CALLE";"V";"2";"";"";"";"";"MADRID";"MADRID";"28004";"";"JUSTICIA";"";"CENTRO";"441121";"4475082";"40.42429327897972";"-3.6940790697439114";"";"";"";""; 
11065764;"Parroquia Nuestra Señora de Guadalupe";"https://patrimonioypaisaje.madrid.es/FrameWork/generacionPDFMonumenta/11065764.pdf?idEdificio=d8cd376edad7e610VgnVCM1000001d4a900aRCRD&tipoMon=E";"https://patrimonioypaisaje.madrid.es/sites/v/index.jsp?vgnextchannel=83bc3cb702aa4510VgnVCM1000008a4a900aRCRD&vgnextoid=d8cd376edad7e610VgnVCM1000001d4a900aRCRD";"PUERTO RICO";"CALLE";"V";"1";"";"";"";"";"MADRID";"MADRID";"28016";"";"HISPANOAMERICA";"";"CHAMARTIN";"442791";"4478192";"40.45242744242779";"-3.6746764221304726";"";"";"";""; 
307263;"Parroquia San Millán y San Cayetano";"https://patrimonioypaisaje.madrid.es/FrameWork/generacionPDFMonumenta/307263.pdf?idEdificio=0718f7d9560a4510f7d9560a45102e085a0aRCRD&tipoMon=E";"https://patrimonioypaisaje.madrid.es/sites/v/index.jsp?vgnextchannel=83bc3cb702aa4510VgnVCM1000008a4a900aRCRD&vgnextoid=0718f7d9560a4510f7d9560a45102e085a0aRCRD";"EMBAJADORES";"Calle";"V";"15";"";"";"";"";"MADRID";"MADRID";"28012";"";"EMBAJADORES";"";"CENTRO";"440140";"4473461";"40.40960698563183";"-3.705510095790745";"";"";"";""; 
329096;"Plaza de Toros de Las Ventas";"https://patrimonioypaisaje.madrid.es/FrameWork/generacionPDFMonumenta/329096.pdf?idEdificio=e328f7d9560a4510f7d9560a45102e085a0aRCRD&tipoMon=E";"https://patrimonioypaisaje.madrid.es/sites/v/index.jsp?vgnextchannel=83bc3cb702aa4510VgnVCM1000008a4a900aRCRD&vgnextoid=e328f7d9560a4510f7d9560a45102e085a0aRCRD";"ALCALÁ";"Calle";"V";"237";"";"";"";"";"MADRID";"MADRID";"28014";"";"GUINDALERA";"";"SALAMANCA";"443730";"4475948";"40.43227072485769";"-3.6634101865891995";"";"";"";""; 
390003;"Plaza Mayor";"https://patrimonioypaisaje.madrid.es/FrameWork/generacionPDFMonumenta/390003.pdf?idEdificio=2528f7d9560a4510f7d9560a45102e085a0aRCRD&tipoMon=E";"https://patrimonioypaisaje.madrid.es/sites/v/index.jsp?vgnextchannel=83bc3cb702aa4510VgnVCM1000008a4a900aRCRD&vgnextoid=2528f7d9560a4510f7d9560a45102e085a0aRCRD";"MAYOR";"Plaza";"V";"";"";"";"";"";"MADRID";"MADRID";"28012";"";"SOL";"";"CENTRO";"439985";"4474104";"40.41539735232832";"-3.707385727413197";"";"";"";""; 
390004;"Puerta del Sol";"https://patrimonioypaisaje.madrid.es/FrameWork/generacionPDFMonumenta/390004.pdf?idEdificio=4528f7d9560a4510f7d9560a45102e085a0aRCRD&tipoMon=E";"https://patrimonioypaisaje.madrid.es/sites/v/index.jsp?vgnextchannel=83bc3cb702aa4510VgnVCM1000008a4a900aRCRD&vgnextoid=4528f7d9560a4510f7d9560a45102e085a0aRCRD";"PUERTA DEL SOL";"PLAZA";"V";"1";"";"";"";"";"MADRID";"MADRID";"28013";"";"SOL";"";"CENTRO";"440420";"4474266";"40.41689383463677";"-3.70226287159844";"";"";"";""; 
303820;"Real Academia de Bellas Artes de San Fernando";"https://patrimonioypaisaje.madrid.es/FrameWork/generacionPDFMonumenta/303820.pdf?idEdificio=c118f7d9560a4510f7d9560a45102e085a0aRCRD&tipoMon=E";"https://patrimonioypaisaje.madrid.es/sites/v/index.jsp?vgnextchannel=83bc3cb702aa4510VgnVCM1000008a4a900aRCRD&vgnextoid=c118f7d9560a4510f7d9560a45102e085a0aRCRD";"ALCALÁ";"Calle";"V";"13";"";"";"";"";"MADRID";"MADRID";"28014";"";"SOL";"";"CENTRO";"440654";"4474596";"40.41800496217898";"-3.7008122201025677";"";"";"";""; 
304332;"Real Academia de la Historia";"https://patrimonioypaisaje.madrid.es/FrameWork/generacionPDFMonumenta/304332.pdf?idEdificio=8318f7d9560a4510f7d9560a45102e085a0aRCRD&tipoMon=E";"https://patrimonioypaisaje.madrid.es/sites/v/index.jsp?vgnextchannel=83bc3cb702aa4510VgnVCM1000008a4a900aRCRD&vgnextoid=8318f7d9560a4510f7d9560a45102e085a0aRCRD";"LEON";"CALLE";"V";"21";"";"";"";"";"MADRID";"MADRID";"28014";"";"CORTES";"";"CENTRO";"440694";"4473885";"40.413477661561586";"-3.698997649377588";"";"";"";""; 
317885;"Real Academia Española de la Lengua";"https://patrimonioypaisaje.madrid.es/FrameWork/generacionPDFMonumenta/317885.pdf?idEdificio=4e18f7d9560a4510f7d9560a45102e085a0aRCRD&tipoMon=E";"https://patrimonioypaisaje.madrid.es/sites/v/index.jsp?vgnextchannel=83bc3cb702aa4510VgnVCM1000008a4a900aRCRD&vgnextoid=4e18f7d9560a4510f7d9560a45102e085a0aRCRD";"FELIPE IV";"CALLE";"V";"4";"";"";"";"";"MADRID";"MADRID";"28014";"";"LOS JERONIMOS";"";"RETIRO";"441382";"4474057";"40.41507827018255";"-3.6909088749077665";"";"";"";""; 
325454;"Real Basílica de San Francisco el Grande";"https://patrimonioypaisaje.madrid.es/FrameWork/generacionPDFMonumenta/325454.pdf?idEdificio=e028f7d9560a4510f7d9560a45102e085a0aRCRD&tipoMon=E";"https://patrimonioypaisaje.madrid.es/sites/v/index.jsp?vgnextchannel=83bc3cb702aa4510VgnVCM1000008a4a900aRCRD&vgnextoid=e028f7d9560a4510f7d9560a45102e085a0aRCRD";"SAN FRANCISCO";"Gran Vía";"V";"19";"";"";"";"";"MADRID";"MADRID";"28005";"1";"PALACIO";"1";"CENTRO";"439361";"4473553";"40.41038846182965";"-3.7146876430333604";"";"";"";""; 
307076;"Real Casa de Correos";"https://patrimonioypaisaje.madrid.es/FrameWork/generacionPDFMonumenta/307076.pdf?idEdificio=8518f7d9560a4510f7d9560a45102e085a0aRCRD&tipoMon=E";"https://patrimonioypaisaje.madrid.es/sites/v/index.jsp?vgnextchannel=83bc3cb702aa4510VgnVCM1000008a4a900aRCRD&vgnextoid=8518f7d9560a4510f7d9560a45102e085a0aRCRD";"PUERTA DEL SOL";"PLAZA";"V";"7";"";"";"";"";"MADRID";"MADRID";"28013";"";"SOL";"";"CENTRO";"440290";"4474229";"40.416550888822";"-3.7037990314537987";"";"";"";""; 
307298;"Real Casa de la Aduana (actual sede del Ministerio de Hacienda)";"https://patrimonioypaisaje.madrid.es/FrameWork/generacionPDFMonumenta/307298.pdf?idEdificio=8718f7d9560a4510f7d9560a45102e085a0aRCRD&tipoMon=E";"https://patrimonioypaisaje.madrid.es/sites/v/index.jsp?vgnextchannel=83bc3cb702aa4510VgnVCM1000008a4a900aRCRD&vgnextoid=8718f7d9560a4510f7d9560a45102e085a0aRCRD";"ALCALA";"CALLE";"V";"5";"";"";"";"";"MADRID";"MADRID";"28014";"";"SOL";"";"CENTRO";"440459";"4474313";"40.41731385250003";"-3.7018150873321436";"";"";"";""; 
303772;"Real Colegiata de San Isidro";"https://patrimonioypaisaje.madrid.es/FrameWork/generacionPDFMonumenta/303772.pdf?idEdificio=8118f7d9560a4510f7d9560a45102e085a0aRCRD&tipoMon=E";"https://patrimonioypaisaje.madrid.es/sites/v/index.jsp?vgnextchannel=83bc3cb702aa4510VgnVCM1000008a4a900aRCRD&vgnextoid=8118f7d9560a4510f7d9560a45102e085a0aRCRD";"TOLEDO";"CALLE";"V";"37";"";"";"";"";"MADRID";"MADRID";"28005";"2";"EMBAJADORES";"1";"CENTRO";"439984";"4473834";"40.412971157638985";"-3.707369400972756";"";"";"";""; 
325786;"Real Jardín Botánico";"https://patrimonioypaisaje.madrid.es/FrameWork/generacionPDFMonumenta/325786.pdf?idEdificio=8128f7d9560a4510f7d9560a45102e085a0aRCRD&tipoMon=E";"https://patrimonioypaisaje.madrid.es/sites/v/index.jsp?vgnextchannel=83bc3cb702aa4510VgnVCM1000008a4a900aRCRD&vgnextoid=8128f7d9560a4510f7d9560a45102e085a0aRCRD";"MURILLO";"PLAZA";"V";"2";"";"";"";"";"MADRID";"MADRID";"28014";"";"LOS JERONIMOS";"";"RETIRO";"441285";"4473759";"40.412388448625556";"-3.692021796072817";"";"";"";""; 
307041;"Real Monasterio de la Encarnación";"https://patrimonioypaisaje.madrid.es/FrameWork/generacionPDFMonumenta/307041.pdf?idEdificio=e418f7d9560a4510f7d9560a45102e085a0aRCRD&tipoMon=E";"https://patrimonioypaisaje.madrid.es/sites/v/index.jsp?vgnextchannel=83bc3cb702aa4510VgnVCM1000008a4a900aRCRD&vgnextoid=e418f7d9560a4510f7d9560a45102e085a0aRCRD";"ENCARNACION";"Plaza";"V";"1";"";"";"";"";"MADRID";"MADRID";"28013";"";"PALACIO";"";"CENTRO";"439613";"4474618";"40.42000078931801";"-3.71181890174026";"";"";"";""; 
11017265;"Reforma del antiguo edificio de Unión Eléctrica";"https://patrimonioypaisaje.madrid.es/FrameWork/generacionPDFMonumenta/11017265.pdf?idEdificio=5b43e485f1a2d610VgnVCM2000001f4a900aRCRD&tipoMon=E";"https://patrimonioypaisaje.madrid.es/sites/v/index.jsp?vgnextchannel=83bc3cb702aa4510VgnVCM1000008a4a900aRCRD&vgnextoid=5b43e485f1a2d610VgnVCM2000001f4a900aRCRD";"GRAN VIA";"CALLE";"V";"4";"";"";"";"";"MADRID";"MADRID";"28013";"";"JUSTICIA";"";"CENTRO";"440815";"4474530";"40.41929644186726";"-3.6976372524904275";"";"";"";""; 
11053575;"Residencia de Estudiantes";"https://patrimonioypaisaje.madrid.es/FrameWork/generacionPDFMonumenta/11053575.pdf?idEdificio=b711078f64c1e610VgnVCM1000001d4a900aRCRD&tipoMon=E";"https://patrimonioypaisaje.madrid.es/sites/v/index.jsp?vgnextchannel=83bc3cb702aa4510VgnVCM1000008a4a900aRCRD&vgnextoid=b711078f64c1e610VgnVCM1000001d4a900aRCRD";"PINAR";"CALLE";"V";"21";"";"";"";"";"MADRID";"MADRID";"28006";"";"EL VISO";"";"CHAMARTIN";"441647";"4476895";"40.44065779577869";"-3.6880526406060454";"";"";"";""; 
11016982;"Restos del Antiguo Palacio del Buen Retiro";"https://patrimonioypaisaje.madrid.es/FrameWork/generacionPDFMonumenta/11016982.pdf?idEdificio=056bce908a92d610VgnVCM1000001d4a900aRCRD&tipoMon=E";"https://patrimonioypaisaje.madrid.es/sites/v/index.jsp?vgnextchannel=83bc3cb702aa4510VgnVCM1000008a4a900aRCRD&vgnextoid=056bce908a92d610VgnVCM1000001d4a900aRCRD";"FELIPE IV";"CALLE";"V";"1";"";"";"";"";"MADRID";"MADRID";"28014";"";"LOS JERONIMOS";"";"RETIRO";"441251";"4474088";"40.41534345623286";"-3.6924516397138722";"";"";"";""; 
390005;"Salón del Prado";"https://patrimonioypaisaje.madrid.es/FrameWork/generacionPDFMonumenta/390005.pdf?idEdificio=6528f7d9560a4510f7d9560a45102e085a0aRCRD&tipoMon=E";"https://patrimonioypaisaje.madrid.es/sites/v/index.jsp?vgnextchannel=83bc3cb702aa4510VgnVCM1000008a4a900aRCRD&vgnextoid=6528f7d9560a4510f7d9560a45102e085a0aRCRD";"PRADO";"Paseo";"V";"";"";"";"";"";"MADRID";"MADRID";"28014";"";"JERÓNIMOS";"";"RETIRO";"441193";"4474031";"40.41482596602272";"-3.6931415043070634";"";"";"";""; 
11049875;"Teatro Barceló";"https://patrimonioypaisaje.madrid.es/FrameWork/generacionPDFMonumenta/11049875.pdf?idEdificio=14ba072df910e610VgnVCM2000001f4a900aRCRD&tipoMon=E";"https://patrimonioypaisaje.madrid.es/sites/v/index.jsp?vgnextchannel=83bc3cb702aa4510VgnVCM1000008a4a900aRCRD&vgnextoid=14ba072df910e610VgnVCM2000001f4a900aRCRD";"BARCELO";"CALLE";"V";"11";"";"";"";"";"MADRID";"MADRID";"28004";"";"JUSTICIA";"";"CENTRO";"440639";"4475377";"40.42691245380727";"-3.69979134642512";"";"";"";""; 
325817;"Teatro María Guerrero";"https://patrimonioypaisaje.madrid.es/FrameWork/generacionPDFMonumenta/325817.pdf?idEdificio=6228f7d9560a4510f7d9560a45102e085a0aRCRD&tipoMon=E";"https://patrimonioypaisaje.madrid.es/sites/v/index.jsp?vgnextchannel=83bc3cb702aa4510VgnVCM1000008a4a900aRCRD&vgnextoid=6228f7d9560a4510f7d9560a45102e085a0aRCRD";"TAMAYO Y BAUS";"Calle";"V";"4";"";"";"";"";"MADRID";"MADRID";"28004";"";"JUSTICIA";"";"CENTRO";"441224";"4474922";"40.422854719603144";"-3.6928584806310307";"";"";"";""; 
307072;"Teatro Real";"https://patrimonioypaisaje.madrid.es/FrameWork/generacionPDFMonumenta/307072.pdf?idEdificio=6518f7d9560a4510f7d9560a45102e085a0aRCRD&tipoMon=E";"https://patrimonioypaisaje.madrid.es/sites/v/index.jsp?vgnextchannel=83bc3cb702aa4510VgnVCM1000008a4a900aRCRD&vgnextoid=6518f7d9560a4510f7d9560a45102e085a0aRCRD";"ISABEL II";"PLAZA";"V";"";"";"";"";"";"MADRID";"MADRID";"28013";"";"PALACIO";"";"CENTRO";"439834";"4474367";"40.41776291784375";"-3.70918800795985";"";"";"";""; 
11018036;"Teatro Valle-Inclán";"https://patrimonioypaisaje.madrid.es/FrameWork/generacionPDFMonumenta/11018036.pdf?idEdificio=96e756881493d610VgnVCM1000001d4a900aRCRD&tipoMon=E";"https://patrimonioypaisaje.madrid.es/sites/v/index.jsp?vgnextchannel=83bc3cb702aa4510VgnVCM1000008a4a900aRCRD&vgnextoid=96e756881493d610VgnVCM1000001d4a900aRCRD";"VALENCIA";"CALLE";"V";"1";"";"";"";"";"MADRID";"MADRID";"28012";"";"EMBAJADORES";"";"CENTRO";"440564";"4473279";"40.408011845853444";"-3.700475207314223";"";"";"";""; 
11005484;"Templo de Debod";"https://patrimonioypaisaje.madrid.es/FrameWork/generacionPDFMonumenta/11005484.pdf?idEdificio=201e4c90b3dcc610VgnVCM1000001d4a900aRCRD&tipoMon=E";"https://patrimonioypaisaje.madrid.es/sites/v/index.jsp?vgnextchannel=83bc3cb702aa4510VgnVCM1000008a4a900aRCRD&vgnextoid=201e4c90b3dcc610VgnVCM1000001d4a900aRCRD";"FERRAZ";"CALLE";"V";"1";"";"";"";"";"MADRID";"MADRID";"28008";"";"CASA DE CAMPO";"";"MONCLOA-ARAVACA";"439239";"4475098";"40.424301175943256";"-3.7162688083251094";"";"";"";""; 
11073713;"Terminal T4";"https://patrimonioypaisaje.madrid.es/FrameWork/generacionPDFMonumenta/11073713.pdf?idEdificio=194cbd23f57ae610VgnVCM2000001f4a900aRCRD&tipoMon=E";"https://patrimonioypaisaje.madrid.es/sites/v/index.jsp?vgnextchannel=83bc3cb702aa4510VgnVCM1000008a4a900aRCRD&vgnextoid=194cbd23f57ae610VgnVCM2000001f4a900aRCRD";"TERMINAL T-4";"AEROPUERTO";"T";"";"";"";"";"";"MADRID";"MADRID";"";"";"";"";"DISTRITO";"449845";"4482584";"40.49244999472662";"-3.591837062218565";"";"";"";""; 
11053556;"Torre Castelar";"https://patrimonioypaisaje.madrid.es/FrameWork/generacionPDFMonumenta/11053556.pdf?idEdificio=a790078f64c1e610VgnVCM1000001d4a900aRCRD&tipoMon=E";"https://patrimonioypaisaje.madrid.es/sites/v/index.jsp?vgnextchannel=83bc3cb702aa4510VgnVCM1000008a4a900aRCRD&vgnextoid=a790078f64c1e610VgnVCM1000001d4a900aRCRD";"CASTELLANA";"PASEO";"V";"50";"";"";"";"";"MADRID";"MADRID";"28046";"";"CASTELLANA";"";"SALAMANCA";"441645";"4476288";"40.435197111159646";"-3.688015719288949";"";"";"";""; 
11023466;"Torre de Madrid";"https://patrimonioypaisaje.madrid.es/FrameWork/generacionPDFMonumenta/11023466.pdf?idEdificio=0b592f9156e4d610VgnVCM1000001d4a900aRCRD&tipoMon=E";"https://patrimonioypaisaje.madrid.es/sites/v/index.jsp?vgnextchannel=83bc3cb702aa4510VgnVCM1000008a4a900aRCRD&vgnextoid=0b592f9156e4d610VgnVCM1000001d4a900aRCRD";"ESPAÑA";"PLAZA";"V";"18";"";"";"";"";"MADRID";"MADRID";"28008";"";"ARGUELLES";"";"MONCLOA-ARAVACA";"439570";"4475083";"40.42418961131494";"-3.712366421203481";"";"";"";""; 
11050220;"Torres Blancas";"https://patrimonioypaisaje.madrid.es/FrameWork/generacionPDFMonumenta/11050220.pdf?idEdificio=fd8987c41420e610VgnVCM2000001f4a900aRCRD&tipoMon=E";"https://patrimonioypaisaje.madrid.es/sites/v/index.jsp?vgnextchannel=83bc3cb702aa4510VgnVCM1000008a4a900aRCRD&vgnextoid=fd8987c41420e610VgnVCM2000001f4a900aRCRD";"AMERICA";"AVENIDA";"V";"37";"";"";"";"";"MADRID";"MADRID";"28002";"";"PROSPERIDAD";"";"CHAMARTIN";"443021";"4476772";"40.43965048520964";"-3.6718342742664696";"";"";"";""; 
11027622;"Tribunal Superior de Justicia";"https://patrimonioypaisaje.madrid.es/FrameWork/generacionPDFMonumenta/11027622.pdf?idEdificio=174d227f2186d610VgnVCM1000001d4a900aRCRD&tipoMon=E";"https://patrimonioypaisaje.madrid.es/sites/v/index.jsp?vgnextchannel=83bc3cb702aa4510VgnVCM1000008a4a900aRCRD&vgnextoid=174d227f2186d610VgnVCM1000001d4a900aRCRD";"GENERAL CASTA&amp;Ntilde;OS";"CALLE";"V";"1";"";"";"";"";"MADRID";"MADRID";"28004";"";"JUSTICIA";"";"CENTRO";"441109";"4475126";"40.424691322944106";"-3.6942249750928022";"";"";"";""; 
11006305;"Viaducto";"https://patrimonioypaisaje.madrid.es/FrameWork/generacionPDFMonumenta/11006305.pdf?idEdificio=b666390fd42dc610VgnVCM2000001f4a900aRCRD&tipoMon=E";"https://patrimonioypaisaje.madrid.es/sites/v/index.jsp?vgnextchannel=83bc3cb702aa4510VgnVCM1000008a4a900aRCRD&vgnextoid=b666390fd42dc610VgnVCM2000001f4a900aRCRD";"BAILEN";"CALLE";"V";"12";"";"";"";"";"MADRID";"MADRID";"28013";"";"PALACIO";"";"CENTRO";"439447";"4474018";"40.41458749364033";"-3.713713125691665";"";"";"";""; 
302124;"Viviendas para Alejandro Santamaría";"https://patrimonioypaisaje.madrid.es/FrameWork/generacionPDFMonumenta/302124.pdf?idEdificio=2708f7d9560a4510f7d9560a45102e085a0aRCRD&tipoMon=E";"https://patrimonioypaisaje.madrid.es/sites/v/index.jsp?vgnextchannel=83bc3cb702aa4510VgnVCM1000008a4a900aRCRD&vgnextoid=2708f7d9560a4510f7d9560a45102e085a0aRCRD";"GRAN VIA";"Calle";"V";"56";"";"";"";"";"MADRID";"MADRID";"";"";"UNIVERSIDAD";"";"CENTRO";"439985";"4474783";"40.42151409771597";"-3.7074497966802955";"";"";"";""; 
302352;"Viviendas para el Conde Artaza";"https://patrimonioypaisaje.madrid.es/FrameWork/generacionPDFMonumenta/302352.pdf?idEdificio=ac08f7d9560a4510f7d9560a45102e085a0aRCRD&tipoMon=E";"https://patrimonioypaisaje.madrid.es/sites/v/index.jsp?vgnextchannel=83bc3cb702aa4510VgnVCM1000008a4a900aRCRD&vgnextoid=ac08f7d9560a4510f7d9560a45102e085a0aRCRD";"CABALLERO DE GRACIA";"Calle";"V";"11";"";"";"";"";"MADRID";"MADRID";"28013";"3";"CORTES";"1";"CENTRO";"440662";"4474544";"40.41940962687557";"-3.69944766764916";"";"";"";""; 
302159;"Viviendas para el conde de Godó";"https://patrimonioypaisaje.madrid.es/FrameWork/generacionPDFMonumenta/302159.pdf?idEdificio=4808f7d9560a4510f7d9560a45102e085a0aRCRD&tipoMon=E";"https://patrimonioypaisaje.madrid.es/sites/v/index.jsp?vgnextchannel=83bc3cb702aa4510VgnVCM1000008a4a900aRCRD&vgnextoid=4808f7d9560a4510f7d9560a45102e085a0aRCRD";"GRAN VIA";"Calle";"V";"44";"";"";"";"";"MADRID";"MADRID";"";"";"UNIVERSIDAD";"";"CENTRO";"440154";"4474676";"40.42056229267926";"-3.705459505540731";"";"";"";""; 
302185;"Viviendas para el Marqués de Cubas y Fontalba";"https://patrimonioypaisaje.madrid.es/FrameWork/generacionPDFMonumenta/302185.pdf?idEdificio=2908f7d9560a4510f7d9560a45102e085a0aRCRD&tipoMon=E";"https://patrimonioypaisaje.madrid.es/sites/v/index.jsp?vgnextchannel=83bc3cb702aa4510VgnVCM1000008a4a900aRCRD&vgnextoid=2908f7d9560a4510f7d9560a45102e085a0aRCRD";"GONZALO JIMENEZ DE QUESADA";"Calle";"V";"2";"";"";"";"";"MADRID";"MADRID";"";"";"UNIVERSIDAD";"";"CENTRO";"440375";"4474661";"40.42044310282671";"-3.7028414131115097";"";"";"";""; 
302187;"Viviendas para el Marqués de Cubas y Fontalba";"https://patrimonioypaisaje.madrid.es/FrameWork/generacionPDFMonumenta/302187.pdf?idEdificio=6908f7d9560a4510f7d9560a45102e085a0aRCRD&tipoMon=E";"https://patrimonioypaisaje.madrid.es/sites/v/index.jsp?vgnextchannel=83bc3cb702aa4510VgnVCM1000008a4a900aRCRD&vgnextoid=6908f7d9560a4510f7d9560a45102e085a0aRCRD";"GRAN VIA";"Calle";"V";"30";"";"";"";"";"MADRID";"MADRID";"28004";"";"UNIVERSIDAD";"";"CENTRO";"440411";"4474653";"40.42037361389273";"-3.702416336705097";"";"";"";""; 
307318;"Viviendas para el marqués de Falces";"https://patrimonioypaisaje.madrid.es/FrameWork/generacionPDFMonumenta/307318.pdf?idEdificio=2818f7d9560a4510f7d9560a45102e085a0aRCRD&tipoMon=E";"https://patrimonioypaisaje.madrid.es/sites/v/index.jsp?vgnextchannel=83bc3cb702aa4510VgnVCM1000008a4a900aRCRD&vgnextoid=2818f7d9560a4510f7d9560a45102e085a0aRCRD";"CONCEPCION ARENAL";"Calle";"V";"2";"";"";"";"";"MADRID";"MADRID";"";"";"UNIVERSIDAD";"";"CENTRO";"440227";"4474666";"40.42047752700586";"-3.704586337195032";"";"";"";""; 
302341;"Viviendas para el marqués de Urquijo";"https://patrimonioypaisaje.madrid.es/FrameWork/generacionPDFMonumenta/302341.pdf?idEdificio=0c08f7d9560a4510f7d9560a45102e085a0aRCRD&tipoMon=E";"https://patrimonioypaisaje.madrid.es/sites/v/index.jsp?vgnextchannel=83bc3cb702aa4510VgnVCM1000008a4a900aRCRD&vgnextoid=0c08f7d9560a4510f7d9560a45102e085a0aRCRD";"GRAN VIA";"Calle";"V";"6";"";"";"";"";"MADRID";"MADRID";"28004";"";"JUSTICIA";"";"CENTRO";"440795";"4474555";"40.41951812230061";"-3.697892849039001";"";"";"";""; 
302285;"Viviendas para el marqués de Villamayor de Santiago";"https://patrimonioypaisaje.madrid.es/FrameWork/generacionPDFMonumenta/302285.pdf?idEdificio=2b08f7d9560a4510f7d9560a45102e085a0aRCRD&tipoMon=E";"https://patrimonioypaisaje.madrid.es/sites/v/index.jsp?vgnextchannel=83bc3cb702aa4510VgnVCM1000008a4a900aRCRD&vgnextoid=2b08f7d9560a4510f7d9560a45102e085a0aRCRD";"CABALLERO DE GRACIA";"Calle";"V";"7";"";"";"";"";"MADRID";"MADRID";"28013";"";"SOL";"";"CENTRO";"440589";"4474566";"40.41960260462519";"-3.700310150544718";"";"";"";""; 
302135;"Viviendas para Fernando M. Vidales";"https://patrimonioypaisaje.madrid.es/FrameWork/generacionPDFMonumenta/302135.pdf?idEdificio=8708f7d9560a4510f7d9560a45102e085a0aRCRD&tipoMon=E";"https://patrimonioypaisaje.madrid.es/sites/v/index.jsp?vgnextchannel=83bc3cb702aa4510VgnVCM1000008a4a900aRCRD&vgnextoid=8708f7d9560a4510f7d9560a45102e085a0aRCRD";"GRAN VIA";"Calle";"V";"52";"";"";"";"";"MADRID";"MADRID";"";"";"UNIVERSIDAD";"";"CENTRO";"440044";"4474748";"40.42120305505693";"-3.706751062021101";"";"";"";""; 
302053;"Viviendas para José María Escriña";"https://patrimonioypaisaje.madrid.es/FrameWork/generacionPDFMonumenta/302053.pdf?idEdificio=e308f7d9560a4510f7d9560a45102e085a0aRCRD&tipoMon=E";"https://patrimonioypaisaje.madrid.es/sites/v/index.jsp?vgnextchannel=83bc3cb702aa4510VgnVCM1000008a4a900aRCRD&vgnextoid=e308f7d9560a4510f7d9560a45102e085a0aRCRD";"GRAN VIA";"Calle";"V";"69";"";"";"";"";"MADRID";"MADRID";"";"";"PALACIO";"";"CENTRO";"439721";"4474926";"40.422783222706194";"-3.7105751263868805";"";"";"";""; 
302056;"Viviendas para José Pérez Pla";"https://patrimonioypaisaje.madrid.es/FrameWork/generacionPDFMonumenta/302056.pdf?idEdificio=4408f7d9560a4510f7d9560a45102e085a0aRCRD&tipoMon=E";"https://patrimonioypaisaje.madrid.es/sites/v/index.jsp?vgnextchannel=83bc3cb702aa4510VgnVCM1000008a4a900aRCRD&vgnextoid=4408f7d9560a4510f7d9560a45102e085a0aRCRD";"FLOR BAJA";"Calle";"V";"4";"";"";"";"";"MADRID";"MADRID";"";"";"PALACIO";"";"CENTRO";"439782";"4474885";"40.42241829328353";"-3.709852221827304";"";"";"";""; 
302355;"Viviendas para Juan Giralt de la Porta";"https://patrimonioypaisaje.madrid.es/FrameWork/generacionPDFMonumenta/302355.pdf?idEdificio=0d08f7d9560a4510f7d9560a45102e085a0aRCRD&tipoMon=E";"https://patrimonioypaisaje.madrid.es/sites/v/index.jsp?vgnextchannel=83bc3cb702aa4510VgnVCM1000008a4a900aRCRD&vgnextoid=0d08f7d9560a4510f7d9560a45102e085a0aRCRD";"CABALLERO DE GRACIA";"Calle";"V";"17";"";"";"";"";"MADRID";"MADRID";"28013";"";"CORTES";"";"CENTRO";"440728";"4474521";"40.41920713559999";"-3.6986676029689782";"";"";"";""; 
302333;"Viviendas para la Sociedad Inmobiliaria de la Villa de Madrid. Bar Chicote.";"https://patrimonioypaisaje.madrid.es/FrameWork/generacionPDFMonumenta/302333.pdf?idEdificio=ab08f7d9560a4510f7d9560a45102e085a0aRCRD&tipoMon=E";"https://patrimonioypaisaje.madrid.es/sites/v/index.jsp?vgnextchannel=83bc3cb702aa4510VgnVCM1000008a4a900aRCRD&vgnextoid=ab08f7d9560a4510f7d9560a45102e085a0aRCRD";"GRAN VIA";"Calle";"V";"12";"";"";"";"";"MADRID";"MADRID";"28004";"";"JUSTICIA";"";"CENTRO";"440715";"4474583";"40.41976473508097";"-3.698826608774758";"";"";"";""; 
302332;"Viviendas para la Sociedad Inmobiliaria de Madrid";"https://patrimonioypaisaje.madrid.es/FrameWork/generacionPDFMonumenta/302332.pdf?idEdificio=8b08f7d9560a4510f7d9560a45102e085a0aRCRD&tipoMon=E";"https://patrimonioypaisaje.madrid.es/sites/v/index.jsp?vgnextchannel=83bc3cb702aa4510VgnVCM1000008a4a900aRCRD&vgnextoid=8b08f7d9560a4510f7d9560a45102e085a0aRCRD";"GRAN VIA";"Calle";"V";"14";"";"";"";"";"MADRID";"MADRID";"28004";"";"JUSTICIA";"";"CENTRO";"440694";"4474591";"40.419835306475555";"-3.699074876456168";"";"";"";""; 
302357;"Viviendas para Luis Ocharán Mazas";"https://patrimonioypaisaje.madrid.es/FrameWork/generacionPDFMonumenta/302357.pdf?idEdificio=4d08f7d9560a4510f7d9560a45102e085a0aRCRD&tipoMon=E";"https://patrimonioypaisaje.madrid.es/sites/v/index.jsp?vgnextchannel=83bc3cb702aa4510VgnVCM1000008a4a900aRCRD&vgnextoid=4d08f7d9560a4510f7d9560a45102e085a0aRCRD";"CABALLERO DE GRACIA";"Calle";"V";"21";"";"";"";"";"MADRID";"MADRID";"28013";"";"CORTES";"";"CENTRO";"440775";"4474507";"40.4190843632902";"-3.6981123266852105";"";"";"";""; 
302353;"Viviendas para Luis y Manuel Mitjans";"https://patrimonioypaisaje.madrid.es/FrameWork/generacionPDFMonumenta/302353.pdf?idEdificio=cc08f7d9560a4510f7d9560a45102e085a0aRCRD&tipoMon=E";"https://patrimonioypaisaje.madrid.es/sites/v/index.jsp?vgnextchannel=83bc3cb702aa4510VgnVCM1000008a4a900aRCRD&vgnextoid=cc08f7d9560a4510f7d9560a45102e085a0aRCRD";"CABALLERO DE GRACIA";"Calle";"V";"13";"";"";"";"";"MADRID";"MADRID";"28013";"";"CORTES";"";"CENTRO";"440688";"4474534";"40.41932139571109";"-3.6991402812861884";"";"";"";""; 
307317;"Viviendas para María Monasterio Arrillaga";"https://patrimonioypaisaje.madrid.es/FrameWork/generacionPDFMonumenta/307317.pdf?idEdificio=0818f7d9560a4510f7d9560a45102e085a0aRCRD&tipoMon=E";"https://patrimonioypaisaje.madrid.es/sites/v/index.jsp?vgnextchannel=83bc3cb702aa4510VgnVCM1000008a4a900aRCRD&vgnextoid=0818f7d9560a4510f7d9560a45102e085a0aRCRD";"GRAN VIA";"Calle";"V";"36";"";"";"";"";"MADRID";"MADRID";"";"";"UNIVERSIDAD";"";"CENTRO";"440247";"4474664";"40.4204609465012";"-3.7043504121334347";"";"";"";""; 
302280;"Viviendas para Seguros La Estrella";"https://patrimonioypaisaje.madrid.es/FrameWork/generacionPDFMonumenta/302280.pdf?idEdificio=aa08f7d9560a4510f7d9560a45102e085a0aRCRD&tipoMon=E";"https://patrimonioypaisaje.madrid.es/sites/v/index.jsp?vgnextchannel=83bc3cb702aa4510VgnVCM1000008a4a900aRCRD&vgnextoid=aa08f7d9560a4510f7d9560a45102e085a0aRCRD";"GRAN VIA";"Calle";"V";"20";"";"";"";"";"MADRID";"MADRID";"28004";"";"JUSTICIA";"";"CENTRO";"440722";"4474829";"40.42010879230797";"-3.7000324985088477";"";"";"";""; 
302334;"Viviendas para Seguros La Estrella";"https://patrimonioypaisaje.madrid.es/FrameWork/generacionPDFMonumenta/302334.pdf?idEdificio=cb08f7d9560a4510f7d9560a45102e085a0aRCRD&tipoMon=E";"https://patrimonioypaisaje.madrid.es/sites/v/index.jsp?vgnextchannel=83bc3cb702aa4510VgnVCM1000008a4a900aRCRD&vgnextoid=cb08f7d9560a4510f7d9560a45102e085a0aRCRD";"GRAN VIA";"Calle";"V";"10";"";"";"";"";"MADRID";"MADRID";"28004";"";"JUSTICIA";"";"CENTRO";"440739";"4474574";"40.419685368324615";"-3.698542888220262";"";"";"";""; 
302282;"Viviendas para Tomás Allende";"https://patrimonioypaisaje.madrid.es/FrameWork/generacionPDFMonumenta/302282.pdf?idEdificio=ea08f7d9560a4510f7d9560a45102e085a0aRCRD&tipoMon=E";"https://patrimonioypaisaje.madrid.es/sites/v/index.jsp?vgnextchannel=83bc3cb702aa4510VgnVCM1000008a4a900aRCRD&vgnextoid=ea08f7d9560a4510f7d9560a45102e085a0aRCRD";"CABALLERO DE GRACIA";"Calle";"V";"1";"";"";"";"";"MADRID";"MADRID";"28013";"";"SOL";"";"CENTRO";"440513";"4474583";"40.41975031907702";"-3.701207530853102";"";"";"";""; 
302331;"Viviendas y comercio para Rafael Sánchez";"https://patrimonioypaisaje.madrid.es/FrameWork/generacionPDFMonumenta/302331.pdf?idEdificio=6b08f7d9560a4510f7d9560a45102e085a0aRCRD&tipoMon=E";"https://patrimonioypaisaje.madrid.es/sites/v/index.jsp?vgnextchannel=83bc3cb702aa4510VgnVCM1000008a4a900aRCRD&vgnextoid=6b08f7d9560a4510f7d9560a45102e085a0aRCRD";"CLAVEL";"Calle";"V";"4";"";"";"";"";"MADRID";"MADRID";"28013";"";"JUSTICIA";"";"CENTRO";"440780";"447480";"";"";"";"";"";""; 
307320;"Viviendas y comercios para Francisco Escriña";"https://patrimonioypaisaje.madrid.es/FrameWork/generacionPDFMonumenta/307320.pdf?idEdificio=6818f7d9560a4510f7d9560a45102e085a0aRCRD&tipoMon=E";"https://patrimonioypaisaje.madrid.es/sites/v/index.jsp?vgnextchannel=83bc3cb702aa4510VgnVCM1000008a4a900aRCRD&vgnextoid=6818f7d9560a4510f7d9560a45102e085a0aRCRD";"GRAN VIA";"Calle";"V";"71";"";"";"";"";"MADRID";"MADRID";"";"";"PALACIO";"";"CENTRO";"439819";"4475149";"40.42291755243886";"-3.710706208243318";"";"";"";""; 
302083;"Viviendas y oficinas";"https://patrimonioypaisaje.madrid.es/FrameWork/generacionPDFMonumenta/302083.pdf?idEdificio=0608f7d9560a4510f7d9560a45102e085a0aRCRD&tipoMon=E";"https://patrimonioypaisaje.madrid.es/sites/v/index.jsp?vgnextchannel=83bc3cb702aa4510VgnVCM1000008a4a900aRCRD&vgnextoid=0608f7d9560a4510f7d9560a45102e085a0aRCRD";"GRAN VIA";"Calle";"V";"51";"";"";"";"";"MADRID";"MADRID";"28013";"";"PALACIO";"";"CENTRO";"439946";"4474743";"40.421150945618855";"-3.7079057135178797";"";"";"";""; 
302042;"Viviendas y oficinas";"https://patrimonioypaisaje.madrid.es/FrameWork/generacionPDFMonumenta/302042.pdf?idEdificio=6308f7d9560a4510f7d9560a45102e085a0aRCRD&tipoMon=E";"https://patrimonioypaisaje.madrid.es/sites/v/index.jsp?vgnextchannel=83bc3cb702aa4510VgnVCM1000008a4a900aRCRD&vgnextoid=6308f7d9560a4510f7d9560a45102e085a0aRCRD";"GRAN VIA";"Calle";"V";"80";"";"";"";"";"MADRID";"MADRID";"28015";"";"UNIVERSIDAD";"";"CENTRO";"439742";"4475004";"40.423487402817905";"-3.710334985725268";"";"";"";""; 
302086;"Viviendas y oficinas";"https://patrimonioypaisaje.madrid.es/FrameWork/generacionPDFMonumenta/302086.pdf?idEdificio=6608f7d9560a4510f7d9560a45102e085a0aRCRD&tipoMon=E";"https://patrimonioypaisaje.madrid.es/sites/v/index.jsp?vgnextchannel=83bc3cb702aa4510VgnVCM1000008a4a900aRCRD&vgnextoid=6608f7d9560a4510f7d9560a45102e085a0aRCRD";"GRAN VIA";"Calle";"V";"45";"";"";"";"";"MADRID";"MADRID";"";"";"PALACIO";"";"CENTRO";"439988";"4474711";"40.4208657051662";"-3.707407641201163";"";"";"";""; 
302069;"Viviendas y oficinas";"https://patrimonioypaisaje.madrid.es/FrameWork/generacionPDFMonumenta/302069.pdf?idEdificio=2508f7d9560a4510f7d9560a45102e085a0aRCRD&tipoMon=E";"https://patrimonioypaisaje.madrid.es/sites/v/index.jsp?vgnextchannel=83bc3cb702aa4510VgnVCM1000008a4a900aRCRD&vgnextoid=2508f7d9560a4510f7d9560a45102e085a0aRCRD";"GRAN VIA";"Calle";"V";"60";"";"";"";"";"MADRID";"MADRID";"";"";"UNIVERSIDAD";"";"CENTRO";"439920";"4474843";"40.42204991423245";"-3.7082216221580424";"";"";"";""; 
302278;"Viviendas y oficinas para el vizconde de Escoriaza";"https://patrimonioypaisaje.madrid.es/FrameWork/generacionPDFMonumenta/302278.pdf?idEdificio=6a08f7d9560a4510f7d9560a45102e085a0aRCRD&tipoMon=E";"https://patrimonioypaisaje.madrid.es/sites/v/index.jsp?vgnextchannel=83bc3cb702aa4510VgnVCM1000008a4a900aRCRD&vgnextoid=6a08f7d9560a4510f7d9560a45102e085a0aRCRD";"GRAN VIA";"Calle";"V";"22B";"";"";"";"";"MADRID";"MADRID";"28004";"";"JUSTICIA";"";"CENTRO";"440579";"4474633";"40.420196449810746";"-3.700434184151691";"";"";"";""; 
302054;"Viviendas y oficinas para Hilario Ruiz";"https://patrimonioypaisaje.madrid.es/FrameWork/generacionPDFMonumenta/302054.pdf?idEdificio=0408f7d9560a4510f7d9560a45102e085a0aRCRD&tipoMon=E";"https://patrimonioypaisaje.madrid.es/sites/v/index.jsp?vgnextchannel=83bc3cb702aa4510VgnVCM1000008a4a900aRCRD&vgnextoid=0408f7d9560a4510f7d9560a45102e085a0aRCRD";"DOCTOR CARRACIDO";"Calle";"V";"";"";"";"";"";"MADRID";"MADRID";"";"";"PALACIO";"";"CENTRO";"439745";"4474906";"40.42260479210528";"-3.710290337398356";"";"";"";""; 
302250;"Viviendas y oficinas para Jesús de Murga";"https://patrimonioypaisaje.madrid.es/FrameWork/generacionPDFMonumenta/302250.pdf?idEdificio=4a08f7d9560a4510f7d9560a45102e085a0aRCRD&tipoMon=E";"https://patrimonioypaisaje.madrid.es/sites/v/index.jsp?vgnextchannel=83bc3cb702aa4510VgnVCM1000008a4a900aRCRD&vgnextoid=4a08f7d9560a4510f7d9560a45102e085a0aRCRD";"FUENCARRAL";"Calle";"V";"2";"";"";"";"";"MADRID";"MADRID";"28004";"";"JUSTICIA";"";"CENTRO";"440609";"4474841";"40.42019974167522";"-3.7013772230560367";"";"";"";""; 
302050;"Viviendas y oficinas para Jesús Ussia y Cubas y Cine Azul";"https://patrimonioypaisaje.madrid.es/FrameWork/generacionPDFMonumenta/302050.pdf?idEdificio=8308f7d9560a4510f7d9560a45102e085a0aRCRD&tipoMon=E";"https://patrimonioypaisaje.madrid.es/sites/v/index.jsp?vgnextchannel=83bc3cb702aa4510VgnVCM1000008a4a900aRCRD&vgnextoid=8308f7d9560a4510f7d9560a45102e085a0aRCRD";"GENERAL MITRE";"Calle";"V";"";"";"";"";"";"MADRID";"MADRID";"";"";"UNIVERSIDAD";"";"CENTRO";"439875";"4475187";"40.42326392942259";"-3.7100497207381746";"";"";"";""; 
302158;"Viviendas y oficinas para José María Cano";"https://patrimonioypaisaje.madrid.es/FrameWork/generacionPDFMonumenta/302158.pdf?idEdificio=2808f7d9560a4510f7d9560a45102e085a0aRCRD&tipoMon=E";"https://patrimonioypaisaje.madrid.es/sites/v/index.jsp?vgnextchannel=83bc3cb702aa4510VgnVCM1000008a4a900aRCRD&vgnextoid=2808f7d9560a4510f7d9560a45102e085a0aRCRD";"GRAN VIA";"Calle";"V";"42";"";"";"";"";"MADRID";"MADRID";"";"";"UNIVERSIDAD";"";"CENTRO";"440176";"4474673";"40.420527912725234";"-3.7051880312562004";"";"";"";""; 
302335;"Viviendas y oficinas para José María de Antonio Becerril";"https://patrimonioypaisaje.madrid.es/FrameWork/generacionPDFMonumenta/302335.pdf?idEdificio=eb08f7d9560a4510f7d9560a45102e085a0aRCRD&tipoMon=E";"https://patrimonioypaisaje.madrid.es/sites/v/index.jsp?vgnextchannel=83bc3cb702aa4510VgnVCM1000008a4a900aRCRD&vgnextoid=eb08f7d9560a4510f7d9560a45102e085a0aRCRD";"GRAN VIA";"Calle";"V";"8";"";"";"";"";"MADRID";"MADRID";"28004";"";"JUSTICIA";"";"CENTRO";"440759";"4474565";"40.41960571610798";"-3.6983063152074465";"";"";"";""; 
302071;"Viviendas y oficinas para José Pérez Pla";"https://patrimonioypaisaje.madrid.es/FrameWork/generacionPDFMonumenta/302071.pdf?idEdificio=6508f7d9560a4510f7d9560a45102e085a0aRCRD&tipoMon=E";"https://patrimonioypaisaje.madrid.es/sites/v/index.jsp?vgnextchannel=83bc3cb702aa4510VgnVCM1000008a4a900aRCRD&vgnextoid=6508f7d9560a4510f7d9560a45102e085a0aRCRD";"GRAN VIA";"Calle";"V";"64";"";"";"";"";"MADRID";"MADRID";"";"";"UNIVERSIDAD";"";"CENTRO";"439890";"4474872";"40.42230899265851";"-3.708577977039153";"";"";"";""; 
302057;"Viviendas y oficinas para Juan Miralles Sesé";"https://patrimonioypaisaje.madrid.es/FrameWork/generacionPDFMonumenta/302057.pdf?idEdificio=6408f7d9560a4510f7d9560a45102e085a0aRCRD&tipoMon=E";"https://patrimonioypaisaje.madrid.es/sites/v/index.jsp?vgnextchannel=83bc3cb702aa4510VgnVCM1000008a4a900aRCRD&vgnextoid=6408f7d9560a4510f7d9560a45102e085a0aRCRD";"FLOR BAJA";"Calle";"V";"2";"";"";"";"";"MADRID";"MADRID";"";"";"PALACIO";"";"CENTRO";"439802";"4474872";"40.42230263063633";"-3.709615247532299";"";"";"";""; 
302212;"Viviendas y oficinas para la Constructora Calpense";"https://patrimonioypaisaje.madrid.es/FrameWork/generacionPDFMonumenta/302212.pdf?idEdificio=c908f7d9560a4510f7d9560a45102e085a0aRCRD&tipoMon=E";"https://patrimonioypaisaje.madrid.es/sites/v/index.jsp?vgnextchannel=83bc3cb702aa4510VgnVCM1000008a4a900aRCRD&vgnextoid=c908f7d9560a4510f7d9560a45102e085a0aRCRD";"CHINCHILLA";"Calle";"V";"";"";"";"";"";"MADRID";"MADRID";"28013";"";"SOL";"";"CENTRO";"440334";"4474594";"40.41983659667071";"-3.7033183883781584";"";"";"";""; 
302084;"Viviendas y oficinas para Leopoldo García";"https://patrimonioypaisaje.madrid.es/FrameWork/generacionPDFMonumenta/302084.pdf?idEdificio=2608f7d9560a4510f7d9560a45102e085a0aRCRD&tipoMon=E";"https://patrimonioypaisaje.madrid.es/sites/v/index.jsp?vgnextchannel=83bc3cb702aa4510VgnVCM1000008a4a900aRCRD&vgnextoid=2608f7d9560a4510f7d9560a45102e085a0aRCRD";"GRAN VIA";"Calle";"V";"49";"";"";"";"";"MADRID";"MADRID";"";"";"PALACIO";"";"CENTRO";"439961";"4474732";"40.421052935047896";"-3.7077278705268566";"";"";"";""; 
307319;"Viviendas y oficinas para Rafael Calabuig";"https://patrimonioypaisaje.madrid.es/FrameWork/generacionPDFMonumenta/307319.pdf?idEdificio=4818f7d9560a4510f7d9560a45102e085a0aRCRD&tipoMon=E";"https://patrimonioypaisaje.madrid.es/sites/v/index.jsp?vgnextchannel=83bc3cb702aa4510VgnVCM1000008a4a900aRCRD&vgnextoid=4818f7d9560a4510f7d9560a45102e085a0aRCRD";"GRAN VIA";"Calle";"V";"58";"";"";"";"";"MADRID";"MADRID";"28013";"";"UNIVERSIDAD";"";"CENTRO";"439936";"4474829";"40.4219249510091";"-3.708031705868069";"";"";"";""; 
302165;"Viviendas y oficinas para Ramón Saiz de Carlos";"https://patrimonioypaisaje.madrid.es/FrameWork/generacionPDFMonumenta/302165.pdf?idEdificio=8808f7d9560a4510f7d9560a45102e085a0aRCRD&tipoMon=E";"https://patrimonioypaisaje.madrid.es/sites/v/index.jsp?vgnextchannel=83bc3cb702aa4510VgnVCM1000008a4a900aRCRD&vgnextoid=8808f7d9560a4510f7d9560a45102e085a0aRCRD";"GRAN VIA";"Calle";"V";"33";"";"";"";"";"MADRID";"MADRID";"";"";"SOL";"";"CENTRO";"440248";"4474600";"40.419884476559766";"-3.7043326122944116";"";"";"";""; 
302085;"Viviendas y oficinas para Santos Suárez y Compañía";"https://patrimonioypaisaje.madrid.es/FrameWork/generacionPDFMonumenta/302085.pdf?idEdificio=4608f7d9560a4510f7d9560a45102e085a0aRCRD&tipoMon=E";"https://patrimonioypaisaje.madrid.es/sites/v/index.jsp?vgnextchannel=83bc3cb702aa4510VgnVCM1000008a4a900aRCRD&vgnextoid=4608f7d9560a4510f7d9560a45102e085a0aRCRD";"GRAN VIA";"Calle";"V";"47";"";"";"";"";"MADRID";"MADRID";"28013";"";"PALACIO";"";"CENTRO";"439972";"4474716";"40.420909593356875";"-3.707596703829156";"";"";"";""; 
302354;"Viviendas y oficinas para Seguros La Estrella";"https://patrimonioypaisaje.madrid.es/FrameWork/generacionPDFMonumenta/302354.pdf?idEdificio=ec08f7d9560a4510f7d9560a45102e085a0aRCRD&tipoMon=E";"https://patrimonioypaisaje.madrid.es/sites/v/index.jsp?vgnextchannel=83bc3cb702aa4510VgnVCM1000008a4a900aRCRD&vgnextoid=ec08f7d9560a4510f7d9560a45102e085a0aRCRD";"CABALLERO DE GRACIA";"Calle";"V";"15";"";"";"";"";"MADRID";"MADRID";"28013";"";"CORTES";"";"CENTRO";"440709";"4474527";"40.41925983291224";"-3.698892108659167";"";"";"";""; 
302186;"Viviendas y teatro Fontalba para el marqués de Cubas y Fontalba";"https://patrimonioypaisaje.madrid.es/FrameWork/generacionPDFMonumenta/302186.pdf?idEdificio=0008723e180a4510723e180a45102e085a0aRCRD&tipoMon=E";"https://patrimonioypaisaje.madrid.es/sites/v/index.jsp?vgnextchannel=83bc3cb702aa4510VgnVCM1000008a4a900aRCRD&vgnextoid=0008723e180a4510723e180a45102e085a0aRCRD";"DESENGAÑO";"Calle";"V";"3";"";"";"";"";"MADRID";"MADRID";"28004";"";"UNIVERSIDAD";"";"CENTRO";"440393";"4474660";"40.42043538395938";"-3.7026291559798357";"";"";"";""; 
11066810;"Zoo Aquarium de Madrid";"https://patrimonioypaisaje.madrid.es/FrameWork/generacionPDFMonumenta/11066810.pdf?idEdificio=c8eb59843b38e610VgnVCM1000001d4a900aRCRD&tipoMon=E";"https://patrimonioypaisaje.madrid.es/sites/v/index.jsp?vgnextchannel=83bc3cb702aa4510VgnVCM1000008a4a900aRCRD&vgnextoid=c8eb59843b38e610VgnVCM1000001d4a900aRCRD";"ZOOLOGICO DE LA CASA CAMPO";"COMPLEJO";"T";"";"";"";"";"";"MADRID";"MADRID";"";"";"";"";"DISTRITO";"435402";"4473738";"40.41176029757209";"-3.761360271036638";"";"";"";""; 

