PK;NOMBRE;DESCRIPCION-ENTIDAD;HORARIO;EQUIPAMIENTO;TRANSPORTE;DESCRIPCION;ACCESIBILIDAD;CONTENT-URL;NOMBRE-VIA;CLASE-VIAL;TIPO-NUM;NUM;PLANTA;PUERTA;ESCALERAS;ORIENTACION;LOCALIDAD;PROVINCIA;CODIGO-POSTAL;COD-BARRIO;BARRIO;COD-DISTRITO;DISTRITO;COORDENADA-X;COORDENADA-Y;LATITUD;LONGITUD;TELEFONO;FAX;EMAIL;TIPO;
7805;"Centro de Turismo Plaza Mayor";"Madrid cuenta en el Salón de Columnas de la Casa de la Panadería de la céntrica Plaza Mayor con uno de los más modernos centros turísticos del país que ofrece atención especializada con una plantilla de profesionales expertos en turismo e idiomas que atiende personalmente a los visitantes y da respuesta también a todas las peticiones de información que se realizan de manera no presencial. Centro de turismo cofinanciado por el Fondo Europeo de Desarrollo Regional.";"Horario de atención al público de 9:30 a 20:30 horas, todos los días del año. Horario taquilla: martes a domingo de 10:30 a 14:30 y de 16:30 a 20:30 h. Lunes cerrado.";"Atención presencial en varios idiomas  Atención especializada  Servicio de atención no presencial (teléfono 915 787 810 y email turismo@esmadrid.com) Atención por Whatsapp 619 111 094 Autoconsulta con folletos descargables mediante código QR Wifi gratuita Taquilla de Teatros Municipales (abierta de martes a domingo, de 10:30 a 14:30 y de 16:30 a 20:30 horas) Punto de venta del Madrid City Tour (solo pago con tarjeta de crédito)  Tienda con recuerdos y artesanías madrileñas (solo pago con tarjeta de crédito)   Accesibilidad:     Programa de visitas guiadas accesibles (previa reserva)     Lengua de Signos Española     Bucles magnéticos (3)     Encaminamientos podotáctiles     Apoyos isquiáticos     Plano háptico     Mostrador adaptado     Guía de Turismo Accesible     Área tecnológica: Audiovisuales  El Centro de Turismo de Plaza Mayor está certificado en la UNE 170001-2 de Accesibilidad Universal.";"Metro: Sol (líneas 1, 2, 3), Ópera (línea 2, 5, Ramal)  Bus: 17, 18, 23, 31, 50, 65  Renfe: Sol (líneas C3, C4)  Bicimad: Estaciones 31  (calle Mayor, 20),  32 (plaza Provincia , 1 )    Parking: Plaza Mayor (55), Plaza Mayor";"";"1,4,5,6";"http://www.madrid.es/sites/v/index.jsp?vgnextchannel=bfa48ab43d6bb410VgnVCM100000171f5a0aRCRD&vgnextoid=b0a093e5fd61c010VgnVCM1000000b205a0aRCRD";"MAYOR";"PLAZA";"V";"27";"";"";"";"Casa de la Panadería";"MADRID";"MADRID";"28012";"6";"SOL";"1";"CENTRO";"439983";"4474154";"40.41583855082183";"-3.7074257084323636";"915 787 810";"";"turismo@esmadrid.com";"/contenido/entidadesYorganismos/OficinasTurismo"; 
11209095;"Centro de Turismo de Sol. Comunidad de Madrid";"";"De lunes a sábado de 9 a 20 horas. Domingos y festivos de 9 a 14 horas. Cerrado 1 enero, 1 mayo y 25 diciembre.";"";"Metro: Sol (línea 1, 2, 3)  Bus: 002, M1, SE712  Renfe: Sol (C3, C3a, C4)  Bicimad: Estación 33 (calle Carretas, 8) / Estación 1 a y b (Puerta del Sol, 1)";"";"3";"http://www.madrid.es/sites/v/index.jsp?vgnextchannel=bfa48ab43d6bb410VgnVCM100000171f5a0aRCRD&vgnextoid=8ff104fc413c3710VgnVCM2000001f4a900aRCRD";"PUERTA DEL SOL";"PLAZA";"V";"5";"";"";"";"";"MADRID";"MADRID";"28013";"6";"SOL";"1";"CENTRO";"440372";"4474236";"40.41661777543638";"-3.702829899539909";"912 723 400";"";"turismo@madrid.org";"/contenido/entidadesYorganismos/OficinasTurismo"; 
10692696;"Madrid Film Office";"Madrid Film Office es un servicio público del Ayuntamiento de Madrid que tiene como misión promocionar la ciudad como escenario de rodaje de producciones audiovisuales, asistir a las empresas y a los profesionales que eligen la ciudad de Madrid para llevar a cabo sus proyectos, apoyar al sector audiovisual madrileño y estimular la inversión y el desarrollo local. Madrid Film Office colabora desde la fase de preproducción para facilitar la búsqueda de localizaciones, te asesora en materia de permisos y te acompaña durante el desarrollo de los proyectos audiovisuales en la ciudad de Madrid. La oficina está abierta a consultas y solicitudes de asistencia por vía telefónica o email. Si deseas una atención presencial, solicita cita previa a través del correo electrónico info@madridfilmoffice.com.";"Horario de trabajo de la oficina: de 9 a 16 horas.";"Funciones que presta  La oficina ofrece los siguientes servicios básicos a los productores que desean rodar en Madrid:  1. Ayuda en la búsqueda de localizaciones para rodajes  Apoyo en la búsqueda de localizaciones que se adecúen a las necesidades de las producciones y asesoría en el terreno de la logística de producción y postproducción a desarrollar en Madrid. Madrid Film Office cuenta con un catálogo con sugerencias de localizaciones para rodajes en la ciudad de Madrid: https://madridfilmoffice.com/localizaciones/.   2. Orientación en la gestión de permisos de rodaje  Información sobre gestores, procedimientos, tarifas y buenas prácticas para la obtención de permisos de rodaje en espacios municipales, así como localizaciones institucionales y privadas. Madrid Film Office no tiene autoridad para dar los permisos de rodaje en ningún espacio municipal o extramunicipal, actuando únicamente como una oficina de orientación en la búsqueda del titular correspondiente y de apoyo en el proceso de petición de los permisos. En el caso de los espacios municipales:  Los permisos de rodaje en vía pública, parques y jardines los otorga el Negociado de Autorizaciones de Rodaje, perteneciente al Área de Gobierno de Medio Ambiente y Movilidad. Cuenta con dos tipos de permisos de rodaje, que se pueden solicitar electrónica o presencialmente en sus oficinas (C/ Albarracín, 33). Los permisos de rodaje en edificios e instalaciones municipales los otorgan los diferentes y múltiples órganos municipales de los que son competencia. Por ejemplo, los centros deportivos y culturales municipales suelen gestionarlos las Juntas Municipales de Distrito en las que se ubican, los cementerios municipales los gestiona la Empresa Municipal de Servicios Funerarios y Cementerios de Madrid, etc.   3. Asistencia en la gestión de servicios municipales  Mediación entre el sector audiovisual y el amplio abanico de departamentos municipales con el que pueden necesitar contactar y colaborar (alumbrado, zonas verdes, mobiliario urbano, etc.). En este sentido, conocidos los servicios que el productor necesita, Madrid Film Office se presta a ayudar en:  La búsqueda de los posibles interlocutores municipales implicados. El estudio de la viabilidad de la petición solicitada. La coordinación entre empresa y departamento municipal.   4.  Información sobre empresas y profesionales del sector audiovisual   Madrid Film Office pone a disposición de los interesados un directorio de profesionales y de empresas del sector audiovisual en Madrid:   Empresas: https://madridfilmoffice.com/directorio-empresas/  Profesionales: https://madridfilmoffice.com/directorio-profesionales/";"Metro: Sol (líneas 1, 2, 3), Ópera (línea 2, 5, Ramal)  Bus: 50, 31, 65, SE712, 17, 002, 35, 18, 23  Renfe: Sol.  Bicimad: Estación 32 (plaza Provincia, 1) / estación 31 (calle Mayor, 20)  Aparcamiento: Plaza Mayor (55), Plaza Mayor";"";"1";"http://www.madrid.es/sites/v/index.jsp?vgnextchannel=bfa48ab43d6bb410VgnVCM100000171f5a0aRCRD&vgnextoid=b72a196f7d003610VgnVCM2000001f4a900aRCRD";"MAYOR";"PLAZA";"V";"27";"";"";"";"Casa de la Panadería";"MADRID";"MADRID";"28012";"6";"SOL";"1";"CENTRO";"439983";"4474154";"40.41583855082183";"-3.7074257084323636";"913 184 588";"";"info@madridfilmoffice.com";"/contenido/entidadesYorganismos/OficinasTurismo"; 
7836;"Oficina Joven Comunidad de Madrid. TIVE. Moncloa";"";"Con  cita previa , de lunes a viernes:  De 9 a 19 horas de abril a septiembre. De 9 a 14 horas de octubre a marzo.";"Obtención de Carné Joven. Información de carnés: Estudiante (ISIC), Profesor (ITIC), International Youth Travel Card (IYTC), Alberguista. Reservas en albergues juveniles internacionales. Información sobre cursos, becas, idiomas, campamentos, campos de voluntariado, albergues y refugios y voluntariado en Europa. Información sobre Garantía Juvenil.";"Metro: Moncloa (líneas 3 y 6).  Bus: 1, 138, 44, 62, C2, 001, 132, 82, 16, 61, 133, 83, G, C1, 161, 46, 160, 162.  Bicimad:  Estaciones 111 a y b (calle Arcipreste de Hita, 12),  110 (paseo de Moret, 2).";"";"1";"http://www.madrid.es/sites/v/index.jsp?vgnextchannel=bfa48ab43d6bb410VgnVCM100000171f5a0aRCRD&vgnextoid=397e19d41471c010VgnVCM1000000b205a0aRCRD";"FERNANDO EL CATOLICO";"CALLE";"V";"88";"";"";"";"";"MADRID";"MADRID";"28015";"1";"GAZTAMBIDE";"7";"CHAMBERI";"439119";"4476224";"40.43442331966472";"-3.717795251173153";"915 437 412";"";"correo.cridj@madrid.org";"/contenido/entidadesYorganismos/OficinasTurismo"; 
10127255;"Oficina de Turismo de Andalucía en Madrid";"";"";"";"Metro: Goya (líneas 2, 4), O'Donnell (línea 6), Príncipe de Vergara (líneas 2, 9)   Bus: 30, C1, E4, 146, 21, 43, 53, 26, 61, E5, 215, C2, 152, 63    Bicimad: Estación 100 (calle Goya, 99)   Aparcamiento: Felipe II (26), avenida. Felipe II y calle Goya)";"";"3";"http://www.madrid.es/sites/v/index.jsp?vgnextchannel=bfa48ab43d6bb410VgnVCM100000171f5a0aRCRD&vgnextoid=d0abc974d4ae6510VgnVCM1000001d4a900aRCRD";"FELIPE II";"AVENIDA";"V";"15";"1ª";"";"";"";"MADRID";"MADRID";"28009";"2";"GOYA";"4";"SALAMANCA";"442841";"4475057";"40.424183525039";"-3.673810495427334";"912 031 200";"";"";"/contenido/entidadesYorganismos/OficinasTurismo"; 
27402;"Oficina de Turismo de Andorra";"";"";"";"Metro: Retiro (línea 2), Serrano (línea 4), Banco de España (línea 2)  Autobuses: 28, 1, 146, 15, 19, 2, 20, 51, 52, 74, 9  Bicimad: Estación 60 (Plaza de la Independencia, 6) / estación 107 (calle Serrano, 8)  Cercanias: Recoletos (C1, C2, C7, C8, C10)";"";"3";"http://www.madrid.es/sites/v/index.jsp?vgnextchannel=bfa48ab43d6bb410VgnVCM100000171f5a0aRCRD&vgnextoid=eb68444a2951c010VgnVCM2000000c205a0aRCRD";"ALCALA";"CALLE";"V";"73";"";"";"";"";"MADRID";"MADRID";"28009";"1";"RECOLETOS";"4";"SALAMANCA";"441686";"4474654";"40.420463942385524";"-3.6873880759267004";"914 317 453 / 900 834 804";"";"info.es@visitandorra.com";"/contenido/entidadesYorganismos/OficinasTurismo"; 
127469;"Oficina de Turismo de Brasil";"";"";"";"Metro: Alonso Martínez (líneas 4, 5, 10), Rubén Darío (línea 5), Colón (línea 4)  Bus: 7  Cercanías: Recoletos (C1, C2, C7, C8, C10)  Aparcamiento: Almagro (12), calle Almagro, 11";"";"3";"http://www.madrid.es/sites/v/index.jsp?vgnextchannel=bfa48ab43d6bb410VgnVCM100000171f5a0aRCRD&vgnextoid=b15d47048781c010VgnVCM1000000b205a0aRCRD";"ALMAGRO";"CALLE";"V";"28";"2ª";"";"";"";"MADRID";"MADRID";"28010";"4";"ALMAGRO";"7";"CHAMBERI";"441238";"4475736";"40.43017960044132";"-3.692768600492918";"917 004 650";"";"secom.madrid@itamaraty.gov.br";"/contenido/entidadesYorganismos/OficinasTurismo"; 
1637;"Oficina de Turismo de Galicia en Madrid";"";"Consultar.";"";"Bus: 19  Bicimad: Estación 68 (calle Espalter, 1)";"";"3";"http://www.madrid.es/sites/v/index.jsp?vgnextchannel=bfa48ab43d6bb410VgnVCM100000171f5a0aRCRD&vgnextoid=b6f40a47f441f010VgnVCM2000000c205a0aRCRD";"CASADO DEL ALISAL";"CALLE";"V";"8";"";"";"";"";"MADRID";"MADRID";"28014";"5";"LOS JERONIMOS";"3";"RETIRO";"441408";"4473920";"40.413841115871094";"-3.6906090973201957";"915 954 214";"915 954 268";"ot.gal.madrid@xunta.es";"/contenido/entidadesYorganismos/OficinasTurismo"; 
6416785;"Oficina de Turismo de Guatemala";"";"";"";"Metro: Cuzco (línea 10)  Bus: 147, 27, 5, 11, 40";"";"3";"http://www.madrid.es/sites/v/index.jsp?vgnextchannel=bfa48ab43d6bb410VgnVCM100000171f5a0aRCRD&vgnextoid=df5f44e4373f6310VgnVCM1000000b205a0aRCRD";"CASTELLANA";"PASEO";"V";"178";"6";"IZQUIERDA";"";"";"MADRID";"MADRID";"28046";"5";"NUEVA ESPAÑA";"5";"CHAMARTIN";"441569";"4479133";"40.46081583825652";"-3.689177427623146";"913 440 347 / 913 441 417";"";"turismo@embajadaguatemala.es";"/contenido/entidadesYorganismos/OficinasTurismo"; 
39693;"Oficina de Turismo de Irán";"";"";"";"Metro: Avenida de América (líneas 4, 6, 7, 9), Gregorio Marañón (líneas 7, 10), Núñez de Balboa (líneas 5, 9)  Bus: 16, 19, 51, 9, 12  Bicimad: Estación 140 (calle Velázquez, 130)";"";"3";"http://www.madrid.es/sites/v/index.jsp?vgnextchannel=bfa48ab43d6bb410VgnVCM100000171f5a0aRCRD&vgnextoid=66e6e7510551c010VgnVCM2000000c205a0aRCRD";"MARIA DE MOLINA";"CALLE";"V";"26";"1ª";"IZQUIERDA";"";"";"MADRID";"MADRID";"28006";"6";"CASTELLANA";"4";"SALAMANCA";"441920";"4476551";"40.4375784193194";"-3.6848033506224906";"915 643 613";"";"iran@iransara.es";"/contenido/entidadesYorganismos/OficinasTurismo"; 
7823;"Oficina de Turismo de Italia";"";"";"";"Metro: Nuevos Ministerios (líneas 6, 8, 10)  Bus: 14, 126, 147, 150, 27, 40, 7, C2, C1  Cercanías: Nuevos Ministerios (C1, C2, C3, C4, C7, C8)";"";"3";"http://www.madrid.es/sites/v/index.jsp?vgnextchannel=bfa48ab43d6bb410VgnVCM100000171f5a0aRCRD&vgnextoid=1b2d19d41471c010VgnVCM1000000b205a0aRCRD";"CASTELLANA";"PASEO";"V";"114";"4.ª";"PUERTA 1";"1";"";"MADRID";"MADRID";"28046";"1";"EL VISO";"5";"CHAMARTIN";"441444";"4477612";"40.44710927364525";"-3.690508838455886";"915 670 670";"";"";"/contenido/entidadesYorganismos/OficinasTurismo"; 
7834;"Oficina de Turismo de Jordania";"";"";"";"Metro: Diego de León (líneas 4, 5 y 6), Manuel Becerra (líneas 2 y 6)  Bus: 12, 210, 43, 48, 56, C1, 1, 74  Bicimad: Estación 192 (avenida de los Toreros, 3) / Estación 145 (calle Ortega y Gasset, 87)";"";"3";"http://www.madrid.es/sites/v/index.jsp?vgnextchannel=bfa48ab43d6bb410VgnVCM100000171f5a0aRCRD&vgnextoid=ad3d19d41471c010VgnVCM1000000b205a0aRCRD";"MONTESA";"CALLE";"V";"41";"";"";"";"";"MADRID";"MADRID";"28006";"5";"LISTA";"4";"SALAMANCA";"442981";"4475779";"40.43070150530818";"-3.6722141900223515";"";"";"spain@visitjordan.com";"/contenido/entidadesYorganismos/OficinasTurismo"; 
52471;"Oficina de Turismo de Malta";"";"";"";"Metro: Gregorio Marañón (líneas 7, 10), Rubén Darío (línea 5)  Bus: 16, 5, 61, 147, 40, 7, 14, 150, 27, 45,   Bicimad: Estación 141 (Paseo de la Castellana, 43)";"Localizada en la Embajada de Malta";"3";"http://www.madrid.es/sites/v/index.jsp?vgnextchannel=bfa48ab43d6bb410VgnVCM100000171f5a0aRCRD&vgnextoid=f8f6e7510551c010VgnVCM2000000c205a0aRCRD";"CASTELLANA";"PASEO";"V";"45";"6ª";"Derecha";"";"";"MADRID";"MADRID";"28046";"4";"ALMAGRO";"7";"CHAMBERI";"441505";"4476346";"40.43569358766222";"-3.689677189614338";"913 913 061";"";"maltaembassy.madrid@gov.mt";"/contenido/entidadesYorganismos/OficinasTurismo"; 
7824;"Oficina de Turismo de Marruecos";"";"";"";"Metro: Ventura Rodríguez (línea 3), Plaza de España (línea 3)  Bus: 62, 74  Bicimad: Estación 14 (calle Ventura Rodríguez, 2)  Aparcamiento: Plaza de España (53), Plaza de España";"";"3";"http://www.madrid.es/sites/v/index.jsp?vgnextchannel=bfa48ab43d6bb410VgnVCM100000171f5a0aRCRD&vgnextoid=9fbd19d41471c010VgnVCM1000000b205a0aRCRD";"VENTURA RODRIGUEZ";"CALLE";"V";"24";"1º";"Izquierda";"";"";"MADRID";"MADRID";"28008";"2";"ARGUELLES";"9";"MONCLOA-ARAVACA";"439383";"4475087";"40.42420902572595";"-3.714574560417809";"915 412 995";"";"";"/contenido/entidadesYorganismos/OficinasTurismo"; 
7826;"Oficina de Turismo de Perú";"";"";"";"Metro: Lista (línea 4), Diego de León (línea 4, 5, 9), Núñez de Balboa (línea 5, 9)  Bus: 1, 74, 29, 52  Bicimad: Estación 186 (calle General Pardiñas, 56)  Aparcamiento: Marqués de Salamanca (25), Plaza Marques de Salamanca";"";"3";"http://www.madrid.es/sites/v/index.jsp?vgnextchannel=bfa48ab43d6bb410VgnVCM100000171f5a0aRCRD&vgnextoid=b4ed19d41471c010VgnVCM1000000b205a0aRCRD";"MARQUES DE SALAMANCA";"PLAZA";"V";"10";"";"";"";"";"MADRID";"MADRID";"28006";"5";"LISTA";"4";"SALAMANCA";"442381";"4475670";"40.429674007218026";"-3.6792883340980196";"911 937 511";"";"info@oficinacomercialdeperu.es";"/contenido/entidadesYorganismos/OficinasTurismo"; 
7835;"Oficina de Turismo de Polonia";"";"";"";"Metro: Plaza de España (líneas 3, 10), Ventura Rodríguez (línea 3), Noviciado (línea 2)  Bus: 001, 1, 2, 133, 138, 44, C1, 62, 74  Bicimad: estaciñon 116 a y b (calle Princesa, 5)  Aparcamiento: Plaza de España (53), Plaza de España";"";"3";"http://www.madrid.es/sites/v/index.jsp?vgnextchannel=bfa48ab43d6bb410VgnVCM100000171f5a0aRCRD&vgnextoid=47fd19d41471c010VgnVCM1000000b205a0aRCRD";"PRINCESA";"CALLE";"V";"3";"";"local 1310";"";"Duplicado";"MADRID";"MADRID";"28008";"2";"ARGUELLES";"9";"MONCLOA-ARAVACA";"439529";"4475145";"40.42474213964734";"-3.7128591034859424";"915 414 808";"";"info.es@polonia.travel";"/contenido/entidadesYorganismos/OficinasTurismo"; 
5405234;"Oficina de Turismo de Portugal";"";"";"";"Metro: Núñez de Balboa (líneas 5, 9), Serrano (línea 4), Velázquez (línea 4)  Bus: 1, 19, 51, 74, 9  Bicimad: Estación 103 (Calle José Ortega y Gasset, 4)";"";"3";"http://www.madrid.es/sites/v/index.jsp?vgnextchannel=bfa48ab43d6bb410VgnVCM100000171f5a0aRCRD&vgnextoid=f3ad9a4aca553210VgnVCM2000000c205a0aRCRD";"LAGASCA";"CALLE";"V";"88";"4ª";"B";"";"";"MADRID";"MADRID";"28001";"6";"CASTELLANA";"4";"SALAMANCA";"441918";"4475700";"40.42991206232817";"-3.6847491581278606";"917 617 230";"";"info.espanha@turismodeportugal.pt";"/contenido/entidadesYorganismos/OficinasTurismo"; 
181856;"Oficina de Turismo de República Checa";"";"";"";"Metro: Pío XII (línea 9), Duque de Pastrana (línea 9)  Bus: 150, 16, 29, 107, 70";"";"3";"http://www.madrid.es/sites/v/index.jsp?vgnextchannel=bfa48ab43d6bb410VgnVCM100000171f5a0aRCRD&vgnextoid=c9980e4e6d41c010VgnVCM2000000c205a0aRCRD";"PIO XII";"AVENIDA";"V";"22";"";"";"";"-24";"MADRID";"MADRID";"28016";"5";"NUEVA ESPAÑA";"5";"CHAMARTIN";"442783";"4479722";"40.466195029254166";"-3.674926102930997";"913 592 527";"";"madrid@czechtourism.com";"/contenido/entidadesYorganismos/OficinasTurismo"; 
7829;"Oficina de Turismo de República Dominicana";"";"";"";"Metro: Banco España (línea 2)  Bus: 14, 150, 27, 37, 45, 5, 53, C03, 203, E1, 001, 1, 146, 15, 2, 20, 51, 52, 74, 9  Renfe: Recoletos  Aparcamiento: Montalbán (49), calle Montalbán (entre calle Alfonso XI y paseo Prado)";"";"3";"http://www.madrid.es/sites/v/index.jsp?vgnextchannel=bfa48ab43d6bb410VgnVCM100000171f5a0aRCRD&vgnextoid=6c1e19d41471c010VgnVCM1000000b205a0aRCRD";"ALCALÁ";"CALLE";"V";"59";"4º";"";"";"";"MADRID";"MADRID";"28014";"6";"CASTELLANA";"4";"SALAMANCA";"441794";"4476348";"40.43574088970734";"-3.686270282394151";"914 177 375";"";"espana@mitur.gob.do";"/contenido/entidadesYorganismos/OficinasTurismo"; 
7832;"Oficina de Turismo de Turquía";"";"";"";"Metro: Retiro (línea 2), Banco de España (línea 2), Estación del Arte (Atocha) (línea 1)  Bus: 19  Bicimad: Estación 65 (calle Antonio Maura, 15)  Renfe: Atocha (C1, C2, C3, C4, C5, C7, C10)  Aparcamiento: Montalbán (49), calle Montalbán (entre calle Alfonso XI y paseo Prado)";"";"3";"http://www.madrid.es/sites/v/index.jsp?vgnextchannel=bfa48ab43d6bb410VgnVCM100000171f5a0aRCRD&vgnextoid=a66e19d41471c010VgnVCM1000000b205a0aRCRD";"ANTONIO MAURA";"CALLE";"V";"18";"2º";"D";"";"";"MADRID";"MADRID";"28014";"5";"LOS JERONIMOS";"3";"RETIRO";"441480";"4474203";"40.416395587157496";"-3.6897865586854928";"915 597 014 / 915 597 114";"";"turquia@ktb.gov.tr";"/contenido/entidadesYorganismos/OficinasTurismo"; 
7841;"Oficina de Turismo de Túnez";"";"";"";"Metro: San Bernardo (líneas 2, 4),  Quevedo (línea 2)  Bus: 3, 37, 149  Bicimad: Estación 3 (Plaza del Conde Suchil 2-4)";"";"3";"http://www.madrid.es/sites/v/index.jsp?vgnextchannel=bfa48ab43d6bb410VgnVCM100000171f5a0aRCRD&vgnextoid=145e19d41471c010VgnVCM1000000b205a0aRCRD";"RODRIGUEZ SAN PEDRO";"CALLE";"V";"2";"";"Oficina 1108";"";"";"MADRID";"MADRID";"28015";"2";"ARAPILES";"7";"CHAMBERI";"440158";"4475899";"40.43158083851068";"-3.7055131033895483";"915 481 435";"915 483 705";"info.madrid@discovertunisia.com";"/contenido/entidadesYorganismos/OficinasTurismo"; 
5405423;"Oficina de Turismo de Venezuela";"";"";"";"Metro: Santiago Bernabeu (línea 10), Cuzco (línea 10), Nuevos Ministerios (línea 6, 8, 10)  Bus: 43, 149, 5  Bicimad: Estación 156 (calle Sor Ángela de la Cruz, 2)  Cercanías: Nuevos Ministerios (C1, C2, C3, C4, C7, C8, C10)  Aparcamiento: Orense (22), avenida General Perón, 27";"Localizada en la Embajada de Venezuela";"3";"http://www.madrid.es/sites/v/index.jsp?vgnextchannel=bfa48ab43d6bb410VgnVCM100000171f5a0aRCRD&vgnextoid=2457116bb1653210VgnVCM2000000c205a0aRCRD";"POETA JOAN MARAGALL";"CALLE";"V";"1";"13";"";"";"EDIFICIO EUROCENTRO";"MADRID";"MADRID";"28020";"2";"CUATRO CAMINOS";"6";"TETUAN";"441251";"4478298";"40.453269184872156";"-3.6928523641457414";"915 981 200";"915 971 583";"";"/contenido/entidadesYorganismos/OficinasTurismo"; 
190857;"Oficina de Turismo de la Comunidad de Madrid. Aeropuerto Adolfo Suárez Madrid Barajas (T4) - (T1)";"";"T4: Lunes a sábado, de 8 a 20 horas. Domingos y festivos, de 9 a 14 horas.  T1: Lunes a sábado, de 8 a 15:30 horas. Domingos y festivos, de 9 a 14 horas. (Cerrada temporalmente)  Cerradas los días 1 de enero, 1 de mayo y 25 de diciembre.";"";"Metro: Línea 8 - estación Aeropuerto T-4   Bus: Línea 201 Barajas - Aeropuerto T4";"";"3";"http://www.madrid.es/sites/v/index.jsp?vgnextchannel=bfa48ab43d6bb410VgnVCM100000171f5a0aRCRD&vgnextoid=28aa8f79e9c70110VgnVCM1000000b205a0aRCRD";"HISPANIDAD";"AVENIDA";"V";"2";"";"";"";"Llegadas internacionales T4 - Sala 11 y T1";"MADRID";"MADRID";"28042";"2";"AEROPUERTO";"21";"BARAJAS";"450312";"4478080";"40.45188738242834";"-3.5859807207200376";"913 338 247";"";"turismo@madrid.org";"/contenido/entidadesYorganismos/OficinasTurismo"; 
68611;"Oficina de Turismo de la Comunidad de Madrid. Estación de Atocha";"";"De lunes a sábado de 8 a 15:30 horas. Domingos y festivos de 9 a 14 horas. Cerrado 1 enero, 1 mayo y 25 diciembre.";"";"Metro: Estación del Arte (Atocha) (línea 1)  Bus: 27, 34, C03, C1, 59, 6, 85, E1, 102, 86, C2, 001, 10, 14, 119, 36, 41, 19, 45, 26, 32  Renfe: Atocha (C1, C2, C3, C4, C5, C7, C10)  Bicimad: Estación 50 (calle Santa Isabel, 57) / Estación 51 (Ronda Atocha, 2)  Aparcamiento: Sánchez Bustillo (37), calle Sánchez Bustillo";"";"3";"http://www.madrid.es/sites/v/index.jsp?vgnextchannel=bfa48ab43d6bb410VgnVCM100000171f5a0aRCRD&vgnextoid=3f1f96e2cf41c010VgnVCM2000000c205a0aRCRD";"EMPERADOR CARLOS V";"PLAZA";"V";"3";"";"";"";"VESTÍBULO DEL AVE";"MADRID";"MADRID";"28045";"7";"ATOCHA";"2";"ARGANZUELA";"441257";"4473263";"40.4079119564538";"-3.6923163004968975";"915 284 630";"";"turismo@madrid.org";"/contenido/entidadesYorganismos/OficinasTurismo"; 
7844;"Oficina de información turística de Castilla y León en Madrid";"";"Consultar.";"";"Metro: Retiro (línea 2), Principe de Vergara (línea 2), Velázquez (línea 4)  Bus: 146, 15, 52, 1, 19, 51, 74, 9, 20   Bicimad: Estación 102: calle Alcalá, 95 / Estación 96: calle Alcalá, 111";"";"3";"http://www.madrid.es/sites/v/index.jsp?vgnextchannel=bfa48ab43d6bb410VgnVCM100000171f5a0aRCRD&vgnextoid=c93c19d41471c010VgnVCM1000000b205a0aRCRD";"ALCALÁ";"CALLE";"V";"105";"baja";"";"";"";"MADRID";"MADRID";"28009";"1";"RECOLETOS";"4";"SALAMANCA";"442074";"4474796";"40.42177018095319";"-3.6828394778643716";"915 780 324";"";"oficinademadridfundacionsiglo@gmail.com";"/contenido/entidadesYorganismos/OficinasTurismo"; 
11051271;"Oficina de promoción de Castilla - La Mancha en Madrid";"";"Consultar.";"";"Metro: Santo Domingo (línea 2), Callao (líneas 1 y 3).  Bus: 001, 1, 2, 3, 46, 74, 133, 147, 148, 44, 75  Bicimad: Estación 2 (calle Miguel Moya, 1) / Estación 22 (calle Jacometrezzo, 3) / Estación 23 (Plaza Santo Domingo, 1)  Aparcamientos: Isabel la Católica (98), Calle de Isabel la Católica / Luna-Tudescos (14), P. Sta M&amp;ordf; Soledad Torres Acosta / El Corte Inglés Callao (92), Plaza de Callao";"";"3";"http://www.madrid.es/sites/v/index.jsp?vgnextchannel=bfa48ab43d6bb410VgnVCM100000171f5a0aRCRD&vgnextoid=f7750a11f811e610VgnVCM2000001f4a900aRCRD";"GRAN VIA";"CALLE";"V";"45";"";"";"";"";"MADRID";"MADRID";"28013";"1";"PALACIO";"1";"CENTRO";"439997";"4474714";"40.42090127868798";"-3.707295329224958";"680 221 008 / 682 227 249 (Whatsaap)";"";"infoopclm@jccm.es";"/contenido/entidadesYorganismos/OficinasTurismo"; 
5631196;"Punto de Información Turística Aeropuerto Adolfo Suárez Madrid -  Barajas Terminal 2 (Entre salas 5 y 6)";"";"Abierto durante todo el año ofrece todo lo que el visitante necesita para disfrutar de su estancia.  Horario de atención al público de 9:30 a 20:30 horas, todos los días del año.";"Atención presencial en varios idiomas Servicio de atención no presencial (teléfono 915 787 810 y email turismo@esmadrid.com) Atención por WhatsApp 619 111 094 Autoconsulta con folletos descargables mediante código QR Audiovisuales  Acceso adaptado Blucle magnético Servicio MAULSE: Servicio de interpretación de Lengua de Signos Española en remoto Guía de Turismo Accesible  También disponen de un Mapa Accesible de Madrid en braille y con un QR descargable en los dispositivos móviles para personas con discapacidad visual con toda la información turística. Además, los informadores turísticos han recibido formación específica para la atención a personas con discapacidad .";"Metro: Aeropuerto T2 (línea 8)  Bus: 200 y autobús Express aeropuerto";"";"1,4,6";"http://www.madrid.es/sites/v/index.jsp?vgnextchannel=bfa48ab43d6bb410VgnVCM100000171f5a0aRCRD&vgnextoid=88dfad2e06ea7210VgnVCM2000000c205a0aRCRD";"HISPANIDAD";"AVENIDA";"V";"0";"";"";"";"Aeropuerto de Barajas. Salas 5 y 6";"MADRID";"MADRID";"28042";"2";"AEROPUERTO";"21";"BARAJAS";"450312";"4478080";"40.45188738242834";"-3.5859807207200376";"915 787 810";"";"turismo@esmadrid.com";"/contenido/entidadesYorganismos/OficinasTurismo"; 
178759;"Punto de Información Turística Aeropuerto Adolfo Suárez Madrid - Barajas Terminal 4 (Sala 10)";"";"Abierto durante todo el año ofrece todo lo que el visitante necesita para disfrutar de su estancia.  Horario de atención al público de 9:30 a 20:30 horas, todos los días del año.";"Atención presencial en varios idiomas Servicio de atención no presencial (teléfono 915 787 810 y e-mail turismo@esmadrid.com) Atención por WhatsApp 619 111 094 Autoconsulta con folletos descargables mediante código QR Audiovisuales Acceso adaptado  Bucle magnético Mostrador adaptado Servicio MAULSE: Servicio de interpretación de Lengua de Signos Española en remoto Guía de Turismo Accesible  También disponen de un Mapa Accesible de Madrid en braille y con un QR descargable en los dispositivos móviles para personas con discapacidad visual con toda la información turística. Además, los informadores turísticos han recibido formación específica para la atención a personas con discapacidad.";"Metro: Aeropuerto T 4 (línea 8)  Bus: 200 y Exprés Aeropuerto  Renfe: Aeropuerto T 4";"";"1,4,6";"http://www.madrid.es/sites/v/index.jsp?vgnextchannel=bfa48ab43d6bb410VgnVCM100000171f5a0aRCRD&vgnextoid=8f871c7a2c61c010VgnVCM1000000b205a0aRCRD";"HISPANIDAD";"AVENIDA";"V";"0";"";"";"";"Aeropuerto de Barajas. Salas 10";"MADRID";"MADRID";"28042";"2";"AEROPUERTO";"21";"BARAJAS";"450312";"4478080";"40.45188738242834";"-3.5859807207200376";"915 787 810";"";"turismo@esmadrid.com";"/contenido/entidadesYorganismos/OficinasTurismo"; 
11050930;"Punto de Información Turística Palacio Real";"";"Abierto durante todo el año ofrece todo lo que el visitante necesita para disfrutar de su estancia.  Horario de atención al público de 9:30 a 20:30 horas, todos los días del año.";"Atención presencial en varios idiomas Servicio de atención no presencial (teléfono 915 787 810 y email turismo@esmadrid.com) Atención por WhatsApp 619 111 094 Autoconsulta con folletos descargables mediante código QR Audiovisuales Guía de Turismo Accesible WIFI gratuita Bucle magnético Mostrador adaptado Servicio MAULSE: Servicio de interpretación de Lengua de Signos Española en remoto. Guía de Turismo Accesible Rampa de acceso para atención a personas en silla de ruedas.  También disponen de un Mapa Accesible de Madrid en braille y con un QR descargable en los dispositivos móviles para personas con discapacidad visual con toda la información turística. Además,  los informadores turísticos han recibido formación específica para la atención a personas con discapacidad.";"Metro: Ópera (líneas 2, 5, R)  Bus: 3, 25, 39, 46, 75, 138, 148, C1  Bicimad: Estación 36 (Plaza de Ramales, 1)";"";"1,4,6";"http://www.madrid.es/sites/v/index.jsp?vgnextchannel=bfa48ab43d6bb410VgnVCM100000171f5a0aRCRD&vgnextoid=81d3b801a201e610VgnVCM2000001f4a900aRCRD";"BAILEN";"CALLE";"V";"0";"";"";"";"semiesquina calle Requena, frente Palacio Real";"MADRID";"MADRID";"28013";"1";"PALACIO";"1";"CENTRO";"439580";"4474285";"40.41700064452497";"-3.7121662397143345";"915 787 810";"";"turismo@esmadrid.com";"/contenido/entidadesYorganismos/OficinasTurismo"; 
10085167;"Punto de Información Turística Reina Sofía";"Punto de Información Turística cofinanciado por el Fondo Europeo de Desarrollo Regional.";"Abierto durante todo el año ofrece todo lo que el visitante necesita para disfrutar de su estancia.  Horario de atención al público de 9:30 a 20:30 horas, todos los días del año.";"Atención presencial en varios idiomas Servicio de atención no presencial (teléfono 915 787 810 y email turismo@esmadrid.com) Atención por WhatsApp 619 111 094 Audiovisuales Autoconsulta con folletos descargables mediante código QR WIFI Gratuita Bucle magnético  Mostrador adaptado Servicio MAULSE: Servicio de interpretación de Lengua de Signos Española en remoto Guía de Turismo Accesible  También disponen de un Mapa Accesible de Madrid en braille y con un QR descargable en los dispositivos móviles para personas con discapacidad visual con toda la información turística. Además, los informadores turísticos han recibido formación específica para la atención a personas con discapacidad.";"Metro: Estación del Arte (Atocha) (línea 1)  Bus: 6, 26, 27, 32, 34, C01, C1  Renfe: Largo recorrido, AVE y cercanías  Bicimad: Estación 50 (calle Santa Isabel, 57) / Estación 51 (Ronda de Atocha, 2)  Aparcamiento: Sánchez Bustillo (37), Calle Sánchez Bustillo";"";"1,4,6";"http://www.madrid.es/sites/v/index.jsp?vgnextchannel=bfa48ab43d6bb410VgnVCM100000171f5a0aRCRD&vgnextoid=8321a9a7e3525510VgnVCM2000001f4a900aRCRD";"SANTA ISABEL";"CALLE";"V";"52";"";"";"";"";"MADRID";"MADRID";"28012";"2";"EMBAJADORES";"1";"CENTRO";"441118";"4473345";"40.40864029339671";"-3.6939504103293244";"915 787 810";"";"turismo@esmadrid.com";"/contenido/entidadesYorganismos/OficinasTurismo"; 
11456723;"Punto de Información Turística de Cuesta de Moyano";"";"Abierto durante todo el año ofrece todo lo que el visitante necesita para disfrutar de su estancia.  Horario de atención al público de 9:30 a 20:30 horas, todos los días del año.";"Atención presencial en varios idiomas. Servicio de atención no presencial (teléfono 915 787 810 y email turismo@esmadrid.com) Atención por WhatsApp 619 111 094 Autoconsulta en folletos físicos y descargables WIFI gratuita Bucle magnético Servicio MAULSE: Servicio de interpretación de Lengua de Signos Española en remoto Guía de Turismo Accesible  Dispone de un Mapa Accesible de Madrid en braille y con un QR descargable en los dispositivos móviles para personas con discapacidad visual con toda la información turística. Además, los informadores turísticos han recibido formación específica para la atención a personas con discapacidad.";"Metro: Estación del Arte (Atocha) (línea 1)  Bus: 1, 10, 14, 19, 26, 27, 32, 34, 37, 45, C03, E1  Renfe: Largo recorrido, AVE y cercanías  Bicimad: Estación 81: Cuesta de Moyano (Calle Cuesta Moyano) / Estación 69: Puerta del Ángel Caído (Avenida de Alfonso XII, 54) / Estación 50: Museo Reina Sofía (calle Santa Isabel, 57) / Estación 67: Almadén (calle Almadén, 28)";"";"1,4,6";"http://www.madrid.es/sites/v/index.jsp?vgnextchannel=bfa48ab43d6bb410VgnVCM100000171f5a0aRCRD&vgnextoid=6795f567e869b710VgnVCM1000001d4a900aRCRD";"CLAUDIO MOYANO";"CALLE";"V";"1";"";"";"";"";"MADRID";"MADRID";"28014";"5";"LOS JERONIMOS";"3";"RETIRO";"441508";"4473468";"40.40978192192937";"-3.6893720604492173";"915 787 810";"";"turismo@esmadrid.com";"/contenido/entidadesYorganismos/OficinasTurismo"; 
7050847;"Punto de Información Turística. CentroCentro";"El espacio de exposiciones CentroCentro, en el Palacio de Cibeles (actual sede del Ayuntamiento de Madrid y antiguo Palacio de Correos) alberga un punto de información turística y una tienda con recuerdos y artesanías madrileñas.";"De martes a domingo de 10 a 20 horas. Cerrado: todos los lunes, 1 y 6 de enero, 1 de mayo y 24, 25 y 31 de diciembre. 5 de enero de 10 a 14 horas. Las salas se desalojarán 15 minutos antes del cierre del centro.";"Atención presencial en varios idiomas Servicio de atención no presencial (teléfono 915 787 810 y email turismo@esmadrid.com) Atención por WhatsApp 619 111 094 Autoconsulta con folletos descargables mediante código QR Audiovisuales Acceso adaptado  Tienda de recuerdos y artesanías madrileñas (solo pago con tarjeta) Punto de venta del Madrid City Tour (solo pago con tarjeta) WIFI Gratuita Bucle magnético Mostrador adaptado Guía de Turismo Accesible  También disponen de un Mapa Accesible de Madrid en braille y con un QR descargable en los dispositivos móviles para personas con discapacidad visual con toda la información turística. Además, los informadores turísticos han recibido formación específica para la atención a personas con discapacidad.";"Metro: Banco de España (línea 2) Bus: 1, 2, 5, 9, 10, 14, 15, 20, 27, 34, 37, 45, 51, 52, 53, 74, 146, 150, 203, C03, E1  Renfe: Recoletos  Bicimad: Estación 86 (Plaza de Cibeles)";"Periodo 1904 &amp;middot; 1918 Actuaciones: Antonio Palacios Ramilo , Joaquín Otamendi Machimbarrena: 1904 (P) 1905-1918 (O). Ampliación calle Montalbán: Julián Otamendi Machimbarrena, Luis Lozano Losilla: 1934 (P) 1934-1945 (O). Restauración fachadas y torreón central : María Belén Isla Ayuso: 1996 (P). Adecuación sede municipal: Arquimática S.L.: 2007";"1,4,6";"http://www.madrid.es/sites/v/index.jsp?vgnextchannel=bfa48ab43d6bb410VgnVCM100000171f5a0aRCRD&vgnextoid=81c63eebd56ff310VgnVCM2000000c205a0aRCRD";"CIBELES";"PLAZA";"V";"1";"";"";"";"Palacio de Cibeles";"MADRID";"MADRID";"28014";"5";"LOS JERONIMOS";"3";"RETIRO";"441277";"4474496";"40.419011767401095";"-3.692206111679657";"915 787 810";"";"turismo@esmadrid.com";"/contenido/entidadesYorganismos/OficinasTurismo"; 
10085202;"Punto de Información Turística. Estadio Santiago Bernabéu";"Punto de Información Turística cofinanciado por el Fondo Europeo de Desarrollo Regional.";"Abierto durante todo el año ofrece todo lo que el visitante necesita para disfrutar de su estancia.  Horario de atención al público: de 9:30 a 20:30 horas, todos los días del año.";"Atención presencial en varios idiomas Servicio de atención no presencial (teléfono 915 787 810 y email turismo@esmadrid.com) Atención por WhatsApp 619 111 094 Audiovisuales Autoconsulta en folletos descargables WIFI Gratuita Bucle magnético  Mostrador adaptado Servicio MAULSE: Servicio de interpretación de Lengua de Signos Española en remoto.  También disponen de un Mapa Accesible de Madrid en braille y con un QR descargable en los dispositivos móviles para personas con discapacidad visual con toda la información turística. Además, los informadores turísticos han recibido formación específica para la atención a personas con discapacidad.";"Metro: Santiago Bernabeu (línea 10)  Bus: 27, 40, 126, 147 y 150";"";"1,4,6";"http://www.madrid.es/sites/v/index.jsp?vgnextchannel=bfa48ab43d6bb410VgnVCM100000171f5a0aRCRD&vgnextoid=2da4a9a7e3525510VgnVCM2000001f4a900aRCRD";"CASTELLANA";"PASEO";"V";"138";"";"";"";"junto al Estadio Santiago Bernabéu";"MADRID";"MADRID";"28046";"1";"EL VISO";"5";"CHAMARTIN";"441484";"4478096";"40.451465916355055";"-3.69008606793658";"915 787 810";"";"turismo@esmadrid.com";"/contenido/entidadesYorganismos/OficinasTurismo"; 
10085398;"Punto de Información Turística. Paseo del Prado";"Punto de Información Turística cofinanciado por el Fondo Europeo de Desarrollo Regional.";"Abierto durante todo el año ofrece todo lo que el visitante necesita para disfrutar de su estancia.  Horario de atención al público de 9:30 a 20:30 horas, todos los días del año.";"Atención presencial en varios idiomas   Audiovisuales  Servicio de atención no presencial (teléfono 915 787 810 y email (turismo@esmadrid.com) Atención por WhatsApp 619 111 094 WIFI Gratuita Bucle magnético Mostrador adaptado Servicio MAULSE: Servicio de interpretación de Lengua de Signos Española en remoto. Punto de venta del Madrid City Tour (solo pago con tarjeta)  También disponen de un Mapa Accesible de Madrid en braille y con un QR descargable en los dispositivos móviles para personas con discapacidad visual con toda la información turística. Además, los informadores turísticos han recibido formación específica para la atención a personas con discapacidad.";"Metro: Banco de España (línea 2)  Bus: 1, 10, 14, 27, 34, 37, 45, C03";"";"1";"http://www.madrid.es/sites/v/index.jsp?vgnextchannel=bfa48ab43d6bb410VgnVCM100000171f5a0aRCRD&vgnextoid=1f6bdae9bb525510VgnVCM2000001f4a900aRCRD";"NEPTUNO";"PLAZA";"V";"1";"";"";"";"FRENTE AL MUSEO DEL PRADO";"MADRID";"MADRID";"28014";"5";"LOS JERONIMOS";"3";"RETIRO";"441276";"4474259";"40.41688576337496";"-3.692184322678944";"915 787 810";"";"turismo@esmadrid.com";"/contenido/entidadesYorganismos/OficinasTurismo"; 
171082;"Punto de Información Turística. Plaza de Callao";"Punto de Información Turística cofinanciado por el Fondo Europeo de Desarrollo Regional.";"Abierto durante todo el año ofrece todo lo que el visitante necesita para disfrutar de su estancia.  Horario de atención al público de 9:30 a 20:30 horas, todos los días del año.";"Atención presencial en varios idiomas Servicio de atención no presencial (teléfono 915 787 810 y email turismo@esmadrid.com) Atención por WhatsApp 619 111 094 Autoconsulta con descargables mediante código QR Audiovisuales WIFI gratuita Bucle magnético  Mostrador adaptado Servicio MAULSE: Servicio de interpretación de Lengua de Signos Española en remoto Punto de venta del Madrid City Tour (solo pago con tarjeta)  Todos los quioscos de información turística tienen un mostrador accesible y están equipados de bucles magnéticos para atención a personas con discapacidad auditiva. También disponen de un Mapa Accesible de Madrid en braille y con un QR descargable en los dispositivos móviles para personas con discapacidad visual con toda la información turística. Además, los informadores turísticos han recibido formación específica para la atención a personas con discapacidad.";"Metro: Callao (líneas 1, 3, 5)  Bus: 1, 2, 3, 46, 74, 75, 146, 148  Bicimad: Estación 22 (Calle Jacometrezo, 3)/ Estación 2 (Calle Miguel Moya, 1)  Aparcamiento: El Corte Inglés Callao (92), Plaza de Callao";"";"1,4,6";"http://www.madrid.es/sites/v/index.jsp?vgnextchannel=bfa48ab43d6bb410VgnVCM100000171f5a0aRCRD&vgnextoid=acf029ea9281c010VgnVCM1000000b205a0aRCRD";"CALLAO";"PLAZA";"V";"1";"";"";"";"";"MADRID";"MADRID";"28013";"6";"SOL";"1";"CENTRO";"440096";"4474587";"40.41974735763767";"-3.7061346665078845";"915 787 810";"";"turismo@esmadrid.com";"/contenido/entidadesYorganismos/OficinasTurismo"; 
4629537;"Servicio de Atención al Turista Extranjero (SATE). Comisaría de Retiro";"El servicio de Atención al Turista Extranjero -SATE- es un servicio especializado gestionado por la Empresa Municipal Madrid Destino en colaboración con funcionarios del Cuerpo Nacional de Policía. Tiene por finalidad atender al turista extranjero que, durante su estancia en Madrid, haya vivido una situación excepcional y requiera de apoyo policial. Entre las funciones del servicio destaca el apoyo en trámites policiales, la localización de familiares, la cancelación de tarjetas de crédito, el contacto con embajadas y consulados, información turística y otros.";"Horario de atención al público de 9 a 00:00 horas, todos los días del año.";"Atención presencial en varios idiomas";"Metro: Antón Martín (línea 1).  Bus: 001, 10, 14, 27, 34, 37, 45, C03.  Bicimad: Estación 27 (calle Jesús, 1).";"";"1";"http://www.madrid.es/sites/v/index.jsp?vgnextchannel=bfa48ab43d6bb410VgnVCM100000171f5a0aRCRD&vgnextoid=d37386bde6594110VgnVCM1000000b205a0aRCRD";"HUERTAS";"CALLE";"V";"76";"";"";"";"Comisaría de Policía de Retiro";"MADRID";"MADRID";"28014";"3";"CORTES";"1";"CENTRO";"441036";"4473813";"40.4128573567106";"-3.694967866182062";"915 787 810";"";"satemadrid@esmadrid.com";"/contenido/entidadesYorganismos/OficinasTurismo"; 

